{
"type": "FeatureCollection",
"name": "aall",
"crs": { "type": "name", "properties": { "name": "urn:ogc:def:crs:EPSG::32717" } },
"xy_coordinate_resolution": 1e-07,
"features": [
{"type":"Feature","properties":{"Layer":"MP_CANALES GENERAL"},"geometry":{"type":"MultiLineString","coordinates":[[[615646.627,9762062.271,0.0],[615647.4859843,9762062.6735912,0.0],[615648.3449535,9762063.0770899,0.0],[615649.2038925,9762063.4824036,0.0],[615650.0627862,9762063.8904401,0.0],[615650.9216195,9762064.3021066,0.0],[615651.7803774,9762064.7183109,0.0],[615652.6390448,9762065.1399605,0.0],[615653.4976065,9762065.5679629,0.0],[615654.3099207,9762065.9782426,0.0],[615654.739,9762066.2,0.0],[615655.1680793,9762066.4217574,0.0],[615656.0692692,9762066.901023,0.0],[615656.9161211,9762067.3699128,0.0],[615657.7495687,9762067.8572932,0.0],[615658.5644192,9762068.3670479,0.0],[615659.3554798,9762068.9030604,0.0],[615660.1175576,9762069.4692141,0.0],[615660.8454599,9762070.0693926,0.0],[615661.374,9762070.552,0.0],[615661.5340115,9762070.7074638,0.0],[615662.1804637,9762071.3851656,0.0],[615662.786939,9762072.0999596,0.0],[615663.3561426,9762072.848796,0.0],[615663.8907795,9762073.6286249,0.0],[615664.3935548,9762074.4363965,0.0],[615664.8671735,9762075.269061,0.0],[615665.3143407,9762076.1235686,0.0],[615665.7377614,9762076.9968693,0.0],[615666.1401407,9762077.8859135,0.0],[615666.5241837,9762078.7876513,0.0],[615666.8925955,9762079.6990328,0.0],[615667.2480811,9762080.6170082,0.0],[615667.5933455,9762081.5385278,0.0],[615667.736,9762081.926,0.0],[615667.9309758,9762082.4606486,0.0],[615668.2616414,9762083.382164,0.0],[615668.584456,9762084.3032764,0.0],[615668.8984882,9762085.2242286,0.0],[615669.2028068,9762086.1452636,0.0],[615669.4964804,9762087.0666246,0.0],[615669.7785776,9762087.9885544,0.0],[615670.0481672,9762088.9112961,0.0],[615670.3043178,9762089.8350926,0.0],[615670.546098,9762090.7601869,0.0],[615670.7725765,9762091.6868221,0.0],[615670.982822,9762092.6152412,0.0],[615671.1759032,9762093.545687,0.0],[615671.3508887,9762094.4784027,0.0],[615671.5068472,9762095.4136311,0.0],[615671.6428473,9762096.3516154,0.0],[615671.7579578,9762097.2925985,0.0],[615671.8512472,9762098.2368233,0.0],[615671.9217843,9762099.184533,0.0],[615671.9686377,9762100.1359704,0.0],[615671.987,9762100.813,0.0],[615671.9908779,9762101.0913716,0.0],[615671.9877257,9762102.0503898,0.0],[615671.9586627,9762103.0116662,0.0],[615671.9031969,9762103.9737406,0.0],[615671.8208361,9762104.9351529,0.0],[615671.7110882,9762105.8944428,0.0],[615671.5734611,9762106.8501503,0.0],[615671.4074627,9762107.8008153,0.0],[615671.2126008,9762108.7449775,0.0],[615670.9883833,9762109.6811768,0.0],[615670.7343181,9762110.6079532,0.0],[615670.449913,9762111.5238464,0.0],[615670.134676,9762112.4273963,0.0],[615669.7881148,9762113.3171428,0.0],[615669.574,9762113.823,0.0],[615669.4097827,9762114.1916639,0.0],[615669.0007696,9762115.0508306,0.0],[615668.5640412,9762115.8960921,0.0],[615668.102677,9762116.7289934,0.0],[615667.6197564,9762117.5510796,0.0],[615667.1183589,9762118.3638957,0.0],[615666.601564,9762119.1689867,0.0],[615666.0724512,9762119.9678976,0.0],[615665.5340999,9762120.7621734,0.0],[615664.9895897,9762121.5533592,0.0],[615664.442,9762122.343,0.0],[615650.092,9762143.83,0.0],[615649.6069746,9762144.5633443,0.0],[615649.1280289,9762145.3027936,0.0],[615648.6561609,9762146.0483948,0.0],[615648.1923686,9762146.8001945,0.0],[615647.73765,9762147.5582394,0.0],[615647.2930032,9762148.3225763,0.0],[615646.8594261,9762149.093252,0.0],[615646.4379168,9762149.870313,0.0],[615646.0294732,9762150.6538063,0.0],[615645.6350934,9762151.4437784,0.0],[615645.2557753,9762152.2402761,0.0],[615644.8925171,9762153.0433462,0.0],[615644.5463166,9762153.8530354,0.0],[615644.218172,9762154.6693903,0.0],[615643.9090812,9762155.4924578,0.0],[615643.6200421,9762156.3222845,0.0],[615643.352053,9762157.1589173,0.0],[615643.223,9762157.591,0.0],[615643.1060879,9762158.0023903,0.0],[615642.8825415,9762158.8524353,0.0],[615642.6812078,9762159.7084701,0.0],[615642.5018532,9762160.5698983,0.0],[615642.3442439,9762161.4361233,0.0],[615642.2081464,9762162.3065487,0.0],[615642.0933269,9762163.180578,0.0],[615641.9995518,9762164.0576147,0.0],[615641.9265875,9762164.9370623,0.0],[615641.8742002,9762165.8183242,0.0],[615641.8421564,9762166.7008041,0.0],[615641.8302223,9762167.5839053,0.0],[615641.832,9762168.055,0.0],[615641.8381664,9762168.4670337,0.0],[615641.8658123,9762169.3496576,0.0],[615641.9130442,9762170.2313132,0.0],[615641.9797493,9762171.1115404,0.0],[615642.0658147,9762171.989879,0.0],[615642.1711276,9762172.8658686,0.0],[615642.2955751,9762173.7390492,0.0],[615642.4390444,9762174.6089604,0.0],[615642.6014228,9762175.4751421,0.0],[615642.7825972,9762176.337134,0.0],[615642.982455,9762177.194476,0.0],[615643.2008833,9762178.0467078,0.0],[615643.4377693,9762178.8933692,0.0],[615643.693,9762179.734,0.0],[615651.362,9762204.028,0.0],[615651.5331456,9762204.5951354,0.0],[615651.6901816,9762205.1663197,0.0],[615651.8335846,9762205.7412483,0.0],[615651.963831,9762206.3196166,0.0],[615652.0813976,9762206.9011203,0.0],[615652.1867607,9762207.4854546,0.0],[615652.2803968,9762208.0723153,0.0],[615652.3627827,9762208.6613977,0.0],[615652.4343946,9762209.2523972,0.0],[615652.4957093,9762209.8450095,0.0],[615652.5472032,9762210.43893,0.0],[615652.5893529,9762211.0338542,0.0],[615652.6226348,9762211.6294775,0.0],[615652.6475255,9762212.2254954,0.0],[615652.6645016,9762212.8216035,0.0],[615652.6740396,9762213.4174971,0.0],[615652.676,9762213.679,0.0],[615652.6766078,9762214.0128814,0.0],[615652.6725308,9762214.607627,0.0],[615652.6620105,9762215.2017464,0.0],[615652.6452449,9762215.7952565,0.0],[615652.622432,9762216.3881741,0.0],[615652.5937699,9762216.9805162,0.0],[615652.5594565,9762217.5722996,0.0],[615652.5196898,9762218.1635413,0.0],[615652.4746679,9762218.7542582,0.0],[615652.4245888,9762219.3444671,0.0],[615652.3696504,9762219.9341849,0.0],[615652.3100507,9762220.5234287,0.0],[615652.2459879,9762221.1122151,0.0],[615652.1776598,9762221.7005612,0.0],[615652.1052645,9762222.2884839,0.0],[615652.029,9762222.876,0.0],[615647.442,9762257.356,0.0],[615645.9639802,9762264.6052421,0.0],[615645.9184979,9762264.7937447,0.0],[615645.8592307,9762264.9823255,0.0],[615645.7868602,9762265.1700681,0.0],[615645.7020676,9762265.3560562,0.0],[615645.6055345,9762265.5393735,0.0],[615645.4979423,9762265.7191036,0.0],[615645.3799723,9762265.8943302,0.0],[615645.2523059,9762266.0641368,0.0],[615645.1156247,9762266.2276072,0.0],[615644.9706099,9762266.383825,0.0],[615644.8179431,9762266.5318739,0.0],[615644.6583056,9762266.6708375,0.0],[615644.4923788,9762266.7997994,0.0],[615644.3208442,9762266.9178433,0.0],[615644.1443832,9762267.0240528,0.0],[615643.9636771,9762267.1175117,0.0],[615643.7794074,9762267.1973035,0.0],[615643.5922555,9762267.262512,0.0],[615643.4029028,9762267.3122206,0.0],[615643.2120308,9762267.3455132,0.0],[615643.0203208,9762267.3614733,0.0]]]}},
{"type":"Feature","properties":{"Layer":"MP_CANALES GENERAL"},"geometry":{"type":"MultiLineString","coordinates":[[[615702.674,9762681.974,0.0],[615659.975,9762715.465,0.0],[615657.615,9762720.319,0.0]]]}},
{"type":"Feature","properties":{"Layer":"MP_CANALES GENERAL"},"geometry":{"type":"MultiLineString","coordinates":[[[614713.287,9762613.279,0.0],[614703.552,9762641.216,0.0],[614697.257,9762669.707,0.0]]]}},
{"type":"Feature","properties":{"Layer":"MP_CANALES GENERAL"},"geometry":{"type":"MultiLineString","coordinates":[[[615096.0829398,9762575.8449174,0.0],[615095.611,9762576.476,0.0],[615087.635,9762586.866,0.0],[615086.191,9762588.839,0.0],[615083.835,9762591.909,0.0],[615078.652,9762593.652,0.0],[615064.621,9762598.017,0.0],[615045.944,9762593.036,0.0],[615045.29,9762593.007,0.0],[615023.14,9762587.49,0.0]]]}},
{"type":"Feature","properties":{"Layer":"MP_CANALES GENERAL"},"geometry":{"type":"MultiLineString","coordinates":[[[614862.345,9762441.473,0.0],[614862.0148303,9762442.9188257,0.0],[614861.6873776,9762444.3655247,0.0],[614861.3653586,9762445.8139702,0.0],[614861.0514904,9762447.2650357,0.0],[614860.8984619,9762447.9918238,0.0],[614860.7484899,9762448.7195943,0.0],[614860.6019141,9762449.4484565,0.0],[614860.459074,9762450.1785194,0.0],[614860.3203093,9762450.9098923,0.0],[614860.1859596,9762451.6426843,0.0],[614860.0563645,9762452.3770046,0.0],[614859.9318769,9762453.1129382,0.0],[614859.812954,9762453.8503832,0.0],[614859.7001016,9762454.5891496,0.0],[614859.5938257,9762455.3290469,0.0],[614859.4946326,9762456.0698848,0.0],[614859.4030284,9762456.811473,0.0],[614859.3195191,9762457.5536209,0.0],[614859.2446109,9762458.2961382,0.0],[614859.17881,9762459.0388345,0.0],[614859.1226224,9762459.7815193,0.0],[614859.0982918,9762460.152798,0.0],[614859.0765544,9762460.5240024,0.0],[614859.0574733,9762460.8951087,0.0],[614859.0411119,9762461.2660932,0.0],[614859.0275335,9762461.636932,0.0],[614859.0168012,9762462.0076014,0.0],[614859.0089785,9762462.3780775,0.0],[614859.0041284,9762462.7483365,0.0],[614859.0023144,9762463.1183547,0.0],[614859.0035996,9762463.4881082,0.0],[614859.0080474,9762463.8575733,0.0],[614859.015721,9762464.2267261,0.0],[614859.0266836,9762464.5955429,0.0],[614859.041,9762464.964,0.0],[614866.864,9762493.858,0.0],[614867.5647611,9762495.9276549,0.0],[614868.2651143,9762497.9898295,0.0],[614868.9918643,9762500.0356779,0.0],[614869.7718157,9762502.0563541,0.0],[614870.6317732,9762504.043012,0.0],[614871.5985416,9762505.9868056,0.0],[614872.6932553,9762507.8808828,0.0],[614873.8727036,9762509.7410167,0.0],[614875.0528961,9762511.5973198,0.0],[614876.1491952,9762513.4801322,0.0],[614877.0769628,9762515.4197939,0.0],[614877.7517382,9762517.446583,0.0],[614878.1501349,9762519.5693131,0.0],[614878.399,9762521.744,0.0],[614846.812,9762561.132,0.0]]]}},
{"type":"Feature","properties":{"Layer":"MP_CANALES GENERAL"},"geometry":{"type":"MultiLineString","coordinates":[[[614827.931,9762527.07,0.0],[614824.071,9762526.918,0.0],[614809.926,9762527.485,0.0],[614806.5388272,9762527.902215,0.0],[614803.1575695,9762528.3777911,0.0],[614799.7895119,9762528.9690464,0.0],[614796.4547853,9762529.7235157,0.0],[614793.1805491,9762530.6833809,0.0],[614789.9830083,9762531.8661204,0.0],[614786.8370523,9762533.1968474,0.0],[614783.707899,9762534.5790558,0.0],[614780.5737889,9762535.947744,0.0],[614777.4543636,9762537.3380731,0.0],[614774.377474,9762538.8050651,0.0],[614771.3669222,9762540.3958688,0.0],[614768.4203411,9762542.1067455,0.0],[614765.5249577,9762543.9137219,0.0],[614762.6679727,9762545.7927731,0.0],[614759.8365867,9762547.7198741,0.0],[614757.018,9762549.671,0.0],[614735.155,9762573.197,0.0],[614727.122,9762586.43,0.0],[614721.948,9762596.449,0.0],[614718.028,9762603.444,0.0],[614716.427,9762605.769,0.0],[614713.97,9762611.634,0.0],[614713.287,9762613.279,0.0]]]}},
{"type":"Feature","properties":{"Layer":"MP_CANALES GENERAL"},"geometry":{"type":"MultiLineString","coordinates":[[[614827.003,9762614.688,0.0],[614824.027,9762620.4,0.0],[614816.613,9762631.667,0.0],[614814.2262803,9762643.7546324,0.0],[614818.567,9762657.415,0.0]]]}},
{"type":"Feature","properties":{"Layer":"MP_CANALES GENERAL"},"geometry":{"type":"MultiLineString","coordinates":[[[614846.812,9762561.132,0.0],[614843.842,9762565.203,0.0],[614839.348,9762575.176,0.0],[614829.913,9762591.906,0.0],[614827.003,9762614.688,0.0]]]}},
{"type":"Feature","properties":{"Layer":"MP_CANALES GENERAL"},"geometry":{"type":"MultiLineString","coordinates":[[[614762.5655198,9762592.5606226,0.0],[614764.437,9762588.909,0.0],[614766.995,9762583.657,0.0],[614772.786,9762574.638,0.0],[614775.59,9762572.301,0.0],[614788.504,9762566.893,0.0],[614801.875,9762562.429,0.0],[614812.182,9762560.564,0.0],[614829.6895,9762560.122,0.0],[614840.385,9762561.8095,0.0]]]}},
{"type":"Feature","properties":{"Layer":"MP_CANALES GENERAL"},"geometry":{"type":"MultiLineString","coordinates":[[[615031.436,9762735.48,0.0],[615030.157,9762735.96,0.0],[615028.224,9762736.554,0.0],[615026.97,9762736.879,0.0],[615024.811,9762737.586,0.0],[615021.408,9762738.577,0.0],[615019.456,9762739.245,0.0],[615016.256,9762740.407,0.0],[615014.671,9762740.954,0.0],[615013.532,9762741.396,0.0],[615011.932,9762741.923,0.0],[615008.423,9762743.064,0.0],[615007.724,9762743.314,0.0],[615005.518,9762744.121,0.0],[615004.186,9762744.662,0.0],[614999.939,9762746.722,0.0],[614998.25,9762747.503,0.0],[614995.027,9762748.992,0.0],[614991.297,9762752.321,0.0],[614990.766,9762753.049,0.0]]]}},
{"type":"Feature","properties":{"Layer":"MP_CANALES GENERAL"},"geometry":{"type":"MultiLineString","coordinates":[[[615048.477482,9762697.5831357,0.0],[615052.866,9762696.124,0.0],[615088.751,9762684.147,0.0],[615088.7989378,9762684.1205333,0.0],[615088.8459329,9762684.0924265,0.0],[615088.8919291,9762684.0627134,0.0],[615088.9368716,9762684.0314292,0.0],[615088.9807067,9762683.9986114,0.0],[615089.0233822,9762683.9642992,0.0],[615089.064847,9762683.9285333,0.0],[615089.1050517,9762683.8913567,0.0],[615089.1439484,9762683.8528135,0.0],[615089.1814906,9762683.8129499,0.0],[615089.2176334,9762683.7718133,0.0],[615089.2523339,9762683.7294529,0.0],[615089.2855505,9762683.6859192,0.0],[615089.3172436,9762683.6412642,0.0],[615089.3473755,9762683.5955412,0.0],[615089.3759101,9762683.5488047,0.0],[615089.4028134,9762683.5011104,0.0],[615089.4280533,9762683.4525154,0.0],[615089.4515996,9762683.4030777,0.0],[615090.883,9762680.351,0.0]]]}},
{"type":"Feature","properties":{"Layer":"MP_CANALES GENERAL"},"geometry":{"type":"MultiLineString","coordinates":[[[615150.629,9762834.117,0.0],[615143.258,9762839.371,0.0],[615136.249,9762845.213,0.0],[615130.372,9762851.816,0.0],[615122.812,9762862.797,0.0],[615115.981,9762873.645,0.0],[615112.725,9762874.435,0.0],[615107.143,9762876.976,0.0]]]}},
{"type":"Feature","properties":{"Layer":"MP_CANALES GENERAL"},"geometry":{"type":"MultiLineString","coordinates":[[[615150.3097617,9762833.6691307,0.0],[615142.9218296,9762838.9351998,0.0],[615135.8653937,9762844.8167376,0.0],[615129.9383971,9762851.4759104,0.0],[615122.352591,9762862.4943941,0.0],[615115.6344814,9762873.163118,0.0],[615112.5446154,9762873.9128091,0.0],[615107.3338447,9762876.2848206,0.0],[615107.3179803,9762876.2917136,0.0],[615107.301887,9762876.2980536,0.0],[615107.285584,9762876.3038333,0.0],[615107.2690909,9762876.3090456,0.0],[615107.2524273,9762876.3136842,0.0],[615107.2356132,9762876.3177438,0.0],[615107.2186688,9762876.3212193,0.0],[615107.2016143,9762876.3241066,0.0],[615107.1844702,9762876.3264023,0.0],[615107.1672569,9762876.3281036,0.0],[615107.1499951,9762876.3292085,0.0],[615107.1327053,9762876.3297157,0.0],[615107.1154084,9762876.3296246,0.0],[615107.098125,9762876.3289352,0.0],[615107.0808758,9762876.3276484,0.0],[615107.0636814,9762876.3257657,0.0],[615107.0465624,9762876.3232895,0.0],[615107.0295393,9762876.3202225,0.0],[615107.0126324,9762876.3165686,0.0],[615106.9958621,9762876.3123321,0.0],[615106.9792483,9762876.3075181,0.0],[615106.962811,9762876.3021323,0.0],[615106.9465699,9762876.2961811,0.0],[615106.9305443,9762876.2896718,0.0],[615106.9147534,9762876.282612,0.0],[615106.8992162,9762876.2750102,0.0],[615106.8839512,9762876.2668756,0.0],[615106.8689767,9762876.2582179,0.0],[615106.8543106,9762876.2490473,0.0],[615106.8399705,9762876.239375,0.0],[615106.8259736,9762876.2292125,0.0],[615106.8123365,9762876.2185719,0.0],[615106.7990757,9762876.2074659,0.0],[615106.7862069,9762876.195908,0.0],[615106.7737456,9762876.1839118,0.0],[615106.7617067,9762876.1714918,0.0],[615106.7501046,9762876.1586628,0.0],[615106.7389532,9762876.1454401,0.0],[615106.7282658,9762876.1318397,0.0],[615106.7180553,9762876.1178777,0.0],[615106.7083338,9762876.1035709,0.0],[615106.6991129,9762876.0889364,0.0],[615106.6904038,9762876.0739918,0.0],[615105.6301032,9762874.1799681,0.0],[615103.8420289,9762873.3579549,0.0],[615093.645,9762878.144,0.0]]]}},
{"type":"Feature","properties":{"Layer":"MP_CANALES GENERAL"},"geometry":{"type":"MultiLineString","coordinates":[[[615150.716065,9762834.2391462,0.0],[615143.3496828,9762839.4898546,0.0],[615136.3536199,9762845.3210716,0.0],[615130.4902553,9762851.9087517,0.0],[615122.9372934,9762862.8795289,0.0],[615116.0755051,9762873.7764224,0.0],[615112.7741958,9762874.5774157,0.0],[615107.205146,9762877.1125206,0.0]]]}},
{"type":"Feature","properties":{"Layer":"MP_CANALES GENERAL"},"geometry":{"type":"MultiLineString","coordinates":[[[615093.645,9762878.144,0.0],[615095.7,9762881.33,0.0]]]}},
{"type":"Feature","properties":{"Layer":"MP_CANALES GENERAL"},"geometry":{"type":"MultiLineString","coordinates":[[[615459.2737333,9762933.1991366,0.0],[615458.114,9762934.959,0.0],[615453.518,9762942.33,0.0],[615449.324,9762949.577,0.0],[615448.9314657,9762950.3090075,0.0],[615448.5399658,9762951.0413886,0.0],[615448.1505348,9762951.7745169,0.0],[615447.7642072,9762952.5087658,0.0],[615447.3820173,9762953.2445089,0.0],[615447.0049997,9762953.9821199,0.0],[615446.6341887,9762954.7219722,0.0],[615446.2706189,9762955.4644395,0.0],[615445.9153246,9762956.2098953,0.0],[615445.5693403,9762956.9587131,0.0],[615445.2337004,9762957.7112665,0.0],[615444.9094395,9762958.4679291,0.0],[615444.5975759,9762959.2290704,0.0],[615444.2981244,9762959.9948029,0.0],[615444.0095151,9762960.7648334,0.0],[615443.7300386,9762961.5388331,0.0],[615443.4579852,9762962.3164732,0.0],[615443.1916456,9762963.0974248,0.0],[615442.9293101,9762963.881359,0.0],[615442.6692694,9762964.667947,0.0],[615442.4098138,9762965.45686,0.0],[615442.1492339,9762966.247769,0.0],[615441.8858202,9762967.0403452,0.0],[615441.8339974,9762967.1949991,0.0],[615441.6197469,9762967.8343842,0.0],[615441.3648854,9762968.6305863,0.0],[615441.1411593,9762969.4300515,0.0],[615440.9685188,9762970.2338817,0.0],[615440.883,9762970.856,0.0],[615440.8668417,9762971.0431749,0.0],[615440.8452543,9762971.8584872,0.0],[615440.8908561,9762972.6792643,0.0],[615440.988048,9762973.5048157,0.0],[615441.121231,9762974.3344508,0.0],[615441.274884,9762975.1674499,0.0],[615441.4446927,9762975.9988612,0.0],[615441.6491428,9762976.8151239,0.0],[615441.9094906,9762977.6016307,0.0],[615442.2469918,9762978.3437748,0.0],[615442.449,9762978.69,0.0],[615442.6817771,9762979.0276692,0.0],[615443.2087283,9762979.6555865,0.0],[615443.7978272,9762980.2457354,0.0],[615444.418,9762980.817,0.0],[615469.753,9762999.981,0.0],[615471.6474154,9763001.2397613,0.0],[615473.5517958,9763002.4722632,0.0],[615475.4761062,9763003.6522466,0.0],[615477.4303115,9763004.7534522,0.0],[615479.4243768,9763005.7496206,0.0],[615481.468267,9763006.6144925,0.0],[615483.389,9763007.268,0.0]]]}},
{"type":"Feature","properties":{"Layer":"MP_CANALES GENERAL"},"geometry":{"type":"MultiLineString","coordinates":[[[615483.389,9763007.268,0.0],[615485.7396583,9763007.8515976,0.0],[615487.9579576,9763008.2033115,0.0],[615490.2099731,9763008.3801699,0.0],[615492.478836,9763008.3853888,0.0],[615494.7476772,9763008.2221846,0.0],[615496.9996277,9763007.8937734,0.0],[615499.2179151,9763007.4034226,0.0],[615501.390156,9763006.7567224,0.0],[615503.5100595,9763005.9624879,0.0],[615505.5717839,9763005.0297716,0.0],[615507.5694874,9763003.9676264,0.0],[615509.4973283,9763002.7851048,0.0],[615511.3494649,9763001.4912595,0.0],[615513.1200555,9763000.0951432,0.0],[615514.8032698,9762998.6058115,0.0],[615516.3983967,9762997.0335706,0.0],[615517.9178783,9762995.3919411,0.0],[615519.37624,9762993.6949525,0.0],[615520.7880075,9762991.9566346,0.0],[615522.1677063,9762990.1910168,0.0],[615523.529862,9762988.4121287,0.0],[615524.889,9762986.634,0.0]]]}},
{"type":"Feature","properties":{"Layer":"MP_CANALES GENERAL"},"geometry":{"type":"MultiLineString","coordinates":[[[615524.889,9762986.634,0.0],[615536.755,9762971.192,0.0],[615554.205,9762948.356,0.0],[615589.661,9762901.952,0.0],[615593.2081279,9762897.4451792,0.0],[615596.6321319,9762892.8534469,0.0],[615599.8098885,9762888.0918916,0.0],[615602.6272968,9762883.0887608,0.0],[615605.0282417,9762877.856866,0.0],[615606.9795447,9762872.4424684,0.0],[615608.4480838,9762866.8919119,0.0],[615609.4251443,9762861.2489589,0.0],[615610.0033086,9762855.5466554,0.0],[615610.3014348,9762849.8152679,0.0],[615610.4314828,9762844.0823794,0.0],[615610.4533531,9762838.355321,0.0],[615610.4031859,9762832.6321809,0.0],[615610.317,9762826.911,0.0],[615609.49235,9762816.9446373,0.0]]]}},
{"type":"Feature","properties":{"Layer":"MP_CANALES GENERAL"},"geometry":{"type":"MultiLineString","coordinates":[[[615424.406,9763070.237,0.0],[615447.024,9763087.423,0.0],[615465.883,9763074.812,0.0],[615469.911,9763062.891,0.0]]]}},
{"type":"Feature","properties":{"Layer":"MP_CANALES GENERAL"},"geometry":{"type":"MultiLineString","coordinates":[[[615465.652,9763015.349,0.0],[615444.158,9763031.845,0.0],[615430.025,9763043.058,0.0],[615420.444,9763050.969,0.0],[615409.25,9763061.931,0.0],[615399.503,9763071.481,0.0],[615379.949,9763064.208,0.0]]]}},
{"type":"Feature","properties":{"Layer":"MP_CANALES GENERAL"},"geometry":{"type":"MultiLineString","coordinates":[[[615515.211,9763051.712,0.0],[615494.414,9763056.942,0.0],[615469.911,9763062.891,0.0],[615466.344,9763055.916,0.0],[615459.968,9763045.857,0.0]]]}},
{"type":"Feature","properties":{"Layer":"MP_CANALES GENERAL"},"geometry":{"type":"MultiLineString","coordinates":[[[615623.3813301,9762823.2533114,0.0],[615623.555,9762826.749,0.0],[615624.638,9762848.548,0.0],[615624.1922798,9762854.7535674,0.0],[615623.6070703,9762860.9342194,0.0],[615622.7428822,9762867.065041,0.0],[615621.872,9762871.424,0.0],[615621.460884,9762873.1210606,0.0],[615619.6815589,9762879.0722486,0.0],[615617.4310313,9762884.8795665,0.0],[615614.7463276,9762890.5030459,0.0],[615612.295,9762894.869,0.0],[615611.6645706,9762895.902867,0.0],[615608.2446694,9762901.0727741,0.0],[615604.5948214,9762906.0824459,0.0],[615600.83,9762911.012,0.0],[615564.988,9762957.521,0.0],[615547.468,9762980.447,0.0],[615536.06,9762995.553,0.0],[615535.5163676,9762996.3155119,0.0],[615534.9696693,9762997.0803213,0.0],[615534.4171513,9762997.8492615,0.0],[615533.8580098,9762998.6212665,0.0],[615533.2921923,9762999.3941528,0.0],[615532.7196482,9763000.1657344,0.0],[615532.1403118,9763000.9338729,0.0],[615531.5538602,9763001.6972627,0.0],[615530.9597495,9763002.4553112,0.0],[615530.3574289,9763003.2074485,0.0],[615529.7463476,9763003.9531051,0.0],[615529.1259548,9763004.6917111,0.0],[615528.4956996,9763005.4226969,0.0],[615527.8550313,9763006.1454927,0.0],[615527.203399,9763006.8595287,0.0],[615526.5402923,9763007.5641984,0.0],[615525.8653766,9763008.2587344,0.0],[615525.1783649,9763008.942326,0.0],[615524.4789701,9763009.6141621,0.0],[615523.7669053,9763010.2734322,0.0],[615523.0418833,9763010.9193253,0.0],[615522.303622,9763011.5510338,0.0],[615521.5520828,9763012.1679203,0.0],[615520.7875861,9763012.7695971,0.0],[615520.0104803,9763013.3556965,0.0],[615519.2211143,9763013.9258505,0.0],[615518.4198367,9763014.4796915,0.0],[615517.6069962,9763015.0168517,0.0],[615516.7829415,9763015.5369633,0.0],[615515.9480214,9763016.0396586,0.0],[615515.1025844,9763016.5245698,0.0],[615514.2469793,9763016.9913291,0.0],[615513.3815548,9763017.4395687,0.0],[615512.5066595,9763017.8689209,0.0],[615511.6226422,9763018.279018,0.0],[615510.729867,9763018.6695581,0.0],[615509.8287414,9763019.0404264,0.0],[615508.9196808,9763019.3915412,0.0],[615508.0031006,9763019.7228205,0.0],[615507.079416,9763020.0341828,0.0],[615506.1490424,9763020.325546,0.0],[615505.2123951,9763020.5968286,0.0],[615504.2698894,9763020.8479486,0.0],[615503.3219408,9763021.0788244,0.0],[615502.3689645,9763021.289374,0.0],[615501.4113758,9763021.4795158,0.0],[615500.44959,9763021.6491679,0.0],[615499.4840226,9763021.7982486,0.0],[615498.5151016,9763021.9266854,0.0],[615497.5433295,9763022.0344606,0.0],[615496.5692352,9763022.121576,0.0],[615495.5933479,9763022.1880336,0.0],[615494.6161969,9763022.2338352,0.0],[615493.6383111,9763022.2589827,0.0],[615492.6602199,9763022.263478,0.0],[615491.6824522,9763022.247323,0.0],[615490.7055372,9763022.2105197,0.0],[615489.7300042,9763022.1530698,0.0],[615488.7563821,9763022.0749753,0.0],[615487.7852002,9763021.976238,0.0],[615486.8169876,9763021.8568599,0.0],[615485.8522712,9763021.7168684,0.0],[615484.8915495,9763021.5566187,0.0],[615483.935301,9763021.3766944,0.0],[615482.9840038,9763021.1776837,0.0],[615482.0381363,9763020.9601747,0.0],[615481.0980288,9763020.7249888,0.0],[615480.1635476,9763020.473681,0.0],[615479.2344675,9763020.2079507,0.0],[615478.3105635,9763019.9294972,0.0],[615477.3915938,9763019.6399587,0.0],[615476.4769749,9763019.3397078,0.0],[615475.5658,9763019.0279214,0.0],[615474.6571497,9763018.7037297,0.0],[615473.7501267,9763018.3662734,0.0],[615472.8453669,9763018.0154266,0.0],[615471.946015,9763017.6522631,0.0],[615471.0554474,9763017.2779678,0.0],[615470.1770357,9763016.8937214,0.0],[615469.308325,9763016.4961537,0.0],[615468.429773,9763016.0685461,0.0],[615467.5222685,9763015.5957346,0.0],[615466.5939657,9763015.0932125,0.0]]]}},
{"type":"Feature","properties":{"Layer":"MP_CANALES GENERAL"},"geometry":{"type":"MultiLineString","coordinates":[[[615702.674,9762681.974,0.0],[615743.747,9762649.885,0.0]]]}},
{"type":"Feature","properties":{"Layer":"MP_CANALES GENERAL"},"geometry":{"type":"MultiLineString","coordinates":[[[615466.453,9763014.6,0.0],[615456.234,9763007.09,0.0],[615440.556,9762994.856,0.0],[615416.845,9762976.139,0.0],[615393.542,9762957.361,0.0],[615374.188,9762941.613,0.0],[615361.112,9762939.981,0.0]]]}},
{"type":"Feature","properties":{"Layer":"MP_CANALES GENERAL"},"geometry":{"type":"MultiLineString","coordinates":[[[615082.445,9762953.669,0.0],[615079.947,9762955.929,0.0],[615069.842,9762966.476,0.0],[615032.115,9763009.81,0.0],[615026.963,9763014.549,0.0],[615029.617,9763023.303,0.0]]]}},
{"type":"Feature","properties":{"Layer":"MP_CANALES GENERAL"},"geometry":{"type":"MultiLineString","coordinates":[[[614896.584,9763079.94,0.0],[614894.236,9763077.255,0.0],[614891.065,9763076.538,0.0],[614882.1534592,9763074.6969895,0.0],[614878.1199445,9763073.8721645,0.0],[614874.098421,9763072.9948266,0.0],[614870.0980525,9763072.0247752,0.0],[614866.1258639,9763070.9410155,0.0],[614862.1867202,9763069.7419486,0.0],[614858.284865,9763068.4276146,0.0],[614854.4224454,9763067.0011693,0.0],[614850.6010841,9763065.4665481,0.0],[614846.8222251,9763063.8280263,0.0],[614843.086946,9763062.090576,0.0],[614839.3962796,9763060.2592546,0.0],[614835.7512586,9763058.3391197,0.0],[614832.1529159,9763056.3352286,0.0],[614828.6000603,9763054.2551469,0.0],[614825.0828847,9763052.1161577,0.0],[614821.5894957,9763049.9378968,0.0],[614818.108,9763047.74,0.0],[614803.563,9763037.275,0.0],[614795.562,9763030.83,0.0],[614792.087,9763028.044,0.0],[614790.948,9763027.092,0.0]]]}},
{"type":"Feature","properties":{"Layer":"MP_CANALES GENERAL"},"geometry":{"type":"MultiLineString","coordinates":[[[614790.948,9763027.092,0.0],[614787.7855318,9763024.0174355,0.0],[614783.7542767,9763019.7265206,0.0],[614779.9135355,9763015.2642195,0.0],[614776.2243499,9763010.667706,0.0],[614772.6477617,9763005.9741536,0.0],[614769.1448128,9763001.2207361,0.0],[614765.676545,9762996.444627,0.0],[614762.204,9762991.683,0.0]]]}},
{"type":"Feature","properties":{"Layer":"MP_CANALES GENERAL"},"geometry":{"type":"MultiLineString","coordinates":[[[614762.2249221,9762991.6693155,0.0],[614758.3496041,9762985.7443583,0.0],[614755.3291791,9762979.9374637,0.0]]]}},
{"type":"Feature","properties":{"Layer":"MP_CANALES GENERAL"},"geometry":{"type":"MultiLineString","coordinates":[[[614762.1830779,9762991.6966845,0.0],[614758.3063959,9762985.7696417,0.0],[614755.2848209,9762979.9605363,0.0]]]}},
{"type":"Feature","properties":{"Layer":"MP_CANALES GENERAL"},"geometry":{"type":"MultiLineString","coordinates":[[[614754.854,9762980.385,0.0],[614719.058,9763014.887,0.0],[614736.079,9763049.407,0.0],[614741.615,9763058.216,0.0]]]}},
{"type":"Feature","properties":{"Layer":"MP_CANALES GENERAL"},"geometry":{"type":"MultiLineString","coordinates":[[[614723.305,9762906.12,0.0],[614723.713,9762906.317,0.0],[614729.668,9762907.875,0.0],[614729.805172,9762907.9273655,0.0],[614729.9320398,9762908.0072081,0.0],[614730.0444422,9762908.1092669,0.0],[614730.1382178,9762908.2282806,0.0],[614730.2092266,9762908.3589916,0.0],[614730.2574645,9762908.4967864,0.0],[614730.2919754,9762908.6384616,0.0],[614730.323,9762908.781,0.0],[614734.822,9762928.316,0.0],[614737.276,9762937.146,0.0],[614742.641,9762953.353,0.0],[614743.8529986,9762956.8401941,0.0],[614745.1739392,9762960.2875959,0.0],[614746.602518,9762963.691803,0.0],[614748.1373252,9762967.0494555,0.0],[614749.7768458,9762970.3572396,0.0],[614751.5194617,9762973.6118906,0.0],[614753.3634531,9762976.8101963,0.0],[614755.307,9762979.949,0.0]]]}},
{"type":"Feature","properties":{"Layer":"MP_CANALES GENERAL"},"geometry":{"type":"MultiLineString","coordinates":[[[614747.3,9763145.848,0.0],[614747.219,9763146.161,0.0]]]}},
{"type":"Feature","properties":{"Layer":"MP_CANALES GENERAL"},"geometry":{"type":"MultiLineString","coordinates":[[[614737.494,9763143.941,0.0],[614744.5480836,9763145.3364558,0.0]]]}},
{"type":"Feature","properties":{"Layer":"MP_CANALES GENERAL"},"geometry":{"type":"MultiLineString","coordinates":[[[614744.815615,9763145.4023708,0.0],[614747.2595,9763146.0045,0.0]]]}},
{"type":"Feature","properties":{"Layer":"MP_CANALES GENERAL"},"geometry":{"type":"MultiLineString","coordinates":[[[614746.079,9763117.843,0.0],[614745.797,9763122.958,0.0],[614745.139,9763130.079,0.0],[614744.461,9763145.315,0.0],[614744.323,9763147.56,0.0],[614744.2942548,9763149.0354748,0.0],[614744.4571445,9763152.7593119,0.0],[614744.8767945,9763156.4713201,0.0],[614744.913,9763156.729,0.0],[614745.4642729,9763160.1572899,0.0],[614746.1887035,9763163.8141802,0.0],[614747.0370791,9763167.4423875,0.0],[614747.659,9763169.823,0.0],[614747.9963748,9763171.042328,0.0],[614749.0522857,9763174.6155032,0.0],[614750.1885557,9763178.1650684,0.0],[614751.3887645,9763181.6943178,0.0],[614752.589,9763185.075,0.0],[614753.9191715,9763188.7043012,0.0],[614755.2380134,9763192.1874648,0.0],[614756.5973044,9763195.6553227,0.0],[614758.0013315,9763199.1071606,0.0],[614759.4543814,9763202.5422644,0.0],[614759.861,9763203.479,0.0],[614760.9631384,9763205.9580719,0.0],[614762.5568757,9763209.3346076,0.0],[614764.2772722,9763212.642333,0.0],[614766.423,9763216.255,0.0],[614768.2591762,9763218.9348122,0.0],[614770.556152,9763221.8761567,0.0],[614773.0436731,9763224.6641953,0.0],[614774.486,9763226.126,0.0],[614775.7089205,9763227.286571,0.0],[614778.5563591,9763229.7040956,0.0],[614781.6101062,9763231.8470746,0.0],[614782.531,9763232.403,0.0],[614784.8901666,9763233.6456572,0.0],[614788.365298,9763235.0448191,0.0],[614791.975,9763235.998,0.0],[614807.14,9763238.962,0.0],[614813.166,9763240.027,0.0],[614824.732,9763242.136,0.0]]]}},
{"type":"Feature","properties":{"Layer":"MP_CANALES GENERAL"},"geometry":{"type":"MultiLineString","coordinates":[[[614723.186,9762878.091,0.0],[614721.798,9762878.398,0.0],[614720.8948457,9762878.5977611,0.0]]]}},
{"type":"Feature","properties":{"Layer":"MP_CANALES GENERAL"},"geometry":{"type":"MultiLineString","coordinates":[[[614729.0764941,9762907.2550987,0.0],[614729.044,9762907.104,0.0],[614722.909,9762878.576,0.0],[614722.9078661,9762878.5506079,0.0],[614722.7826214,9762877.6680052,0.0]]]}},
{"type":"Feature","properties":{"Layer":"MP_CANALES GENERAL"},"geometry":{"type":"MultiLineString","coordinates":[[[614722.7925652,9762877.717416,0.0],[614722.777,9762877.647,0.0],[614714.694,9762840.003,0.0],[614709.937,9762818.316,0.0]]]}},
{"type":"Feature","properties":{"Layer":"MP_CANALES GENERAL"},"geometry":{"type":"MultiLineString","coordinates":[[[614847.7750008,9762564.0686437,0.0],[614847.5141154,9762561.6950577,0.0]]]}},
{"type":"Feature","properties":{"Layer":"MP_CANALES GENERAL"},"geometry":{"type":"MultiLineString","coordinates":[[[614843.7766246,9762561.0767507,0.0],[614846.1098846,9762560.5689423,0.0]]]}},
{"type":"Feature","properties":{"Layer":"MP_CANALES GENERAL"},"geometry":{"type":"MultiLineString","coordinates":[[[614843.7766246,9762561.0767507,0.0],[614840.435,9762560.765,0.0]]]}},
{"type":"Feature","properties":{"Layer":"MP_CANALES GENERAL"},"geometry":{"type":"MultiLineString","coordinates":[[[615095.7,9762881.33,0.0],[615101.7503792,9762881.2629845,0.0],[615103.9890953,9762880.2142224,0.0],[615107.143,9762876.976,0.0]]]}},
{"type":"Feature","properties":{"Layer":"MP_CANALES GENERAL"},"geometry":{"type":"MultiLineString","coordinates":[[[614990.0590705,9762752.5333687,0.0],[614990.9881779,9762753.2110556,0.0]]]}},
{"type":"Feature","properties":{"Layer":"MP_CANALES GENERAL"},"geometry":{"type":"MultiLineString","coordinates":[[[615380.1581668,9763063.6456396,0.0],[615379.7369096,9763064.7703604,0.0]]]}},
{"type":"Feature","properties":{"Layer":"MP_CANALES GENERAL"},"geometry":{"type":"MultiLineString","coordinates":[[[615060.43,9762528.48,0.0],[615042.797,9762536.923,0.0],[615027.989,9762542.887,0.0],[615021.2826572,9762545.2581541,0.0],[615014.5526712,9762547.5484668,0.0],[615008.417,9762549.487,0.0],[615007.7734043,9762549.6791115,0.0],[615000.9284771,9762551.5933919,0.0],[614994.0264558,9762553.3044813,0.0],[614987.0805988,9762554.8386937,0.0],[614986.696,9762554.919,0.0],[614980.102631,9762556.2177334,0.0],[614973.0970342,9762557.4415265,0.0],[614966.0661532,9762558.5035741,0.0],[614959.0123326,9762559.3973765,0.0],[614956.503,9762559.672,0.0],[614951.9380646,9762560.1165826,0.0],[614944.8477014,9762560.6567163,0.0],[614937.9178895,9762561.0331121,0.0],[614930.8121105,9762561.2068879,0.0],[614923.5334012,9762561.2039913,0.0],[614916.4245034,9762561.1135214,0.0],[614909.315,9762560.97,0.0]]]}},
{"type":"Feature","properties":{"Layer":"MP_CANALES GENERAL"},"geometry":{"type":"MultiLineString","coordinates":[[[615911.963,9762106.398,0.0],[615931.263,9762087.949,0.0],[615947.483,9762072.572,0.0],[615960.9671296,9762060.0235173,0.0],[615978.293,9762043.451,0.0],[616002.384,9762020.693,0.0],[616005.568,9762017.819,0.0]]]}},
{"type":"Feature","properties":{"Layer":"MP_CANALES GENERAL"},"geometry":{"type":"MultiLineString","coordinates":[[[615805.667,9761824.883,0.0],[615823.7245765,9761831.6820757,0.0],[615829.986644,9761834.0398821,0.0],[615831.044,9761834.438,0.0],[615842.079,9761838.794,0.0],[615848.079,9761841.18,0.0],[615867.76,9761849.063,0.0],[615886.341,9761856.754,0.0],[615904.95,9761864.046,0.0],[615920.021,9761869.671,0.0],[615931.399,9761873.962,0.0],[615933.435,9761875.919,0.0]]]}},
{"type":"Feature","properties":{"Layer":"MP_CANALES GENERAL"},"geometry":{"type":"MultiLineString","coordinates":[[[615760.283,9761813.003,0.0],[615767.142,9761812.884,0.0],[615767.7349707,9761812.9040374,0.0],[615768.3269787,9761812.9433075,0.0],[615768.9174006,9761813.0017691,0.0],[615769.5056142,9761813.0793605,0.0],[615770.091,9761813.176,0.0],[615772.612,9761814.156,0.0],[615780.87,9761817.076,0.0]]]}},
{"type":"Feature","properties":{"Layer":"MP_CANALES GENERAL"},"geometry":{"type":"MultiLineString","coordinates":[[[616054.638,9761971.958,0.0],[616054.846,9761970.358,0.0],[616054.952746,9761969.5765009,0.0],[616055.0344289,9761968.7919861,0.0],[616055.0909651,9761968.0052592,0.0],[616055.1222966,9761967.2171261,0.0],[616055.1283914,9761966.4283939,0.0],[616055.1092432,9761965.6398707,0.0],[616055.0648716,9761964.8523641,0.0],[616054.9953221,9761964.0666807,0.0],[616054.9006659,9761963.2836253,0.0],[616054.781,9761962.504,0.0],[616054.6330574,9761961.7280967,0.0],[616054.4578515,9761960.9578917,0.0],[616054.2556001,9761960.1943425,0.0],[616054.0265547,9761959.4383987,0.0],[616053.771,9761958.691,0.0],[616053.2130185,9761957.1546954,0.0],[616052.6021636,9761955.6386374,0.0],[616051.9391683,9761954.1446453,0.0],[616051.2248281,9761952.6745115,0.0],[616050.46,9761951.23,0.0],[616045.062,9761940.632,0.0],[616044.2874946,9761939.1204243,0.0],[616043.4637823,9761937.63509,0.0],[616042.5917512,9761936.1775985,0.0],[616041.6723413,9761934.749521,0.0],[616040.7065439,9761933.3523971,0.0],[616039.6954001,9761931.9877331,0.0],[616038.64,9761930.657,0.0],[616036.2647722,9761927.5217268,0.0],[616033.793774,9761924.4613653,0.0],[616031.2293665,9761921.4788397,0.0],[616028.574,9761918.577,0.0],[616025.3147535,9761915.8617011,0.0],[616020.561316,9761911.9525044,0.0],[616020.0541785,9761911.608185,0.0],[616019.5361744,9761911.2804413,0.0],[616019.0078451,9761910.969616,0.0],[616018.4697431,9761910.6760338,0.0],[616017.9224309,9761910.400002,0.0],[616017.3664808,9761910.1418089,0.0],[616016.8024739,9761909.9017246,0.0],[616016.231,9761909.68,0.0],[615999.8470743,9761902.1431438,0.0],[615999.82,9761901.883,0.0],[615970.986,9761889.844,0.0],[615940.062,9761877.515,0.0],[615935.719,9761876.659,0.0]]]}},
{"type":"Feature","properties":{"Layer":"MP_CANALES GENERAL"},"geometry":{"type":"MultiLineString","coordinates":[[[616025.171184,9761916.0349432,0.0],[616025.2807152,9761915.9816259,0.0],[616025.3919975,9761915.932067,0.0],[616025.5049019,9761915.886324,0.0],[616025.6192976,9761915.8444498,0.0],[616025.7350521,9761915.806493,0.0],[616025.8520313,9761915.7724975,0.0],[616025.9700996,9761915.7425027,0.0],[616026.0891204,9761915.7165434,0.0],[616026.2089556,9761915.6946496,0.0],[616026.3294665,9761915.6768467,0.0]]]}},
{"type":"Feature","properties":{"Layer":"MP_CANALES GENERAL"},"geometry":{"type":"MultiLineString","coordinates":[[[615933.929,9761875.463,0.0],[615935.322,9761875.648,0.0],[615935.719,9761876.659,0.0],[615935.84,9761877.265,0.0],[615934.947,9761877.695,0.0],[615933.2,9761876.517,0.0],[615933.435,9761875.919,0.0],[615933.929,9761875.463,0.0]]]}},
{"type":"Feature","properties":{"Layer":"MP_CANALES GENERAL"},"geometry":{"type":"MultiLineString","coordinates":[[[615828.9115841,9761834.5397951,0.0],[615829.986644,9761834.0398821,0.0],[615831.1148982,9761833.6739231,0.0]]]}},
{"type":"Feature","properties":{"Layer":"MP_CANALES GENERAL"},"geometry":{"type":"MultiLineString","coordinates":[[[615823.7601229,9761830.9026145,0.0],[615823.7245765,9761831.6820757,0.0],[615823.598085,9761832.4976279,0.0]]]}},
{"type":"Feature","properties":{"Layer":"MP_CANALES GENERAL"},"geometry":{"type":"MultiLineString","coordinates":[[[615805.931229,9761824.1846217,0.0],[615805.4281096,9761825.5144063,0.0]]]}},
{"type":"Feature","properties":{"Layer":"MP_CANALES GENERAL"},"geometry":{"type":"MultiLineString","coordinates":[[[615780.87,9761817.076,0.0],[615780.498926,9761817.3584526,0.0],[615748.698,9761821.874,0.0],[615735.029,9761846.035,0.0],[615733.015,9761849.608,0.0],[615725.506,9761855.889,0.0],[615718.765,9761863.295,0.0],[615702.475,9761882.785,0.0],[615698.245,9761882.883,0.0],[615698.338,9761885.658,0.0],[615693.517,9761886.217,0.0],[615694.22,9761924.216,0.0]]]}},
{"type":"Feature","properties":{"Layer":"MP_CANALES GENERAL"},"geometry":{"type":"MultiLineString","coordinates":[[[615701.306,9761942.2,0.0],[615726.453,9761941.713,0.0],[615726.769,9761941.324,0.0],[615730.979,9761936.93,0.0],[615730.686,9761927.15,0.0],[615753.79,9761926.579,0.0]]]}},
{"type":"Feature","properties":{"Layer":"MP_CANALES GENERAL"},"geometry":{"type":"MultiLineString","coordinates":[[[616159.582,9762147.128,0.0],[616166.3985,9762147.139,0.0],[616221.1272487,9762146.9965,0.0]]]}},
{"type":"Feature","properties":{"Layer":"MP_CANALES GENERAL"},"geometry":{"type":"MultiLineString","coordinates":[[[615863.404,9762144.972,0.0],[615851.344,9762144.835,0.0],[615828.519,9762122.365,0.0]]]}},
{"type":"Feature","properties":{"Layer":"MP_CANALES GENERAL"},"geometry":{"type":"MultiLineString","coordinates":[[[615417.259,9762229.054,0.0],[615422.1404936,9762227.195174,0.0],[615425.906341,9762225.8614548,0.0],[615430.3951009,9762224.442676,0.0],[615433.609,9762223.603,0.0]]]}},
{"type":"Feature","properties":{"Layer":"MP_CANALES GENERAL"},"geometry":{"type":"MultiLineString","coordinates":[[[615405.101,9762234.933,0.0],[615398.769,9762239.115,0.0]]]}},
{"type":"Feature","properties":{"Layer":"MP_CANALES GENERAL"},"geometry":{"type":"MultiLineString","coordinates":[[[615398.769,9762239.115,0.0],[615371.129,9762262.904,0.0]]]}},
{"type":"Feature","properties":{"Layer":"MP_CANALES GENERAL"},"geometry":{"type":"MultiLineString","coordinates":[[[615405.101,9762234.933,0.0],[615407.3570013,9762233.5729717,0.0],[615410.3981202,9762231.988834,0.0],[615413.2033268,9762230.6558347,0.0],[615415.738143,9762229.6186537,0.0],[615417.259,9762229.054,0.0]]]}},
{"type":"Feature","properties":{"Layer":"MP_CANALES GENERAL"},"geometry":{"type":"MultiLineString","coordinates":[[[615371.129,9762262.904,0.0],[615350.437,9762281.787,0.0],[615333.263,9762297.266,0.0]]]}},
{"type":"Feature","properties":{"Layer":"MP_CANALES GENERAL"},"geometry":{"type":"MultiLineString","coordinates":[[[615333.263,9762297.266,0.0],[615298.449,9762328.9,0.0],[615278.513,9762346.838,0.0]]]}},
{"type":"Feature","properties":{"Layer":"MP_CANALES GENERAL"},"geometry":{"type":"MultiLineString","coordinates":[[[615278.513,9762346.838,0.0],[615265.853,9762357.168,0.0],[615240.622,9762375.192,0.0],[615240.564,9762375.204,0.0]]]}},
{"type":"Feature","properties":{"Layer":"MP_CANALES GENERAL"},"geometry":{"type":"MultiLineString","coordinates":[[[615240.564,9762375.204,0.0],[615237.5646275,9762375.2653546,0.0]]]}},
{"type":"Feature","properties":{"Layer":"MP_CANALES GENERAL"},"geometry":{"type":"MultiLineString","coordinates":[[[615240.5536742,9762375.0441778,0.0],[615237.5613552,9762375.1053881,0.0]]]}},
{"type":"Feature","properties":{"Layer":"MP_CANALES GENERAL"},"geometry":{"type":"MultiLineString","coordinates":[[[614794.054,9762992.854,0.0],[614793.622,9762992.281,0.0],[614776.302,9762967.126,0.0],[614773.679,9762962.314,0.0],[614769.284,9762953.191,0.0],[614765.379,9762943.884,0.0],[614760.89,9762930.272,0.0]]]}},
{"type":"Feature","properties":{"Layer":"MP_CANALES GENERAL"},"geometry":{"type":"MultiLineString","coordinates":[[[614713.3148115,9762813.2317846,0.0],[614712.7395044,9762812.687306,0.0],[614712.108915,9762812.2175631,0.0],[614711.4493344,9762811.8007719,0.0],[614710.736,9762811.473,0.0],[614709.9071315,9762811.1489255,0.0],[614708.669111,9762810.769556,0.0],[614707.6336667,9762810.5263613,0.0],[614706.477,9762810.312,0.0],[614705.4309604,9762810.3748525,0.0],[614704.472177,9762810.5571371,0.0],[614703.6779557,9762810.7715836,0.0],[614702.802,9762811.115,0.0],[614684.39,9762822.798,0.0],[614673.359,9762829.9,0.0],[614664.772,9762835.317,0.0],[614657.959,9762839.735,0.0],[614643.739,9762848.651,0.0],[614634.276,9762854.52,0.0],[614614.587,9762866.719,0.0],[614601.64,9762874.472,0.0],[614597.7196422,9762876.2899719,0.0],[614593.7319571,9762878.0035357,0.0],[614590.451,9762879.213,0.0],[614569.5123146,9762887.2976672,0.0],[614566.367,9762888.681,0.0],[614564.2615552,9762889.612971,0.0],[614562.2593201,9762890.6104383,0.0],[614560.1981035,9762891.7287021,0.0],[614558.3050537,9762892.9225636,0.0],[614556.009,9762894.457,0.0],[614553.9848322,9762895.8592123,0.0],[614552.0942314,9762897.5056363,0.0],[614550.097197,9762899.2568324,0.0],[614548.452,9762901.041,0.0],[614545.5948715,9762903.7575831,0.0],[614542.8987677,9762906.8609766,0.0],[614540.5632808,9762910.2321601,0.0],[614538.244,9762913.677,0.0],[614530.365,9762924.667,0.0],[614529.609,9762925.765,0.0],[614528.914,9762926.681,0.0],[614501.668,9762965.817,0.0],[614498.474,9762970.462,0.0],[614486.055,9762987.235,0.0],[614478.3623133,9762995.7882388,0.0],[614470.478,9763004.212,0.0],[614467.5397463,9763006.9848401,0.0],[614464.6456065,9763009.5993758,0.0],[614461.1851092,9763012.7230743,0.0],[614456.7770001,9763016.223101,0.0],[614450.981,9763020.568,0.0],[614431.322,9763033.868,0.0],[614393.063,9763059.46,0.0],[614389.7882927,9763061.4992651,0.0],[614386.1277233,9763063.1887919,0.0],[614382.442898,9763064.6725115,0.0],[614378.622,9763066.109,0.0],[614370.926,9763068.796,0.0],[614363.8191125,9763070.9766803,0.0],[614356.6279063,9763072.9430966,0.0],[614349.5320309,9763074.6091939,0.0],[614342.296,9763076.043,0.0],[614332.93281,9763078.0114813,0.0],[614323.5315231,9763079.9182658,0.0],[614314.0395145,9763081.3880128,0.0],[614304.496,9763082.749,0.0],[614293.059,9763083.863,0.0],[614276.3202288,9763085.424501,0.0],[614259.7643051,9763086.6609511,0.0],[614243.195,9763087.651,0.0],[614211.889,9763089.8995399,0.0],[614146.9175226,9763095.0361288,0.0],[614145.4886769,9763095.0996775,0.0],[614142.9698841,9763095.0715557,0.0],[614133.8773492,9763094.8824128,0.0],[614127.775351,9763094.3118872,0.0],[614121.7449709,9763093.2834173,0.0],[614105.91,9763090.34,0.0],[614104.725,9763094.819,0.0]]]}},
{"type":"Feature","properties":{"Layer":"MP_CANALES GENERAL"},"geometry":{"type":"MultiLineString","coordinates":[[[614654.513,9762832.243,0.0],[614676.148,9762818.515,0.0]]]}},
{"type":"Feature","properties":{"Layer":"MP_CANALES GENERAL"},"geometry":{"type":"MultiLineString","coordinates":[[[615910.341,9762106.238,0.0],[615904.015,9762105.548,0.0],[615901.66,9762104.698,0.0],[615900.256,9762103.553,0.0],[615903.696,9762103.287,0.0],[615880.541,9762077.085,0.0],[615871.431,9762076.899,0.0],[615857.004,9762091.481,0.0],[615856.819,9762091.244,0.0],[615849.385,9762084.845,0.0],[615849.3059049,9762084.6371756,0.0],[615849.2807411,9762084.4183361,0.0],[615849.2791452,9762084.2148943,0.0],[615849.34,9762084.014,0.0],[615858.5175,9762073.887,0.0],[615858.549,9762072.223,0.0],[615857.905,9762054.849,0.0],[615856.649,9762053.91,0.0],[615856.5726978,9762053.3250052,0.0]]]}},
{"type":"Feature","properties":{"Layer":"MP_CANALES GENERAL"},"geometry":{"type":"MultiLineString","coordinates":[[[615858.4490686,9762072.2267041,0.0],[615858.192,9762073.454,0.0]]]}},
{"type":"Feature","properties":{"Layer":"MP_CANALES GENERAL"},"geometry":{"type":"MultiLineString","coordinates":[[[615858.4990343,9762072.2248521,0.0],[615858.262,9762073.523,0.0]]]}},
{"type":"Feature","properties":{"Layer":"MP_CANALES GENERAL"},"geometry":{"type":"MultiLineString","coordinates":[[[615858.5989657,9762072.2211479,0.0],[615858.36,9762073.6,0.0]]]}},
{"type":"Feature","properties":{"Layer":"MP_CANALES GENERAL"},"geometry":{"type":"MultiLineString","coordinates":[[[615858.6489314,9762072.2192959,0.0],[615858.4289719,9762073.6119534,0.0]]]}},
{"type":"Feature","properties":{"Layer":"MP_CANALES GENERAL"},"geometry":{"type":"MultiLineString","coordinates":[[[615733.408,9761849.631,0.0],[615734.387,9761881.679,0.0]]]}},
{"type":"Feature","properties":{"Layer":"MP_CANALES GENERAL"},"geometry":{"type":"MultiLineString","coordinates":[[[615700.936,9761942.264,0.0],[615681.27,9761942.762,0.0],[615675.212,9761942.109,0.0],[615674.7339453,9761942.0468544,0.0],[615674.2582895,9761941.9684326,0.0],[615673.7855866,9761941.8738261,0.0],[615673.3163872,9761941.763145,0.0],[615672.8512377,9761941.6365181,0.0],[615672.3906799,9761941.4940931,0.0],[615671.9352502,9761941.3360357,0.0],[615671.4854789,9761941.16253,0.0],[615671.04189,9761940.9737782,0.0],[615670.605,9761940.77,0.0]]]}},
{"type":"Feature","properties":{"Layer":"MP_CANALES GENERAL"},"geometry":{"type":"MultiLineString","coordinates":[[[615647.449,9761908.004,0.0],[615655.31,9761924.218,0.0],[615655.9476529,9761925.5372438,0.0],[615656.6292602,9761926.834324,0.0],[615657.3540525,9761928.1077767,0.0],[615658.1212118,9761929.3561645,0.0],[615658.9298722,9761930.5780785,0.0],[615659.7791211,9761931.7721395,0.0],[615660.668,9761932.937,0.0],[615661.0615128,9761933.4917884,0.0],[615661.4726877,9761934.0336165,0.0],[615661.9010981,9761934.5619222,0.0],[615662.3462998,9761935.0761575,0.0],[615662.8078307,9761935.575789,0.0],[615663.2852123,9761936.0602984,0.0],[615663.7779492,9761936.529183,0.0],[615664.2855303,9761936.9819565,0.0],[615664.8074291,9761937.4181492,0.0],[615665.3431043,9761937.8373087,0.0],[615665.892,9761938.239,0.0],[615666.2013399,9761938.4774735,0.0],[615666.5182818,9761938.7057467,0.0],[615666.8424894,9761938.9235775,0.0],[615667.1736188,9761939.1307347,0.0],[615667.5113188,9761939.3269986,0.0],[615667.8552311,9761939.5121611,0.0],[615668.2049909,9761939.6860256,0.0],[615668.5602272,9761939.8484079,0.0],[615668.9205632,9761939.9991355,0.0],[615669.2856165,9761940.1380487,0.0],[615669.655,9761940.265,0.0]]]}},
{"type":"Feature","properties":{"Layer":"MP_CANALES GENERAL"},"geometry":{"type":"MultiLineString","coordinates":[[[615670.9645035,9761940.127841,0.0],[615670.510159,9761941.2385035,0.0],[615669.3994965,9761940.784159,0.0],[615669.853841,9761939.6734965,0.0],[615670.9645035,9761940.127841,0.0]]]}},
{"type":"Feature","properties":{"Layer":"MP_CANALES GENERAL"},"geometry":{"type":"MultiLineString","coordinates":[[[615700.8473336,9761941.7120423,0.0],[615701.3473336,9761941.7120423,0.0],[615701.3473336,9761942.9813461,0.0],[615700.8473336,9761942.9813461,0.0],[615700.8473336,9761941.7120423,0.0]]]}},
{"type":"Feature","properties":{"Layer":"MP_CANALES GENERAL"},"geometry":{"type":"MultiLineString","coordinates":[[[615650.491,9761886.605,0.0],[615646.524,9761892.835,0.0],[615646.3490415,9761893.1425807,0.0],[615646.1843087,9761893.4557571,0.0],[615646.0299804,9761893.7741894,0.0],[615645.8862239,9761894.0975321,0.0],[615645.7531954,9761894.4254342,0.0],[615645.6310392,9761894.7575399,0.0],[615645.5198878,9761895.0934889,0.0],[615645.4198619,9761895.4329167,0.0],[615645.33107,9761895.7754548,0.0],[615645.2536083,9761896.1207316,0.0],[615645.1875611,9761896.4683724,0.0],[615645.133,9761896.818,0.0],[615645.0603404,9761897.5032424,0.0],[615645.0114697,9761898.1905912,0.0],[615644.9864465,9761898.8792206,0.0],[615644.9853009,9761899.5683035,0.0],[615645.0080343,9761900.2570123,0.0],[615645.0546193,9761900.9445198,0.0],[615645.125,9761901.63,0.0],[615647.077,9761907.068,0.0]]]}},
{"type":"Feature","properties":{"Layer":"MP_CANALES GENERAL"},"geometry":{"type":"MultiLineString","coordinates":[[[615725.216,9761816.02,0.0],[615735.777,9761810.505,0.0]]]}},
{"type":"Feature","properties":{"Layer":"MP_CANALES GENERAL"},"geometry":{"type":"MultiLineString","coordinates":[[[615725.216,9761816.02,0.0],[615715.824,9761820.357,0.0],[615696.418,9761832.103,0.0],[615682.434,9761841.803,0.0],[615665.931,9761856.83,0.0],[615652.413,9761872.513,0.0],[615642.227,9761885.153,0.0],[615635.328,9761897.501,0.0],[615628.9734038,9761910.3449555,0.0]]]}},
{"type":"Feature","properties":{"Layer":"MP_CANALES GENERAL"},"geometry":{"type":"MultiLineString","coordinates":[[[615777.053,9761805.757,0.0],[615783.155,9761807.717,0.0],[615806.184,9761815.723,0.0],[615837.976,9761828.29,0.0],[615855.796,9761835.312,0.0],[615885.488,9761846.834,0.0],[615915.217,9761858.575,0.0],[615937.582,9761867.091,0.0],[615959.527,9761876.112,0.0],[615981.475,9761885.151,0.0],[616002.417,9761893.992,0.0],[616023.857,9761904.561,0.0],[616035.159,9761914.626,0.0],[616043.595,9761925.529,0.0],[616049.72,9761933.939,0.0],[616055.922,9761944.11,0.0],[616059.957,9761950.636,0.0],[616064.569,9761957.566,0.0],[616066.996,9761960.559,0.0]]]}},
{"type":"Feature","properties":{"Layer":"MP_CANALES GENERAL"},"geometry":{"type":"MultiLineString","coordinates":[[[615665.892,9761938.239,0.0],[615666.0899604,9761937.9749703,0.0]]]}},
{"type":"Feature","properties":{"Layer":"MP_CANALES GENERAL"},"geometry":{"type":"MultiLineString","coordinates":[[[615841.1150438,9761948.7982109,0.0],[615841.3609562,9761948.7137891,0.0]]]}},
{"type":"Feature","properties":{"Layer":"MP_CANALES GENERAL"},"geometry":{"type":"MultiLineString","coordinates":[[[615971.8593197,9761978.6257872,0.0],[615971.2715874,9761978.7464965,0.0]]]}},
{"type":"Feature","properties":{"Layer":"MP_CANALES GENERAL"},"geometry":{"type":"MultiLineString","coordinates":[[[615944.269,9762111.911,0.0],[615952.78,9762103.678,0.0],[615969.062,9762088.44,0.0]]]}},
{"type":"Feature","properties":{"Layer":"MP_CANALES GENERAL"},"geometry":{"type":"MultiLineString","coordinates":[[[616021.068,9762161.085,0.0],[616021.182,9762136.005,0.0]]]}},
{"type":"Feature","properties":{"Layer":"MP_CANALES GENERAL"},"geometry":{"type":"MultiLineString","coordinates":[[[616021.167999,9762161.0854545,0.0],[616021.281549,9762136.1044499,0.0]]]}},
{"type":"Feature","properties":{"Layer":"MP_CANALES GENERAL"},"geometry":{"type":"MultiLineString","coordinates":[[[616021.182,9762136.005,0.0],[616035.439,9762135.926,0.0]]]}},
{"type":"Feature","properties":{"Layer":"MP_CANALES GENERAL"},"geometry":{"type":"MultiLineString","coordinates":[[[616021.1814459,9762135.9050015,0.0],[616021.082451,9762135.9055501,0.0],[616021.082001,9762136.0045455,0.0],[616020.968001,9762161.0845455,0.0]]]}},
{"type":"Feature","properties":{"Layer":"MP_CANALES GENERAL"},"geometry":{"type":"MultiLineString","coordinates":[[[616045.263,9762142.038,0.0],[616045.316,9762136.465,0.0],[616045.3121561,9762135.77129,0.0]]]}},
{"type":"Feature","properties":{"Layer":"MP_CANALES GENERAL"},"geometry":{"type":"MultiLineString","coordinates":[[[616045.263,9762142.038,0.0],[616081.792,9762141.907,0.0]]]}},
{"type":"Feature","properties":{"Layer":"MP_CANALES GENERAL"},"geometry":{"type":"MultiLineString","coordinates":[[[616081.792,9762141.907,0.0],[616087.528,9762141.932,0.0],[616090.376,9762141.869,0.0]]]}},
{"type":"Feature","properties":{"Layer":"MP_CANALES GENERAL"},"geometry":{"type":"MultiLineString","coordinates":[[[616090.376,9762141.869,0.0],[616100.092,9762142.058,0.0]]]}},
{"type":"Feature","properties":{"Layer":"MP_CANALES GENERAL"},"geometry":{"type":"MultiLineString","coordinates":[[[616100.092,9762142.058,0.0],[616102.316,9762141.972,0.0]]]}},
{"type":"Feature","properties":{"Layer":"MP_CANALES GENERAL"},"geometry":{"type":"MultiLineString","coordinates":[[[616102.316,9762141.972,0.0],[616102.4834924,9762145.8718714,0.0]]]}},
{"type":"Feature","properties":{"Layer":"MP_CANALES GENERAL"},"geometry":{"type":"MultiLineString","coordinates":[[[616102.316,9762141.972,0.0],[616144.906,9762141.787,0.0]]]}},
{"type":"Feature","properties":{"Layer":"MP_CANALES GENERAL"},"geometry":{"type":"MultiLineString","coordinates":[[[616144.906,9762141.787,0.0],[616147.207,9762143.303,0.0]]]}},
{"type":"Feature","properties":{"Layer":"MP_CANALES GENERAL"},"geometry":{"type":"MultiLineString","coordinates":[[[616274.037,9762094.092,0.0],[616348.837,9762093.841,0.0]]]}},
{"type":"Feature","properties":{"Layer":"MP_CANALES GENERAL"},"geometry":{"type":"MultiLineString","coordinates":[[[616089.3140488,9761949.6975189,0.0],[616095.6244694,9761947.2482039,0.0],[616099.15,9761946.604,0.0],[616108.614,9761944.223,0.0],[616125.151,9761942.271,0.0],[616142.093,9761942.643,0.0],[616151.012,9761943.785,0.0]]]}},
{"type":"Feature","properties":{"Layer":"MP_CANALES GENERAL"},"geometry":{"type":"MultiLineString","coordinates":[[[616008.14,9762015.23,0.0],[616030.821,9761993.827,0.0],[616047.5647107,9761978.0664855,0.0],[616054.853,9761972.289,0.0]]]}},
{"type":"Feature","properties":{"Layer":"MP_CANALES GENERAL"},"geometry":{"type":"MultiLineString","coordinates":[[[615828.519,9762122.365,0.0],[615828.544,9762118.446,0.0]]]}},
{"type":"Feature","properties":{"Layer":"MP_CANALES GENERAL"},"geometry":{"type":"MultiLineString","coordinates":[[[615848.115,9762100.425,0.0],[615850.786,9762097.783,0.0]]]}},
{"type":"Feature","properties":{"Layer":"MP_CANALES GENERAL"},"geometry":{"type":"MultiLineString","coordinates":[[[615848.115,9762100.425,0.0],[615837.161,9762111.521,0.0]]]}},
{"type":"Feature","properties":{"Layer":"MP_CANALES GENERAL"},"geometry":{"type":"MultiLineString","coordinates":[[[615837.161,9762111.521,0.0],[615836.0018274,9762113.2741928,0.0],[615835.378,9762115.325,0.0]]]}},
{"type":"Feature","properties":{"Layer":"MP_CANALES GENERAL"},"geometry":{"type":"MultiLineString","coordinates":[[[615863.404,9762144.972,0.0],[615863.457,9762149.36,0.0]]]}},
{"type":"Feature","properties":{"Layer":"MP_CANALES GENERAL"},"geometry":{"type":"MultiLineString","coordinates":[[[615835.378,9762115.325,0.0],[615834.978,9762118.248,0.0]]]}},
{"type":"Feature","properties":{"Layer":"MP_CANALES GENERAL"},"geometry":{"type":"MultiLineString","coordinates":[[[615834.978,9762118.248,0.0],[615828.544,9762118.446,0.0]]]}},
{"type":"Feature","properties":{"Layer":"MP_CANALES GENERAL"},"geometry":{"type":"MultiLineString","coordinates":[[[614709.451,9762795.201,0.0],[614708.8169569,9762796.3049859,0.0],[614708.0375532,9762797.3468587,0.0],[614707.24003,9762798.3565011,0.0],[614706.327,9762799.256,0.0],[614676.148,9762818.515,0.0],[614654.513,9762832.243,0.0],[614629.776,9762847.879,0.0],[614623.921,9762851.492,0.0],[614599.977,9762866.362,0.0],[614596.6279267,9762868.051725,0.0],[614593.1883007,9762869.5631203,0.0],[614586.222,9762872.302,0.0],[614574.76,9762876.719,0.0],[614568.6509531,9762878.8659742,0.0],[614562.6512095,9762881.3324391,0.0],[614556.8192063,9762884.1702808,0.0],[614551.402,9762887.698,0.0],[614547.647159,9762890.2547726,0.0],[614544.2117705,9762893.2865893,0.0],[614540.9903224,9762896.7509328,0.0],[614538.014,9762900.427,0.0],[614524.029,9762919.737,0.0],[614522.896,9762921.271,0.0],[614495.628,9762960.518,0.0],[614487.329,9762972.358,0.0],[614481.9619475,9762979.2270427,0.0],[614476.4117541,9762985.969297,0.0],[614470.6576224,9762992.4263752,0.0],[614464.648,9762998.679,0.0],[614460.1762458,9763002.901718,0.0],[614455.4795716,9763006.9404688,0.0],[614450.6394541,9763010.8289057,0.0],[614445.5214617,9763014.3910816,0.0],[614440.5246655,9763018.0574907,0.0],[614435.3331216,9763021.5061672,0.0],[614424.964,9763028.408,0.0],[614391.047,9763051.041,0.0],[614383.9272184,9763055.0377595,0.0],[614380.2925757,9763056.7161026,0.0],[614376.5564397,9763058.2475412,0.0],[614372.8184523,9763059.663395,0.0],[614369.0265885,9763060.9317584,0.0],[614361.3415581,9763063.2725929,0.0],[614345.658539,9763067.185341,0.0],[614329.688,9763070.435,0.0],[614316.3383082,9763072.9044897,0.0],[614302.818,9763074.784,0.0],[614275.619,9763077.229,0.0],[614211.889,9763081.841,0.0],[614206.4283368,9763082.2999387,0.0],[614202.606135,9763082.5879543,0.0],[614185.3005298,9763083.8413535,0.0],[614148.7603237,9763086.5776329,0.0],[614143.630876,9763086.9719652,0.0],[614140.2375468,9763086.9719652,0.0],[614130.3225822,9763086.4097638,0.0],[614123.3315288,9763085.411855,0.0],[614108.9937289,9763082.9284786,0.0],[614109.655191,9763080.6945325,0.0]]]}},
{"type":"Feature","properties":{"Layer":"MP_CANALES GENERAL"},"geometry":{"type":"MultiLineString","coordinates":[[[615433.609,9762223.603,0.0],[615443.086,9762221.688,0.0],[615467.441,9762218.315,0.0],[615470.283,9762218.603,0.0],[615473.68,9762219.032,0.0],[615476.673,9762220.338,0.0],[615493.15,9762224.95,0.0],[615512.834,9762230.632,0.0],[615536.93,9762237.791,0.0],[615560.047,9762244.543,0.0],[615581.503,9762250.748,0.0],[615619.914,9762261.893,0.0],[615635.623,9762266.481,0.0],[615637.4514246,9762266.9439742,0.0],[615639.3322905,9762267.3361833,0.0],[615641.1897168,9762267.4281381,0.0],[615643.0203208,9762267.3614733,0.0]]]}},
{"type":"Feature","properties":{"Layer":"MP_CANALES GENERAL"},"geometry":{"type":"MultiLineString","coordinates":[[[615794.713,9762547.832,0.0],[615793.366,9762534.827,0.0],[615791.105,9762524.913,0.0],[615786.308,9762508.106,0.0],[615773.544,9762463.981,0.0],[615769.877,9762451.616,0.0],[615769.907,9762447.973,0.0]]]}},
{"type":"Feature","properties":{"Layer":"MP_CANALES GENERAL"},"geometry":{"type":"MultiLineString","coordinates":[[[615693.734,9761924.574,0.0],[615692.02,9761924.65,0.0],[615691.869,9761920.243,0.0],[615691.842,9761920.103,0.0],[615691.185,9761896.85,0.0],[615685.35,9761894.032,0.0],[615683.949,9761893.324,0.0],[615689.266,9761882.724,0.0]]]}},
{"type":"Feature","properties":{"Layer":"MP_CANALES GENERAL"},"geometry":{"type":"MultiLineString","coordinates":[[[615865.591,9761873.624,0.0],[615868.1915254,9761872.7077413,0.0],[615870.8175994,9761871.8675044,0.0],[615873.467,9761871.104,0.0],[615874.1157658,9761870.9321653,0.0],[615874.7586974,9761870.739647,0.0],[615875.3951354,9761870.5266425,0.0],[615876.0244274,9761870.2933703,0.0],[615876.645928,9761870.0400696,0.0],[615877.259,9761869.767,0.0],[615881.7657083,9761865.2330324,0.0],[615883.846,9761861.318,0.0],[615886.0196353,9761857.5517414,0.0]]]}},
{"type":"Feature","properties":{"Layer":"MP_CANALES GENERAL"},"geometry":{"type":"MultiLineString","coordinates":[[[615733.1762438,9762036.830873,0.0],[615732.9512402,9762032.2784745,0.0]]]}},
{"type":"Feature","properties":{"Layer":"MP_CANALES GENERAL"},"geometry":{"type":"MultiLineString","coordinates":[[[615733.376,9762036.821,0.0],[615733.161,9762032.471,0.0],[615732.347,9762016.488,0.0],[615728.539,9762016.685,0.0],[615727.571,9761996.56,0.0]]]}},
{"type":"Feature","properties":{"Layer":"MP_CANALES GENERAL"},"geometry":{"type":"MultiLineString","coordinates":[[[615697.216,9761985.99,0.0],[615700.857,9761979.433,0.0],[615700.632,9761949.793,0.0],[615700.663,9761949.026,0.0]]]}},
{"type":"Feature","properties":{"Layer":"MP_CANALES GENERAL"},"geometry":{"type":"MultiLineString","coordinates":[[[615843.314,9761888.66,0.0],[615836.148,9761898.412,0.0],[615835.6844844,9761899.1271523,0.0],[615835.2461277,9761899.8579964,0.0],[615834.8334606,9761900.6036474,0.0],[615834.4469827,9761901.3632028,0.0],[615834.0871618,9761902.1357431,0.0],[615833.7544335,9761902.9203331,0.0],[615833.4492006,9761903.716023,0.0],[615833.1718326,9761904.5218497,0.0],[615832.9226652,9761905.3368375,0.0],[615832.702,9761906.16,0.0],[615832.1425878,9761908.2961023,0.0],[615831.6455873,9761910.4475822,0.0],[615831.2114194,9761912.6126165,0.0],[615830.8404522,9761914.7893706,0.0],[615830.533,9761916.976,0.0]]]}},
{"type":"Feature","properties":{"Layer":"MP_CANALES GENERAL"},"geometry":{"type":"MultiLineString","coordinates":[[[615830.533,9761916.976,0.0],[615830.5507272,9761917.5051558,0.0],[615830.5864322,9761918.0334031,0.0],[615830.6400739,9761918.5601313,0.0],[615830.7115901,9761919.0847316,0.0],[615830.8008981,9761919.6065977,0.0],[615830.9078949,9761920.1251261,0.0],[615831.0324566,9761920.6397177,0.0],[615831.1744394,9761921.1497774,0.0],[615831.333679,9761921.6547159,0.0],[615831.5099914,9761922.1539493,0.0],[615831.7031729,9761922.6469006,0.0],[615831.913,9761923.133,0.0],[615837.897,9761939.024,0.0]]]}},
{"type":"Feature","properties":{"Layer":"MP_CANALES GENERAL"},"geometry":{"type":"MultiLineString","coordinates":[[[615837.897,9761939.024,0.0],[615841.238,9761948.756,0.0]]]}},
{"type":"Feature","properties":{"Layer":"MP_CANALES GENERAL"},"geometry":{"type":"MultiLineString","coordinates":[[[615971.5066803,9761978.6982128,0.0],[615969.6148416,9761969.4868672,0.0],[615962.5590961,9761943.6594593,0.0],[615955.2568404,9761915.6964801,0.0]]]}},
{"type":"Feature","properties":{"Layer":"MP_CANALES GENERAL"},"geometry":{"type":"MultiLineString","coordinates":[[[616430.643,9762079.885,0.0],[616430.3741722,9762080.5529308,0.0]]]}},
{"type":"Feature","properties":{"Layer":"MP_CANALES GENERAL"},"geometry":{"type":"MultiLineString","coordinates":[[[616311.108,9762032.746,0.0],[616309.419,9762032.677,0.0]]]}},
{"type":"Feature","properties":{"Layer":"MP_CANALES GENERAL"},"geometry":{"type":"MultiLineString","coordinates":[[[616085.826,9761951.475,0.0],[616080.547,9761953.588,0.0],[616071.799,9761958.322,0.0],[616067.91,9761960.83,0.0]]]}},
{"type":"Feature","properties":{"Layer":"MP_CANALES GENERAL"},"geometry":{"type":"MultiLineString","coordinates":[[[616151.012,9761943.785,0.0],[616150.983,9761944.552,0.0]]]}},
{"type":"Feature","properties":{"Layer":"MP_CANALES GENERAL"},"geometry":{"type":"MultiLineString","coordinates":[[[615853.91,9762161.245,0.0],[615863.701,9762151.949,0.0]]]}},
{"type":"Feature","properties":{"Layer":"MP_CANALES GENERAL"},"geometry":{"type":"MultiLineString","coordinates":[[[615646.927,9762061.725,109.261],[615646.627,9762062.271,109.261]]]}},
{"type":"Feature","properties":{"Layer":"MP_CANALES GENERAL"},"geometry":{"type":"MultiLineString","coordinates":[[[615646.627,9762062.271,108.918],[615646.423,9762062.801,108.918]]]}},
{"type":"Feature","properties":{"Layer":"MP_CANALES GENERAL"},"geometry":{"type":"MultiLineString","coordinates":[[[616430.548,9762080.46,0.0],[616386.409,9762062.695,0.0],[616363.901,9762053.723,0.0],[616335.708,9762042.482,0.0],[616315.963,9762034.63,0.0],[616311.108,9762032.746,0.0]]]}},
{"type":"Feature","properties":{"Layer":"MP_CANALES GENERAL"},"geometry":{"type":"MultiLineString","coordinates":[[[615096.122,9762628.365,0.0],[615092.11,9762629.711,0.0],[615091.028,9762630.135,0.0],[615085.953,9762631.828,0.0],[615084.448,9762632.404,0.0],[615068.4631542,9762661.0268312,0.0],[615065.9736358,9762663.0328107,0.0],[615057.7203127,9762666.875449,0.0],[615047.1848782,9762687.8898838,0.0],[615047.068,9762692.942,0.0]]]}},
{"type":"Feature","properties":{"Layer":"MP_CANALES GENERAL"},"geometry":{"type":"MultiLineString","coordinates":[[[615149.128,9762630.478,0.0],[615150.404,9762634.407,0.0],[615150.3418052,9762634.7047017,0.0],[615150.2726674,9762634.9974578,0.0],[615150.1896439,9762635.2803227,0.0],[615150.0857916,9762635.548351,0.0],[615149.9542093,9762635.7966256,0.0],[615149.7916095,9762636.022716,0.0],[615149.6010743,9762636.2285744,0.0],[615149.3863343,9762636.4165988,0.0],[615149.1511201,9762636.5891876,0.0],[615148.8991621,9762636.748739,0.0],[615148.634191,9762636.8976511,0.0],[615148.3599373,9762637.0383222,0.0],[615148.0801316,9762637.1731505,0.0],[615147.7985045,9762637.3045342,0.0],[615147.5187865,9762637.4348716,0.0],[615147.2447081,9762637.5665608,0.0],[615146.98,9762637.702,0.0],[615113.342,9762655.654,0.0],[615111.2207075,9762657.0022908,0.0],[615109.1609221,9762658.3377443,0.0],[615107.2241508,9762659.6475232,0.0],[615106.3211164,9762660.288773,0.0],[615105.738,9762660.719,0.0],[615105.4718347,9762660.9187996,0.0],[615104.6795928,9762661.5366299,0.0],[615103.9407285,9762662.1422875,0.0],[615102.6059824,9762663.3175392,0.0],[615101.433296,9762664.4454629,0.0],[615100.38845,9762665.5271043,0.0],[615099.4425525,9762666.5725648,0.0],[615098.5752505,9762667.6064601,0.0],[615097.76696,9762668.6547123,0.0],[615096.9983389,9762669.7425392,0.0],[615095.5335454,9762672.048312,0.0],[615094.121,9762674.45,0.0],[615090.883,9762680.351,0.0]]]}},
{"type":"Feature","properties":{"Layer":"MP_CANALES GENERAL"},"geometry":{"type":"MultiLineString","coordinates":[[[616043.595,9761925.529,0.0],[616049.72,9761933.939,0.0]]]}},
{"type":"Feature","properties":{"Layer":"MP_CANALES GENERAL"},"geometry":{"type":"MultiLineString","coordinates":[[[615858.674,9762074.514,0.0],[615858.6489314,9762072.2192959,0.0]]]}},
{"type":"Feature","properties":{"Layer":"MP_CANALES GENERAL"},"geometry":{"type":"MultiLineString","coordinates":[[[616083.8138979,9762081.5468196,0.0],[616136.2138979,9762081.5468196,0.0]]]}},
{"type":"Feature","properties":{"Layer":"MP_CANALES GENERAL"},"geometry":{"type":"MultiLineString","coordinates":[[[616116.6063599,9762069.4188527,0.0],[616116.6063599,9762064.9188527,0.0],[616136.2263599,9762064.9188527,0.0]]]}},
{"type":"Feature","properties":{"Layer":"MP_CANALES GENERAL"},"geometry":{"type":"MultiLineString","coordinates":[[[616136.2263599,9762064.9188527,0.0],[616140.7363599,9762064.9188527,0.0],[616146.3863599,9762064.9188527,0.0],[616146.3863599,9762054.1473497,0.0],[616151.311097,9762050.5452248,0.0]]]}},
{"type":"Feature","properties":{"Layer":"MP_CANALES GENERAL"},"geometry":{"type":"MultiLineString","coordinates":[[[616136.2263599,9762065.1188527,0.0],[616136.2263599,9762069.4888527,0.0]]]}},
{"type":"Feature","properties":{"Layer":"MP_CANALES GENERAL"},"geometry":{"type":"MultiLineString","coordinates":[[[616108.1432983,9762069.3592474,0.0],[616108.1432983,9762065.2992474,0.0],[616087.1832983,9762065.2992474,0.0],[616081.3332983,9762065.2992474,0.0],[616081.3332983,9762055.2692474,0.0]]]}},
{"type":"Feature","properties":{"Layer":"MP_CANALES GENERAL"},"geometry":{"type":"MultiLineString","coordinates":[[[616087.1832983,9762065.2992474,0.0],[616087.1832983,9762069.5592474,0.0]]]}},
{"type":"Feature","properties":{"Layer":"MP_CANALES GENERAL"},"geometry":{"type":"MultiLineString","coordinates":[[[615997.7758609,9762116.2685233,0.0],[615997.7758609,9762132.4244714,0.0],[616016.9697653,9762132.4244714,0.0]]]}},
{"type":"Feature","properties":{"Layer":"MP_CANALES GENERAL"},"geometry":{"type":"MultiLineString","coordinates":[[[615787.0,9761993.0,0.0],[615791.666728,9761991.2051046,0.0],[615800.5,9761992.5,0.0],[615803.6122873,9761995.4857842,0.0],[615807.1560992,9761994.5030831,0.0],[615810.0850682,9761991.4159859,0.0]]]}},
{"type":"Feature","properties":{"Layer":"MP_CANALES GENERAL"},"geometry":{"type":"MultiLineString","coordinates":[[[615962.2246559,9762137.6090728,0.0],[615969.1103591,9762137.6090728,0.0],[615969.1103591,9762141.1014731,0.0],[615995.9758294,9762141.1014731,0.0],[615995.9758294,9762155.7593801,0.0]]]}},
{"type":"Feature","properties":{"Layer":"MP_CANALES GENERAL"},"geometry":{"type":"MultiLineString","coordinates":[[[615971.5066803,9761978.6982128,0.0],[615974.1633695,9761988.9833991,0.0],[615978.8505951,9761995.437351,0.0],[615987.0801384,9762001.7653228,0.0],[615998.9595932,9762008.7753253,0.0],[616007.2443128,9762014.7919666,0.0]]]}},
{"type":"Feature","properties":{"Layer":"MP_CANALES GENERAL"},"geometry":{"type":"MultiLineString","coordinates":[[[614942.5649298,9762590.646804,0.0],[614941.4253048,9762590.676043,0.0],[614937.9464496,9762590.7652989,0.0],[614933.068055,9762590.8904624,0.0],[614930.9035953,9762590.7493554,0.0],[614928.7979467,9762590.0428878,0.0],[614927.1696986,9762580.0537333,0.0],[614925.4550981,9762579.136831,0.0],[614920.0,9762581.5,0.0],[614920.3413824,9762582.5338826,0.0],[614921.5746915,9762587.9150526,0.0],[614907.0262079,9762582.5263047,0.0],[614891.5095636,9762578.4834035,0.0],[614878.2247944,9762582.8372473,0.0]]]}},
{"type":"Feature","properties":{"Layer":"MP_CANALES GENERAL"},"geometry":{"type":"MultiLineString","coordinates":[[[614942.604854,9762593.9647626,0.0],[614932.2479264,9762594.2034059,0.0]]]}},
{"type":"Feature","properties":{"Layer":"MP_CANALES GENERAL"},"geometry":{"type":"MultiLineString","coordinates":[[[614919.4532317,9762590.7280002,0.0],[614904.0119959,9762585.560586,0.0],[614892.5610688,9762583.1462639,0.0],[614880.369391,9762586.6769483,0.0]]]}},
{"type":"Feature","properties":{"Layer":"MP_CANALES GENERAL"},"geometry":{"type":"MultiLineString","coordinates":[[[614909.315,9762560.97,0.0],[614898.214,9762563.61,0.0],[614888.6168186,9762563.5424137,0.0],[614877.4700268,9762563.2279071,0.0]]]}},
{"type":"Feature","properties":{"Layer":"MP_CANALES GENERAL"},"geometry":{"type":"MultiLineString","coordinates":[[[614747.814,9762763.333,0.0],[614764.084,9762787.343,0.0]]]}},
{"type":"Feature","properties":{"Layer":"MP_CANALES GENERAL"},"geometry":{"type":"MultiLineString","coordinates":[[[615392.236,9762668.628,0.0],[615393.1973438,9762675.4616529,0.0],[615392.1871025,9762683.022168,0.0],[615389.7235977,9762689.7624196,0.0],[615388.0708959,9762697.00675,0.0],[615385.6862944,9762705.9485346,0.0]]]}},
{"type":"Feature","properties":{"Layer":"MP_CANALES GENERAL"},"geometry":{"type":"MultiLineString","coordinates":[[[615376.7614376,9762708.7075289,0.0],[615366.4562378,9762711.8932369,0.0],[615362.8256937,9762710.1818407,0.0],[615356.0817052,9762712.3501654,0.0]]]}},
{"type":"Feature","properties":{"Layer":"MP_CANALES GENERAL"},"geometry":{"type":"MultiLineString","coordinates":[[[615350.6671988,9762735.2774896,0.0],[615388.2605431,9762722.283517,0.0]]]}},
{"type":"Feature","properties":{"Layer":"MP_CANALES GENERAL"},"geometry":{"type":"MultiLineString","coordinates":[[[615349.4078238,9762737.7517521,0.0],[615357.5575768,9762764.4430579,0.0]]]}},
{"type":"Feature","properties":{"Layer":"MP_CANALES GENERAL"},"geometry":{"type":"MultiLineString","coordinates":[[[615214.01,9762582.857,0.0],[615217.587,9762593.276,0.0],[615220.987,9762603.175,0.0],[615224.597,9762614.294,0.0],[615225.681,9762616.862,0.0],[615226.764,9762618.887,0.0],[615225.2805295,9762627.722261,0.0],[615226.604,9762631.281,0.0],[615229.9063566,9762639.2321725,0.0],[615233.3285246,9762644.4324825,0.0],[615236.2445019,9762647.0614554,0.0],[615238.24,9762648.084,0.0],[615239.554,9762648.569,0.0],[615243.3575,9762651.1105,0.0]]]}},
{"type":"Feature","properties":{"Layer":"MP_CANALES GENERAL"},"geometry":{"type":"MultiLineString","coordinates":[[[615102.7736147,9762676.7120486,0.0],[615101.6921088,9762678.947852,0.0],[615101.6628902,9762679.0110381,0.0],[615101.6358883,9762679.0752027,0.0],[615101.6111358,9762679.1402682,0.0],[615101.5886627,9762679.2061558,0.0],[615101.5684963,9762679.2727855,0.0],[615101.5506609,9762679.3400767,0.0],[615101.5351783,9762679.4079478,0.0],[615101.522067,9762679.4763167,0.0],[615101.5113431,9762679.5451004,0.0],[615101.5030195,9762679.6142157,0.0],[615101.4971063,9762679.6835788,0.0],[615101.4936106,9762679.7531057,0.0],[615101.4925368,9762679.8227121,0.0],[615101.493886,9762679.8923137,0.0],[615101.4976567,9762679.9618262,0.0],[615101.5038443,9762680.0311654,0.0],[615101.5124413,9762680.1002472,0.0],[615101.5234373,9762680.168988,0.0],[615101.5368189,9762680.2373044,0.0],[615101.55257,9762680.3051138,0.0],[615101.5706715,9762680.3723339,0.0],[615101.5911014,9762680.4388833,0.0],[615101.6138349,9762680.5046814,0.0],[615101.6388447,9762680.5696485,0.0],[615107.7573945,9762695.6741782,0.0]]]}},
{"type":"Feature","properties":{"Layer":"MP_CANALES GENERAL"},"geometry":{"type":"MultiLineString","coordinates":[[[615110.2311313,9762697.0504789,0.0],[615112.2931998,9762696.9759584,0.0],[615113.915962,9762696.1552279,0.0],[615127.370513,9762687.5802806,0.0]]]}},
{"type":"Feature","properties":{"Layer":"MP_CANALES GENERAL"},"geometry":{"type":"MultiLineString","coordinates":[[[615127.8631764,9762687.3534953,0.0],[615144.2175764,9762682.3768114,0.0],[615144.2804557,9762682.3495102,0.0],[615144.3442336,9762682.3243798,0.0],[615144.4088353,9762682.30145,0.0],[615144.4741848,9762682.2807475,0.0],[615144.5402055,9762682.2622967,0.0],[615144.6068197,9762682.2461193,0.0],[615144.6739491,9762682.2322343,0.0],[615144.741515,9762682.2206579,0.0],[615144.8094379,9762682.2114039,0.0],[615144.877638,9762682.204483,0.0],[615144.9460353,9762682.1999035,0.0],[615145.0145493,9762682.1976706,0.0],[615145.0830996,9762682.197787,0.0],[615145.1516057,9762682.2002525,0.0],[615145.219987,9762682.2050643,0.0],[615145.2881632,9762682.2122168,0.0],[615145.3560543,9762682.2217014,0.0],[615145.4235805,9762682.2335071,0.0],[615145.4906624,9762682.24762,0.0],[615145.5572212,9762682.2640236,0.0],[615145.6231788,9762682.2826984,0.0],[615145.6884577,9762682.3036227,0.0],[615145.7529812,9762682.3267718,0.0],[615145.8166734,9762682.3521186,0.0],[615145.8794596,9762682.3796332,0.0],[615145.941266,9762682.4092833,0.0],[615146.0020199,9762682.4410342,0.0],[615146.0616501,9762682.4748484,0.0],[615146.1200864,9762682.5106863,0.0],[615146.1772602,9762682.5485058,0.0],[615146.2331043,9762682.5882624,0.0],[615146.2875532,9762682.6299094,0.0],[615146.3405429,9762682.673398,0.0],[615146.392011,9762682.718677,0.0],[615175.0223417,9762708.7976686,0.0]]]}},
{"type":"Feature","properties":{"Layer":"MP_CANALES GENERAL"},"geometry":{"type":"MultiLineString","coordinates":[[[615392.236,9762668.628,0.0],[615389.795,9762663.103,0.0],[615372.045,9762637.275,0.0]]]}},
{"type":"Feature","properties":{"Layer":"MP_CANALES GENERAL"},"geometry":{"type":"MultiLineString","coordinates":[[[615359.827,9762640.97,0.0],[615372.045,9762637.275,0.0]]]}},
{"type":"Feature","properties":{"Layer":"MP_CANALES GENERAL"},"geometry":{"type":"MultiLineString","coordinates":[[[615226.604,9762631.281,0.0],[615225.2805295,9762627.722261,0.0]]]}},
{"type":"Feature","properties":{"Layer":"MP_CANALES GENERAL"},"geometry":{"type":"MultiLineString","coordinates":[[[615226.604,9762631.281,0.0],[615229.9063566,9762639.2321725,0.0],[615233.3285246,9762644.4324825,0.0],[615236.2445019,9762647.0614554,0.0],[615237.8270048,9762647.9056773,0.0],[615238.24,9762648.084,0.0],[615239.554,9762648.569,0.0],[615243.3575,9762651.1105,0.0]]]}},
{"type":"Feature","properties":{"Layer":"MP_CANALES GENERAL"},"geometry":{"type":"MultiLineString","coordinates":[[[614942.5649298,9762590.646804,0.0],[614941.4253048,9762590.676043,0.0],[614937.9464496,9762590.7652989,0.0],[614933.068055,9762590.8904624,0.0],[614930.9035953,9762590.7493554,0.0],[614928.7979467,9762590.0428878,0.0],[614927.1696986,9762580.0537333,0.0],[614925.4550981,9762579.136831,0.0],[614920.0,9762581.5,0.0],[614920.3413824,9762582.5338826,0.0],[614921.5746915,9762587.9150526,0.0],[614907.0262079,9762582.5263047,0.0],[614891.5095636,9762578.4834035,0.0],[614878.2247944,9762582.8372473,0.0]]]}},
{"type":"Feature","properties":{"Layer":"MP_CANALES GENERAL"},"geometry":{"type":"MultiLineString","coordinates":[[[614919.4532317,9762590.7280002,0.0],[614904.0119959,9762585.560586,0.0],[614892.5610688,9762583.1462639,0.0],[614880.369391,9762586.6769483,0.0]]]}},
{"type":"Feature","properties":{"Layer":"MP_CANALES GENERAL"},"geometry":{"type":"MultiLineString","coordinates":[[[614877.4700268,9762563.2279071,0.0],[614875.0,9762563.5,0.0]]]}},
{"type":"Feature","properties":{"Layer":"MP_CANALES GENERAL"},"geometry":{"type":"MultiLineString","coordinates":[[[614875.0,9762563.5,0.0],[614868.9086799,9762564.171007,0.0],[614862.4866102,9762564.8784486,0.0],[614853.75,9762566.1892243,0.0],[614851.0,9762567.5,0.0],[614845.5,9762570.5,0.0],[614843.4808424,9762571.3943431,0.0]]]}},
{"type":"Feature","properties":{"Layer":"MP_CANALES GENERAL"},"geometry":{"type":"MultiLineString","coordinates":[[[614891.5095636,9762578.4834035,0.0],[614884.0,9762569.0,0.0],[614877.4700268,9762563.2279071,0.0]]]}},
{"type":"Feature","properties":{"Layer":"MP_CANALES GENERAL"},"geometry":{"type":"MultiLineString","coordinates":[[[614942.604854,9762593.9647626,0.0],[614932.2479264,9762594.2034059,0.0],[614927.2442313,9762593.2327335,0.0],[614927.2442313,9762594.6163668,0.0],[614926.1792104,9762596.596394,0.0],[614923.5,9762597.5,0.0],[614920.5,9762597.5,0.0]]]}},
{"type":"Feature","properties":{"Layer":"MP_CANALES GENERAL"},"geometry":{"type":"MultiLineString","coordinates":[[[614878.2247944,9762582.8372473,0.0],[614886.7906326,9762604.5604189,0.0],[614897.0303649,9762636.9491823,0.0],[614907.5133367,9762639.1634216,0.0],[614919.0270403,9762673.7836613,0.0],[614922.2695758,9762683.8921899,0.0]]]}},
{"type":"Feature","properties":{"Layer":"MP_CANALES GENERAL"},"geometry":{"type":"MultiLineString","coordinates":[[[614843.228,9762607.808,0.0],[614863.8472819,9762601.4196255,0.0],[614882.9409014,9762594.7974081,0.0]]]}},
{"type":"Feature","properties":{"Layer":"MP_CANALES GENERAL"},"geometry":{"type":"MultiLineString","coordinates":[[[614843.228,9762607.808,0.0],[614829.3421262,9762611.8017262,0.0]]]}},
{"type":"Feature","properties":{"Layer":"MP_CANALES GENERAL"},"geometry":{"type":"MultiLineString","coordinates":[[[614818.5664957,9762657.4133312,0.0],[614823.0718771,9762671.454113,0.0],[614828.3069843,9762689.7535222,0.0],[614831.7998495,9762703.3236513,0.0],[614832.1014206,9762704.4472021,0.0],[614832.3653601,9762705.5801838,0.0],[614832.5913746,9762706.7213362,0.0],[614832.7792128,9762707.8693904,0.0],[614832.9286656,9762709.0230695,0.0],[614833.0395669,9762710.1810904,0.0],[614833.1117933,9762711.3421653,0.0],[614833.1452646,9762712.5050029,0.0],[614833.1583588,9762712.8733953,0.0],[614833.1589545,9762713.2420199,0.0],[614833.1470508,9762713.6104527,0.0],[614833.1226616,9762713.9782701,0.0],[614833.0858148,9762714.345049,0.0],[614833.0365528,9762714.7103676,0.0],[614832.9749323,9762715.0738058,0.0],[614832.9010242,9762715.4349458,0.0],[614832.8149133,9762715.793372,0.0],[614832.7166988,9762716.1486724,0.0],[614832.6064937,9762716.5004383,0.0],[614832.4844245,9762716.8482652,0.0],[614832.3506318,9762717.1917532,0.0],[614832.2052694,9762717.5305071,0.0]]]}},
{"type":"Feature","properties":{"Layer":"MP_CANALES GENERAL"},"geometry":{"type":"MultiLineString","coordinates":[[[614917.0082062,9762762.0,0.0],[614824.4496502,9762796.7852832,0.0],[614775.6211642,9762814.374739,0.0]]]}},
{"type":"Feature","properties":{"Layer":"MP_CANALES GENERAL"},"geometry":{"type":"MultiLineString","coordinates":[[[614764.084,9762787.343,0.0],[614775.6211642,9762814.374739,0.0]]]}},
{"type":"Feature","properties":{"Layer":"MP_CANALES GENERAL"},"geometry":{"type":"MultiLineString","coordinates":[[[614774.7084284,9762780.3653728,0.0],[614775.6211642,9762814.374739,0.0]]]}},
{"type":"Feature","properties":{"Layer":"MP_CANALES GENERAL"},"geometry":{"type":"MultiLineString","coordinates":[[[614775.6211642,9762814.374739,0.0],[614774.8372947,9762822.3732871,0.0],[614770.7298909,9762827.9080699,0.0],[614753.1199113,9762839.090867,0.0]]]}},
{"type":"Feature","properties":{"Layer":"MP_CANALES GENERAL"},"geometry":{"type":"MultiLineString","coordinates":[[[615046.9835759,9762697.7703679,0.0],[615025.5,9762703.5,0.0],[615024.2234198,9762703.5918161,0.0],[615020.0641276,9762689.9953542,0.0],[614996.7573288,9762708.3234945,0.0],[614991.2464779,9762722.2653158,0.0],[614978.3189565,9762733.9020841,0.0],[614968.4345817,9762741.9227173,0.0],[614918.998216,9762758.9482879,0.0],[614916.8866179,9762761.3501361,0.0],[614917.1297944,9762762.4766731,0.0],[614918.9909687,9762763.0462001,0.0],[614920.4097463,9762763.3821894,0.0],[614940.8908126,9762812.301262,0.0]]]}},
{"type":"Feature","properties":{"Layer":"MP_CANALES GENERAL"},"geometry":{"type":"MultiLineString","coordinates":[[[615096.6020124,9762611.9798903,0.0],[615101.2386398,9762618.2020742,0.0],[615099.4126724,9762621.8730199,0.0],[615096.1467487,9762628.1402513,0.0]]]}},
{"type":"Feature","properties":{"Layer":"MP_CANALES GENERAL"},"geometry":{"type":"MultiLineString","coordinates":[[[614885.9693756,9762703.469373,-58.2871466],[614897.0906424,9762734.467289,-58.2871466],[614898.0750464,9762735.8396055,-58.2871466],[614913.1674989,9762742.9011554,-58.2871466],[614939.9932616,9762734.482622,-58.2871466],[614954.3323518,9762728.922605,-58.2871466],[614956.3727367,9762720.7253079,-58.2871466],[614959.5344648,9762713.9016962,-58.2871466],[614967.4908289,9762711.074381,-58.2871466],[614976.0,9762710.0,-58.2871466]]]}},
{"type":"Feature","properties":{"Layer":"MP_CANALES GENERAL"},"geometry":{"type":"MultiLineString","coordinates":[[[615116.2120446,9762729.1040285,0.0],[615120.9408236,9762742.8144591,0.0],[615119.7586355,9762745.5873534,0.0],[615123.0499195,9762755.9757217,0.0]]]}},
{"type":"Feature","properties":{"Layer":"MP_CANALES GENERAL"},"geometry":{"type":"MultiLineString","coordinates":[[[614979.093218,9762774.7314361,0.0],[614978.5814756,9762777.1171992,0.0],[614981.0585975,9762781.237252,0.0],[614993.336292,9762786.248576,0.0]]]}},
{"type":"Feature","properties":{"Layer":"MP_CANALES GENERAL"},"geometry":{"type":"MultiLineString","coordinates":[[[615865.4629928,9761873.7395969,0.0],[615864.6869685,9761873.9890998,0.0],[615863.9197703,9761874.2645493,0.0],[615863.1622655,9761874.565634,0.0],[615862.4153105,9761874.8920134,0.0],[615861.6797494,9761875.2433188,0.0],[615860.9564139,9761875.6191528,0.0],[615860.2461217,9761876.0190908,0.0],[615858.4021046,9761876.9907502,0.0],[615856.590294,9761878.0212178,0.0],[615854.8125647,9761879.1094272,0.0],[615853.0707563,9761880.2542523,0.0],[615851.3666712,9761881.4545086,0.0],[615849.8994115,9761882.5685781,0.0],[615848.4719344,9761883.7331859,0.0],[615847.0859799,9761884.9469124,0.0],[615845.7432372,9761886.2082783,0.0],[615844.4453428,9761887.5157462,0.0],[615843.1938788,9761888.8677225,0.0]]]}},
{"type":"Feature","properties":{"Layer":"MP_CANALES GENERAL"},"geometry":{"type":"MultiLineString","coordinates":[[[616109.1050889,9762185.40724,0.0],[616147.6289964,9762185.4740905,0.0],[616147.6289964,9762156.1757685,0.0],[616109.0717825,9762156.2189937,0.0],[616109.1050889,9762185.40724,0.0]]]}},
{"type":"Feature","properties":{"Layer":"MP_CANALES GENERAL"},"geometry":{"type":"MultiLineString","coordinates":[[[616145.9697563,9762205.6045683,0.0],[616161.6234054,9762199.6578229,0.0],[616229.104657,9762199.2993385,0.0],[616270.906657,9762199.1593385,0.0],[616333.057,9762199.0523385,0.0]]]}}
]
}
