{
"type": "FeatureCollection",
"name": "aapp",
"crs": { "type": "name", "properties": { "name": "urn:ogc:def:crs:EPSG::32717" } },
"xy_coordinate_resolution": 1e-07,
"features": [
{"type":"Feature","properties":{"Layer":"AGUA POTABLE"},"geometry":{"type":"MultiLineString","coordinates":[[[615958.4620109,9762540.0606513,0.0],[616012.5281782,9762545.6273885,0.0],[616196.000194,9762583.7435347,0.0],[616589.8884738,9762402.1390563,0.0],[617082.8412372,9762518.3864502,0.0],[617450.5806838,9762878.3596688,0.0]]]}},
{"type":"Feature","properties":{"Layer":"AGUA POTABLE"},"geometry":{"type":"MultiLineString","coordinates":[[[615056.5653528,9762652.2296301,-122.4576815],[614907.7474923,9762709.767539,-122.4576815]]]}},
{"type":"Feature","properties":{"Layer":"AGUA POTABLE"},"geometry":{"type":"MultiLineString","coordinates":[[[614910.6172376,9762815.7811087,-122.4576815],[614942.4177886,9762910.3954129,-122.4576815],[614929.0633548,9762914.5899446,-122.4576815],[614942.7778818,9762959.2107596,-122.4576815]]]}},
{"type":"Feature","properties":{"Layer":"AGUA POTABLE"},"geometry":{"type":"MultiLineString","coordinates":[[[614879.5003264,9762794.2702377,-122.4576815],[614812.9736178,9762827.4170802,-122.4576815],[614773.2932735,9762849.2198541,-122.4576815],[614770.2929768,9762850.8239537,-122.4576815],[614750.3346342,9762860.9305377,-122.4576815],[614729.9506198,9762786.7873743,-122.4576815],[614611.5340614,9762818.370882,-122.4576815]]]}},
{"type":"Feature","properties":{"Layer":"AGUA POTABLE"},"geometry":{"type":"MultiLineString","coordinates":[[[616096.8439159,9762062.2804629,-78.0],[616096.8439159,9761992.7638929,-78.0],[616098.5613,9761959.4403,-78.0]]]}},
{"type":"Feature","properties":{"Layer":"AGUA POTABLE"},"geometry":{"type":"MultiLineString","coordinates":[[[615968.888752,9762218.2548369,0.0],[615935.0919447,9762218.4488,0.0]]]}},
{"type":"Feature","properties":{"Layer":"AGUA POTABLE"},"geometry":{"type":"MultiLineString","coordinates":[[[616177.2969926,9762124.3632219,-39.0],[616078.7964218,9762124.3632219,-39.0]]]}},
{"type":"Feature","properties":{"Layer":"AGUA POTABLE"},"geometry":{"type":"MultiLineString","coordinates":[[[615928.1137,9762236.8928332,-39.0],[615887.9402,9762237.0253063,-39.0]]]}},
{"type":"Feature","properties":{"Layer":"AGUA POTABLE"},"geometry":{"type":"MultiLineString","coordinates":[[[616257.9141638,9762062.400311,-39.0],[616257.9141638,9762141.4450442,-39.0],[616267.2633716,9762141.3169232,-39.0],[616267.2633716,9762153.7203634,-39.0]]]}},
{"type":"Feature","properties":{"Layer":"AGUA POTABLE"},"geometry":{"type":"MultiLineString","coordinates":[[[616257.9141638,9762141.4450442,-39.0],[616173.5452085,9762141.4450442,-39.0],[616173.5452085,9762062.400311,-39.0]]]}},
{"type":"Feature","properties":{"Layer":"AGUA POTABLE"},"geometry":{"type":"MultiLineString","coordinates":[[[616257.9141638,9762072.1443414,-39.0],[616284.1557979,9762072.1443414,-39.0]]]}},
{"type":"Feature","properties":{"Layer":"AGUA POTABLE"},"geometry":{"type":"MultiLineString","coordinates":[[[616276.5650559,9762071.721755,-39.0],[616276.5650559,9762093.5845335,-39.0],[616266.0542715,9762093.5845335,-39.0],[616266.0542715,9762101.3962579,-39.0]]]}},
{"type":"Feature","properties":{"Layer":"AGUA POTABLE"},"geometry":{"type":"MultiLineString","coordinates":[[[615951.609707,9762535.5436713,0.0],[615932.5184203,9762526.5442316,0.0]]]}},
{"type":"Feature","properties":{"Layer":"AGUA POTABLE"},"geometry":{"type":"MultiLineString","coordinates":[[[615855.8067,9762370.074,-39.0],[615839.5171507,9762433.1616678,-39.0]]]}},
{"type":"Feature","properties":{"Layer":"AGUA POTABLE"},"geometry":{"type":"MultiLineString","coordinates":[[[616853.2267417,9762362.3071749,-131.7152957],[616834.3750233,9762459.7935139,-131.7152957]]]}},
{"type":"Feature","properties":{"Layer":"AGUA POTABLE"},"geometry":{"type":"MultiLineString","coordinates":[[[615654.5495764,9762261.1852362,20.5449927],[615690.102809,9762275.6415277,20.5449927],[615726.8747,9762305.866,20.5449927],[615747.047,9762334.4178,20.5449927],[615758.2846,9762365.6581,20.5449927],[615775.6395283,9762428.7924493,20.5449927]]]}},
{"type":"Feature","properties":{"Layer":"AGUA POTABLE"},"geometry":{"type":"MultiLineString","coordinates":[[[615660.8232326,9762217.3888063,0.0],[615698.4728443,9762029.4122177,0.0]]]}},
{"type":"Feature","properties":{"Layer":"AGUA POTABLE"},"geometry":{"type":"MultiLineString","coordinates":[[[615113.119405,9762461.534726,20.5449927],[615148.4453593,9762514.6663124,20.5449927],[615064.0441278,9762674.0594931,20.5449927],[615071.7643134,9762699.8801519,20.5449927],[615070.8453627,9762702.5454969,20.5449927],[615093.7308163,9762768.3042538,20.5449927]]]}},
{"type":"Feature","properties":{"Layer":"AGUA POTABLE"},"geometry":{"type":"MultiLineString","coordinates":[[[615093.7308163,9762768.3042538,20.5449927],[615108.6166,9762815.9764,20.5449927]]]}},
{"type":"Feature","properties":{"Layer":"AGUA POTABLE"},"geometry":{"type":"MultiLineString","coordinates":[[[615011.3935316,9762889.2851752,20.5449927],[614973.3132841,9762799.4640869,20.5449927]]]}},
{"type":"Feature","properties":{"Layer":"AGUA POTABLE"},"geometry":{"type":"MultiLineString","coordinates":[[[615215.0747833,9762390.0707792,-39.0],[615285.2319305,9762499.6275716,-39.0],[615322.043764,9762522.0511706,-39.0],[615367.2213306,9762586.314302,-39.0],[615407.5374,9762639.6082452,-39.0],[615409.6178354,9762655.764811,-39.0],[615415.8258147,9762668.339675,-39.0],[615410.3358623,9762684.8124655,-39.0],[615403.2299844,9762698.0072958,-39.0],[615335.5732892,9762718.1212087,-39.0],[615312.7028251,9762638.3591081,-39.0],[615387.3793653,9762612.9612736,-39.0]]]}},
{"type":"Feature","properties":{"Layer":"AGUA POTABLE"},"geometry":{"type":"MultiLineString","coordinates":[[[615074.0547568,9762711.767327,20.5449927],[615125.265171,9762695.6482855,20.5449927],[615171.6552079,9762835.8564086,20.5449927],[615125.2891818,9762883.0009989,20.5449927],[615102.4239843,9762912.5046556,20.5449927],[615053.6017712,9762972.097405,20.5449927],[615032.2995535,9762995.0164098,20.5449927],[615017.4940089,9763012.2281642,20.5449927],[614991.0949,9763033.3723,20.5449927],[614973.2228636,9763041.310355,20.5449927],[614951.4078,9763044.0146,20.5449927],[614918.9137,9763041.605,20.5449927],[614895.5970901,9763037.1441628,20.5449927],[614863.6714273,9763025.2062545,20.5449927],[614836.2936958,9763005.0873153,20.5449927],[614827.2365158,9762997.7763521,20.5449927],[614808.5438651,9762997.8865303,20.5449927]]]}},
{"type":"Feature","properties":{"Layer":"AGUA POTABLE"},"geometry":{"type":"MultiLineString","coordinates":[[[614965.8469912,9763059.3928842,-39.0],[614962.2886851,9763029.2906211,-39.0]]]}},
{"type":"Feature","properties":{"Layer":"AGUA POTABLE"},"geometry":{"type":"MultiLineString","coordinates":[[[614884.358859,9762994.451016,-39.0],[614888.2034806,9762993.0465203,-39.0],[614910.2968102,9762985.9538206,-39.0],[614905.5740953,9762970.506516,-39.0],[615003.1012246,9762940.4461546,-39.0],[614997.1829,9762922.4174,-39.0],[614983.1014,9762926.4285,-39.0],[614978.6401028,9762912.7294615,-39.0],[614974.905684,9762900.4999764,-39.0]]]}},
{"type":"Feature","properties":{"Layer":"AGUA POTABLE"},"geometry":{"type":"MultiLineString","coordinates":[[[615064.0441278,9762674.0594931,0.0],[615012.0537753,9762514.4175263,0.0]]]}},
{"type":"Feature","properties":{"Layer":"AGUA POTABLE"},"geometry":{"type":"MultiLineString","coordinates":[[[614859.1161705,9762526.8889158,20.5449927],[614817.7297573,9762597.9989791,20.5449927],[614837.2716788,9762667.1029297,20.5449927],[614892.6690481,9762649.9345085,20.5449927]]]}},
{"type":"Feature","properties":{"Layer":"AGUA POTABLE"},"geometry":{"type":"MultiLineString","coordinates":[[[614892.6690481,9762649.9345085,20.5449927],[614896.691354,9762648.6403503,20.5449927],[614875.3972668,9762580.5860875,20.5449927],[614855.9053843,9762563.3316882,20.5449927],[614853.1460716,9762567.1405139,20.5449927],[614846.523729,9762564.1185052,20.5449927],[614848.14019,9762560.8880842,20.5449927],[614840.4824679,9762558.005421,20.5449927]]]}},
{"type":"Feature","properties":{"Layer":"AGUA POTABLE"},"geometry":{"type":"MultiLineString","coordinates":[[[614832.9717771,9762651.8976596,20.5449927],[614863.9031736,9762642.3696653,20.5449927]]]}},
{"type":"Feature","properties":{"Layer":"AGUA POTABLE"},"geometry":{"type":"MultiLineString","coordinates":[[[614865.8618085,9762693.2860876,-39.0],[614862.8738295,9762694.0092715,-39.0],[614852.9387931,9762662.4364482,-39.0]]]}},
{"type":"Feature","properties":{"Layer":"AGUA POTABLE"},"geometry":{"type":"MultiLineString","coordinates":[[[614856.4538761,9762532.4960254,20.5449927],[614863.7704123,9762531.9205494,20.5449927],[614881.3610813,9762478.6094018,20.5449927],[614873.3419184,9762423.0717442,20.5449927],[614855.4854868,9762409.5456154,20.5449927],[614806.8921245,9762418.9242183,20.5449927],[614762.8750707,9762418.8942509,20.5449927],[614751.5369095,9762459.8719959,20.5449927],[614691.5568335,9762489.503001,20.5449927],[614696.9912818,9762507.0851517,20.5449927]]]}},
{"type":"Feature","properties":{"Layer":"AGUA POTABLE"},"geometry":{"type":"MultiLineString","coordinates":[[[614857.6681405,9762529.9386396,20.5449927],[614860.4877252,9762530.6492627,20.5449927],[614869.5114,9762506.1928,20.5449927],[614860.0229,9762504.3634,20.5449927],[614855.2998,9762503.2793,20.5449927]]]}},
{"type":"Feature","properties":{"Layer":"AGUA POTABLE"},"geometry":{"type":"MultiLineString","coordinates":[[[614696.9912818,9762507.0851517,20.5449927],[614694.4811213,9762514.9087461,20.5449927]]]}},
{"type":"Feature","properties":{"Layer":"AGUA POTABLE"},"geometry":{"type":"MultiLineString","coordinates":[[[615142.5210294,9762525.7413032,20.5449927],[615164.1596444,9762538.74234,20.5449927],[615238.2826047,9762513.2530785,20.5449927]]]}},
{"type":"Feature","properties":{"Layer":"AGUA POTABLE"},"geometry":{"type":"MultiLineString","coordinates":[[[615139.335361,9762738.1736865,20.5449927],[615168.5691762,9762729.2360123,20.5449927],[615164.4315947,9762715.7025931,20.5449927],[615178.9258945,9762688.9925381,20.5449927],[615175.3164418,9762677.1865505,20.5449927],[615150.7244944,9762684.7050633,20.5449927],[615139.998898,9762704.8769762,20.5449927],[615129.3727288,9762708.5607786,20.5449927]]]}},
{"type":"Feature","properties":{"Layer":"AGUA POTABLE"},"geometry":{"type":"MultiLineString","coordinates":[[[614810.3108405,9762621.2305023,0.0],[614823.1699,9762617.3135,0.0]]]}},
{"type":"Feature","properties":{"Layer":"AGUA POTABLE"},"geometry":{"type":"MultiLineString","coordinates":[[[614889.8471,9762628.7970255,-58.8645501],[614918.0415111,9762620.0524605,-58.8645501]]]}},
{"type":"Feature","properties":{"Layer":"AGUA POTABLE"},"geometry":{"type":"MultiLineString","coordinates":[[[615173.9696237,9762882.1370061,-39.0],[615169.8898902,9762887.7984057,-39.0]]]}},
{"type":"Feature","properties":{"Layer":"AGUA POTABLE"},"geometry":{"type":"MultiLineString","coordinates":[[[615045.060686,9762982.2920624,-39.0],[615087.9077317,9763114.7659968,-39.0]]]}},
{"type":"Feature","properties":{"Layer":"AGUA POTABLE"},"geometry":{"type":"MultiLineString","coordinates":[[[615063.3161,9763036.7397,111.3745812],[615061.4600613,9763037.3476866,111.3745812]]]}},
{"type":"Feature","properties":{"Layer":"AGUA POTABLE"},"geometry":{"type":"MultiLineString","coordinates":[[[614921.5816459,9763041.8028415,0.0],[614920.1611678,9763080.3974112,0.0],[614919.6748878,9763092.8691747,0.0],[614918.0473274,9763101.0932097,0.0],[614913.6174057,9763197.5386211,0.0]]]}},
{"type":"Feature","properties":{"Layer":"AGUA POTABLE"},"geometry":{"type":"MultiLineString","coordinates":[[[615006.0272826,9762876.3673077,20.5449927],[615062.6618298,9762860.1563712,20.5449927],[615056.2571988,9762832.3927166,20.5449927],[615113.8825,9762814.2796,20.5449927]]]}},
{"type":"Feature","properties":{"Layer":"AGUA POTABLE"},"geometry":{"type":"MultiLineString","coordinates":[[[615968.888752,9762218.2548369,0.0],[615968.3430939,9762241.0020889,0.0]]]}},
{"type":"Feature","properties":{"Layer":"AGUA POTABLE"},"geometry":{"type":"MultiLineString","coordinates":[[[615933.1523325,9762526.8430514,0.0],[615924.4111827,9762544.3456543,0.0]]]}},
{"type":"Feature","properties":{"Layer":"AGUA POTABLE"},"geometry":{"type":"MultiLineString","coordinates":[[[617563.7092098,9762533.1842943,-35.3129997],[617319.8515322,9762750.3913643,-35.3129997]]]}},
{"type":"Feature","properties":{"Layer":"AGUA POTABLE"},"geometry":{"type":"MultiLineString","coordinates":[[[615935.5025066,9762209.7110244,-39.0],[615935.3811,9762299.9917,-39.0]]]}},
{"type":"Feature","properties":{"Layer":"AGUA POTABLE"},"geometry":{"type":"MultiLineString","coordinates":[[[615839.5171507,9762433.1616678,0.0],[615775.6395283,9762428.7924493,0.0]]]}},
{"type":"Feature","properties":{"Layer":"AGUA POTABLE"},"geometry":{"type":"MultiLineString","coordinates":[[[616078.7964218,9762124.124681,-39.0],[616078.7964218,9762135.1539666,-39.0],[616037.3143588,9762135.1539666,-39.0],[615968.888752,9762218.2548369,-39.0]]]}},
{"type":"Feature","properties":{"Layer":"AGUA POTABLE"},"geometry":{"type":"MultiLineString","coordinates":[[[616262.8535803,9762062.2804629,-39.0],[616078.7964218,9762062.2804629,-39.0],[616078.7964218,9762115.2636976,-39.0],[615956.8790622,9762115.2636976,-39.0],[615956.8970781,9762215.8367,-39.0]]]}},
{"type":"Feature","properties":{"Layer":"AGUA POTABLE"},"geometry":{"type":"MultiLineString","coordinates":[[[615935.1639329,9762228.4903536,0.0],[615928.3919447,9762228.4903536,0.0]]]}},
{"type":"Feature","properties":{"Layer":"AGUA POTABLE"},"geometry":{"type":"MultiLineString","coordinates":[[[615935.0919447,9762218.4488,-39.0],[615913.9171727,9762218.4488,-39.0],[615914.0323281,9762186.801937,-39.0],[615926.0574334,9762186.801937,-39.0],[615925.942278,9762190.0212398,-39.0]]]}},
{"type":"Feature","properties":{"Layer":"AGUA POTABLE"},"geometry":{"type":"MultiLineString","coordinates":[[[616078.842409,9762083.1449381,0.0],[616051.8745179,9762083.1449381,0.0]]]}},
{"type":"Feature","properties":{"Layer":"AGUA POTABLE"},"geometry":{"type":"MultiLineString","coordinates":[[[616160.3412324,9762124.48307,-39.0],[616160.4123171,9762162.6166078,-39.0]]]}},
{"type":"Feature","properties":{"Layer":"AGUA POTABLE"},"geometry":{"type":"MultiLineString","coordinates":[[[616291.7253191,9762072.3740337,-39.0],[616376.8863142,9762072.3740337,-39.0],[616396.8750588,9762093.064805,-39.0]]]}},
{"type":"Feature","properties":{"Layer":"AGUA POTABLE"},"geometry":{"type":"MultiLineString","coordinates":[[[616368.5450941,9762071.9768494,0.0],[616368.5450941,9762078.5193699,0.0]]]}},
{"type":"Feature","properties":{"Layer":"AGUA POTABLE"},"geometry":{"type":"MultiLineString","coordinates":[[[616291.7253191,9762072.1007462,0.0],[616291.7253191,9762075.5220931,0.0]]]}},
{"type":"Feature","properties":{"Layer":"AGUA POTABLE"},"geometry":{"type":"MultiLineString","coordinates":[[[615654.4717485,9762260.6544753,-18.4550073],[615644.6645596,9762257.1931145,-18.4550073],[615617.5541031,9762248.4411061,-18.4550073],[615590.9655099,9762238.9153069,-18.4550073],[615562.7601825,9762230.2972231,-18.4550073],[615538.2627484,9762227.093199,-18.4550073],[615512.4332998,9762226.1161986,-18.4550073],[615499.1670486,9762226.5379035,-18.4550073],[615483.2943402,9762227.6663881,-18.4550073],[615435.3259235,9762241.8521914,-18.4550073],[615403.3658677,9762256.8028919,-18.4550073],[615367.5383325,9762280.395294,-18.4550073],[615359.5171287,9762286.0256615,-18.4550073],[615232.1689468,9762378.0453352,-18.4550073],[615215.0747833,9762390.0707792,-18.4550073],[615111.6023285,9762462.5980958,-18.4550073],[615064.9389294,9762495.3172,-18.4550073],[615054.177,9762500.0,-18.4550073],[615041.2884738,9762505.803,-18.4550073],[615036.2478,9762507.9496,-18.4550073],[615024.5074601,9762510.6649447,-18.4550073],[615001.1842661,9762517.2296384,-18.4550073],[614985.9916112,9762521.4852121,-18.4550073],[614965.4580517,9762523.5714736,-18.4550073],[614943.1185,9762526.2589,-18.4550073],[614914.7623038,9762525.2817685,-18.4550073],[614900.255965,9762524.2243428,-18.4550073],[614886.7834496,9762522.6190459,-18.4550073],[614864.6110294,9762519.3420584,-18.4550073]]]}},
{"type":"Feature","properties":{"Layer":"AGUA POTABLE"},"geometry":{"type":"MultiLineString","coordinates":[[[615320.8165502,9762666.8155748,0.0],[615316.874363,9762668.0598465,0.0]]]}},
{"type":"Feature","properties":{"Layer":"AGUA POTABLE"},"geometry":{"type":"MultiLineString","coordinates":[[[615837.2963208,9762509.4354519,0.0],[615929.8602465,9762523.549341,0.0]]]}},
{"type":"Feature","properties":{"Layer":"AGUA POTABLE"},"geometry":{"type":"MultiLineString","coordinates":[[[615617.5541031,9762248.4411061,-39.0],[615617.5803456,9762207.1306777,-39.0]]]}},
{"type":"Feature","properties":{"Layer":"AGUA POTABLE"},"geometry":{"type":"MultiLineString","coordinates":[[[615617.606644,9762207.6409505,-39.0],[615622.5099032,9762105.6683569,-39.0]]]}},
{"type":"Feature","properties":{"Layer":"AGUA POTABLE"},"geometry":{"type":"MultiLineString","coordinates":[[[615813.9786248,9762029.7597277,-39.0],[615702.3492503,9762004.9599298,-39.0]]]}},
{"type":"Feature","properties":{"Layer":"AGUA POTABLE"},"geometry":{"type":"MultiLineString","coordinates":[[[615708.6746471,9761966.0886896,0.0],[615698.4728443,9762029.4122177,0.0]]]}},
{"type":"Feature","properties":{"Layer":"AGUA POTABLE"},"geometry":{"type":"MultiLineString","coordinates":[[[615866.0828996,9761961.4498005,0.0],[615809.3166344,9761979.5158198,0.0]]]}},
{"type":"Feature","properties":{"Layer":"AGUA POTABLE"},"geometry":{"type":"MultiLineString","coordinates":[[[615708.6370669,9761966.2746826,-39.0],[615709.5506,9761838.6444,-39.0]]]}},
{"type":"Feature","properties":{"Layer":"AGUA POTABLE"},"geometry":{"type":"MultiLineString","coordinates":[[[615709.2115225,9761839.2872278,0.0],[615714.2119354,9761839.1713,0.0]]]}},
{"type":"Feature","properties":{"Layer":"AGUA POTABLE"},"geometry":{"type":"MultiLineString","coordinates":[[[616102.6337,9762062.8572,0.0],[616102.4597898,9762049.7293994,0.0]]]}},
{"type":"Feature","properties":{"Layer":"AGUA POTABLE"},"geometry":{"type":"MultiLineString","coordinates":[[[616086.1314563,9762099.8375138,0.0],[616078.7173582,9762099.8792207,0.0]]]}},
{"type":"Feature","properties":{"Layer":"AGUA POTABLE"},"geometry":{"type":"MultiLineString","coordinates":[[[616185.8782353,9762098.8865861,0.0],[616173.5452085,9762098.8016575,0.0]]]}},
{"type":"Feature","properties":{"Layer":"AGUA POTABLE"},"geometry":{"type":"MultiLineString","coordinates":[[[616217.3730881,9762141.4450442,0.0],[616217.3827565,9762153.7645285,0.0]]]}},
{"type":"Feature","properties":{"Layer":"AGUA POTABLE"},"geometry":{"type":"MultiLineString","coordinates":[[[616263.1685027,9762126.1635773,0.0],[616263.180439,9762141.3728755,0.0]]]}},
{"type":"Feature","properties":{"Layer":"AGUA POTABLE"},"geometry":{"type":"MultiLineString","coordinates":[[[616268.8753803,9762138.3771209,0.0],[616263.1780298,9762138.3030474,0.0]]]}},
{"type":"Feature","properties":{"Layer":"AGUA POTABLE"},"geometry":{"type":"MultiLineString","coordinates":[[[616266.8367336,9762126.2049487,0.0],[616262.7522327,9762126.1588825,0.0]]]}},
{"type":"Feature","properties":{"Layer":"AGUA POTABLE"},"geometry":{"type":"MultiLineString","coordinates":[[[616271.8342155,9762153.1591843,0.0],[616267.5639042,9762153.0976157,0.0]]]}},
{"type":"Feature","properties":{"Layer":"AGUA POTABLE"},"geometry":{"type":"MultiLineString","coordinates":[[[616266.9047529,9762148.1005085,0.0],[616261.3594426,9762148.0284118,0.0]]]}},
{"type":"Feature","properties":{"Layer":"AGUA POTABLE"},"geometry":{"type":"MultiLineString","coordinates":[[[616261.3608833,9762147.9176024,0.0],[616261.2396187,9762157.2446478,0.0]]]}},
{"type":"Feature","properties":{"Layer":"AGUA POTABLE"},"geometry":{"type":"MultiLineString","coordinates":[[[616261.2396187,9762157.2446478,0.0],[616259.1642705,9762157.2176654,0.0]]]}},
{"type":"Feature","properties":{"Layer":"AGUA POTABLE"},"geometry":{"type":"MultiLineString","coordinates":[[[616266.0738938,9762154.7542,0.0],[616266.0738938,9762170.2964164,0.0],[616375.0351756,9762170.1719427,0.0]]]}},
{"type":"Feature","properties":{"Layer":"AGUA POTABLE"},"geometry":{"type":"MultiLineString","coordinates":[[[616321.3721841,9762170.2964164,0.0],[616321.3721841,9762165.8137346,0.0]]]}},
{"type":"Feature","properties":{"Layer":"AGUA POTABLE"},"geometry":{"type":"MultiLineString","coordinates":[[[616366.6705385,9762171.5698243,0.0],[616409.4128028,9762150.6309323,0.0]]]}},
{"type":"Feature","properties":{"Layer":"AGUA POTABLE"},"geometry":{"type":"MultiLineString","coordinates":[[[616267.2916527,9762149.4548106,0.0],[616263.799933,9762149.4548106,0.0]]]}},
{"type":"Feature","properties":{"Layer":"AGUA POTABLE"},"geometry":{"type":"MultiLineString","coordinates":[[[616263.799933,9762149.4548106,0.0],[616255.5431611,9762192.7249946,0.0],[616253.7787011,9762192.8141131,0.0]]]}},
{"type":"Feature","properties":{"Layer":"AGUA POTABLE"},"geometry":{"type":"MultiLineString","coordinates":[[[616267.2938209,9762150.0786935,0.0],[616264.3027584,9762149.9548149,0.0]]]}},
{"type":"Feature","properties":{"Layer":"AGUA POTABLE"},"geometry":{"type":"MultiLineString","coordinates":[[[616264.3500935,9762149.9567753,0.0],[616260.3790998,9762214.0712691,0.0]]]}},
{"type":"Feature","properties":{"Layer":"AGUA POTABLE"},"geometry":{"type":"MultiLineString","coordinates":[[[616409.4128028,9762150.6309323,0.0],[616423.9507373,9762121.5538011,0.0],[616446.9378396,9762133.2126196,0.0],[616492.331346,9762121.3024136,0.0]]]}},
{"type":"Feature","properties":{"Layer":"AGUA POTABLE"},"geometry":{"type":"MultiLineString","coordinates":[[[616266.9668406,9762150.4351253,0.0],[616267.2571693,9762154.618845,0.0],[616267.2526077,9762179.6790501,0.0],[616296.1600603,9762179.6790501,0.0]]]}},
{"type":"Feature","properties":{"Layer":"AGUA POTABLE"},"geometry":{"type":"MultiLineString","coordinates":[[[616292.1371135,9762075.9318957,0.0],[616276.5650559,9762075.7562695,0.0]]]}},
{"type":"Feature","properties":{"Layer":"AGUA POTABLE"},"geometry":{"type":"MultiLineString","coordinates":[[[616291.3529556,9762069.9278039,0.0],[616285.5972258,9762075.7110491,0.0]]]}},
{"type":"Feature","properties":{"Layer":"AGUA POTABLE"},"geometry":{"type":"MultiLineString","coordinates":[[[615622.4591039,9762105.6686427,0.0],[615622.4653202,9762100.3922585,0.0]]]}},
{"type":"Feature","properties":{"Layer":"AGUA POTABLE"},"geometry":{"type":"MultiLineString","coordinates":[[[615627.4591546,9762103.163126,0.0],[615622.4863,9762103.1911,0.0]]]}},
{"type":"Feature","properties":{"Layer":"AGUA POTABLE"},"geometry":{"type":"MultiLineString","coordinates":[[[615550.2395037,9761953.5404513,0.0],[615550.3095398,9762026.2664794,0.0]]]}},
{"type":"Feature","properties":{"Layer":"AGUA POTABLE"},"geometry":{"type":"MultiLineString","coordinates":[[[615550.1398576,9762107.1629754,-39.0],[615627.4409,9762108.7662817,-39.0]]]}},
{"type":"Feature","properties":{"Layer":"AGUA POTABLE"},"geometry":{"type":"MultiLineString","coordinates":[[[616752.4368,9762524.1956,-131.7152957],[616748.3282756,9762439.9019675,-131.7152957]]]}},
{"type":"Feature","properties":{"Layer":"AGUA POTABLE"},"geometry":{"type":"MultiLineString","coordinates":[[[616862.4057399,9762712.7812006,-131.7152957],[616752.4368,9762524.1956,-131.7152957]]]}},
{"type":"Feature","properties":{"Layer":"AGUA POTABLE"},"geometry":{"type":"MultiLineString","coordinates":[[[616662.1148572,9762389.8330632,-35.3129997],[616656.5751904,9762417.8650195,-35.3129997]]]}},
{"type":"Feature","properties":{"Layer":"AGUA POTABLE"},"geometry":{"type":"MultiLineString","coordinates":[[[616662.0928601,9762389.8432084,-35.3129997],[616723.4477865,9762360.4199189,-35.3129997]]]}},
{"type":"Feature","properties":{"Layer":"AGUA POTABLE"},"geometry":{"type":"MultiLineString","coordinates":[[[616692.5343349,9762375.7739209,-35.3129997],[616698.7228499,9762389.1583521,-35.3129997]]]}},
{"type":"Feature","properties":{"Layer":"AGUA POTABLE"},"geometry":{"type":"MultiLineString","coordinates":[[[615550.728055,9762033.9855758,0.0],[615550.1398576,9762107.1629754,0.0]]]}},
{"type":"Feature","properties":{"Layer":"AGUA POTABLE"},"geometry":{"type":"MultiLineString","coordinates":[[[615606.8467693,9762073.8855789,0.0],[615627.4409,9762098.1635,0.0]]]}},
{"type":"Feature","properties":{"Layer":"AGUA POTABLE"},"geometry":{"type":"MultiLineString","coordinates":[[[615558.4883,9762016.4033,-39.0],[615622.4653202,9762100.3922585,-39.0]]]}},
{"type":"Feature","properties":{"Layer":"AGUA POTABLE"},"geometry":{"type":"MultiLineString","coordinates":[[[615329.6423321,9762695.3488783,0.0],[615325.8043,9762696.5412,0.0]]]}},
{"type":"Feature","properties":{"Layer":"AGUA POTABLE"},"geometry":{"type":"MultiLineString","coordinates":[[[616264.9457871,9762171.6248052,0.0],[616366.6705385,9762171.5698243,0.0]]]}},
{"type":"Feature","properties":{"Layer":"AGUA POTABLE"},"geometry":{"type":"MultiLineString","coordinates":[[[616266.9668406,9762150.4351253,0.0],[616264.9510892,9762150.4427293,0.0]]]}},
{"type":"Feature","properties":{"Layer":"AGUA POTABLE"},"geometry":{"type":"MultiLineString","coordinates":[[[615238.2826047,9762513.2530785,20.5449927],[615243.3341244,9762532.8548892,20.5449927]]]}},
{"type":"Feature","properties":{"Layer":"AGUA POTABLE"},"geometry":{"type":"MultiLineString","coordinates":[[[615093.5895291,9762767.898281,-58.8645501],[615143.8293292,9762752.5093434,-58.8645501]]]}},
{"type":"Feature","properties":{"Layer":"AGUA POTABLE"},"geometry":{"type":"MultiLineString","coordinates":[[[614973.3132841,9762799.4640869,20.5449927],[615093.5895291,9762767.898281,20.5449927]]]}},
{"type":"Feature","properties":{"Layer":"AGUA POTABLE"},"geometry":{"type":"MultiLineString","coordinates":[[[615806.5576785,9762519.1356341,0.0],[615924.4111827,9762544.3456543,0.0]]]}},
{"type":"Feature","properties":{"Layer":"AGUA POTABLE"},"geometry":{"type":"MultiLineString","coordinates":[[[616270.7920896,9762154.628413,0.0],[616266.0738938,9762154.7542,0.0]]]}},
{"type":"Feature","properties":{"Layer":"AGUA POTABLE"},"geometry":{"type":"MultiLineString","coordinates":[[[615806.5576785,9762519.1356341,0.0],[615799.197113,9762536.0807219,0.0],[615786.0867336,9762557.801937,0.0],[615772.8367336,9762575.801937,0.0],[615653.5867336,9762672.801937,0.0],[615635.8992336,9762695.801937,0.0],[615625.2853028,9762751.8304592,0.0],[615635.6520337,9762799.9729589,0.0],[615636.3716608,9762815.801937,0.0],[615633.5067336,9762836.526937,0.0],[615629.4925008,9762848.9800454,0.0],[615624.0941527,9762859.3418565,0.0],[615622.2954287,9762862.4021789,0.0],[615619.038574,9762866.7249791,0.0],[615601.6367631,9762890.0191202,0.0],[615558.1986134,9762949.4652177,0.0],[615532.1287024,9762983.1305744,0.0]]]}},
{"type":"Feature","properties":{"Layer":"AGUA POTABLE"},"geometry":{"type":"MultiLineString","coordinates":[[[616004.7864532,9762133.9670696,0.0],[616009.4509706,9762133.9271437,0.0]]]}},
{"type":"Feature","properties":{"Layer":"AGUA POTABLE"},"geometry":{"type":"MultiLineString","coordinates":[[[616004.7859155,9762133.7898532,0.0],[616004.7299675,9762115.3483631,0.0]]]}},
{"type":"Feature","properties":{"Layer":"AGUA POTABLE"},"geometry":{"type":"MultiLineString","coordinates":[[[615135.6078754,9762538.9101221,46.5183557],[615126.8030828,9762534.7058358,46.5183557]]]}},
{"type":"Feature","properties":{"Layer":"AGUA POTABLE"},"geometry":{"type":"MultiLineString","coordinates":[[[615024.5061904,9762552.676263,46.5183557],[615027.3923356,9762551.7522097,46.5183557]]]}},
{"type":"Feature","properties":{"Layer":"AGUA POTABLE"},"geometry":{"type":"MultiLineString","coordinates":[[[615035.5333652,9762586.3195318,0.0],[615057.456146,9762579.3005445,0.0]]]}},
{"type":"Feature","properties":{"Layer":"AGUA POTABLE"},"geometry":{"type":"MultiLineString","coordinates":[[[614986.8631257,9762850.0954404,0.0],[614993.8499131,9762847.9353846,0.0]]]}},
{"type":"Feature","properties":{"Layer":"AGUA POTABLE"},"geometry":{"type":"MultiLineString","coordinates":[[[614929.9982513,9762739.9505258,-122.4576815],[614926.5037507,9762741.0972873,-122.4576815]]]}},
{"type":"Feature","properties":{"Layer":"AGUA POTABLE"},"geometry":{"type":"MultiLineString","coordinates":[[[616181.9722834,9762134.7467707,0.0],[616173.5361299,9762134.688677,0.0]]]}},
{"type":"Feature","properties":{"Layer":"AGUA POTABLE"},"geometry":{"type":"MultiLineString","coordinates":[[[615532.1287024,9762983.1305744,0.0],[615500.0,9762988.2220665,0.0]]]}},
{"type":"Feature","properties":{"Layer":"AGUA POTABLE"},"geometry":{"type":"MultiLineString","coordinates":[[[615507.5720866,9763014.3419134,0.0],[615501.5913108,9763015.569291,0.0],[615496.1884794,9762989.2423293,0.0],[615500.0,9762988.1985287,0.0]]]}},
{"type":"Feature","properties":{"Layer":"AGUA POTABLE"},"geometry":{"type":"MultiLineString","coordinates":[[[615535.6857502,9762978.5371838,0.0],[615506.076947,9762984.8027957,0.0],[615459.5895001,9762991.8489315,0.0]]]}},
{"type":"Feature","properties":{"Layer":"AGUA POTABLE"},"geometry":{"type":"MultiLineString","coordinates":[[[615459.0879602,9762992.2833594,0.0],[615385.7885943,9762933.9107001,0.0],[615377.4409019,9762942.8088051,0.0],[615379.5691305,9762944.4493126,0.0]]]}},
{"type":"Feature","properties":{"Layer":"AGUA POTABLE"},"geometry":{"type":"MultiLineString","coordinates":[[[615459.8203645,9762987.7764403,0.0],[615457.5196488,9762990.7069656,0.0]]]}},
{"type":"Feature","properties":{"Layer":"AGUA POTABLE"},"geometry":{"type":"MultiLineString","coordinates":[[[615459.9767838,9762991.3588066,0.0],[615454.018714,9762998.8990123,0.0]]]}},
{"type":"Feature","properties":{"Layer":"AGUA POTABLE"},"geometry":{"type":"MultiLineString","coordinates":[[[614884.0676369,9762738.4473711,-122.4576815],[614882.1196025,9762737.1758378,-122.4576815]]]}},
{"type":"Feature","properties":{"Layer":"AGUA POTABLE"},"geometry":{"type":"MultiLineString","coordinates":[[[615009.6964,9762543.604,0.0],[615020.469233,9762539.9606745,0.0]]]}},
{"type":"Feature","properties":{"Layer":"AGUA POTABLE"},"geometry":{"type":"MultiLineString","coordinates":[[[615084.2701254,9762741.1375718,20.5449927],[615056.0188633,9762750.061497,20.5449927]]]}},
{"type":"Feature","properties":{"Layer":"AGUA POTABLE"},"geometry":{"type":"MultiLineString","coordinates":[[[614967.1083934,9763060.5065304,20.5449927],[615070.8437205,9763025.4058379,20.5449927]]]}},
{"type":"Feature","properties":{"Layer":"AGUA POTABLE"},"geometry":{"type":"MultiLineString","coordinates":[[[617520.6143858,9762956.0661171,-35.2129997],[617463.5991083,9762908.7950163,-35.2129997]]]}},
{"type":"Feature","properties":{"Layer":"AGUA POTABLE"},"geometry":{"type":"MultiLineString","coordinates":[[[617458.9042968,9762904.9015296,-35.2129997],[617446.6817649,9762894.7525419,-35.2129997]]]}},
{"type":"Feature","properties":{"Layer":"AGUA POTABLE"},"geometry":{"type":"MultiLineString","coordinates":[[[616939.2001193,9762700.5521461,-130.918],[616946.0981729,9762692.2180328,-130.918]]]}},
{"type":"Feature","properties":{"Layer":"AGUA POTABLE"},"geometry":{"type":"MultiLineString","coordinates":[[[616264.9510892,9762150.4427293,-39.0],[616264.8444734,9762175.4361885,-39.0],[616317.0519958,9762175.1394,-39.0]]]}},
{"type":"Feature","properties":{"Layer":"AGUA POTABLE"},"geometry":{"type":"MultiLineString","coordinates":[[[614829.8605326,9762678.456303,-39.0],[614821.6304643,9762680.9515735,-39.0]]]}},
{"type":"Feature","properties":{"Layer":"AGUA POTABLE"},"geometry":{"type":"MultiLineString","coordinates":[[[615526.6772551,9762983.902745,0.0],[615527.5266996,9762989.7497901,0.0]]]}},
{"type":"Feature","properties":{"Layer":"AGUA POTABLE"},"geometry":{"type":"MultiLineString","coordinates":[[[616854.0117899,9762355.177149,0.045271],[616846.2916473,9762352.5363634,0.045271]]]}},
{"type":"Feature","properties":{"Layer":"AGUA POTABLE"},"geometry":{"type":"MultiLineString","coordinates":[[[616850.213839,9762328.2274211,-130.9174838],[616853.549378,9762342.7764502,-130.9174838]]]}},
{"type":"Feature","properties":{"Layer":"AGUA POTABLE"},"geometry":{"type":"MultiLineString","coordinates":[[[616855.2904666,9762351.6244876,0.0611141],[616854.4260255,9762354.1575898,0.0611141]]]}},
{"type":"Feature","properties":{"Layer":"AGUA POTABLE"},"geometry":{"type":"MultiLineString","coordinates":[[[615710.6651787,9762626.3733486,0.0],[615715.3730562,9762631.1560394,0.0]]]}},
{"type":"Feature","properties":{"Layer":"AGUA POTABLE"},"geometry":{"type":"MultiLineString","coordinates":[[[615884.3812,9762236.9472021,0.0],[615866.5509,9762237.0316,0.0]]]}},
{"type":"Feature","properties":{"Layer":"AGUA POTABLE"},"geometry":{"type":"MultiLineString","coordinates":[[[615880.2379,9762236.9472021,0.0],[615880.2379,9762246.9788,0.0]]]}},
{"type":"Feature","properties":{"Layer":"AGUA POTABLE"},"geometry":{"type":"MultiLineString","coordinates":[[[615880.2379,9762246.9788,0.0],[615898.008,9762246.9788,0.0]]]}},
{"type":"Feature","properties":{"Layer":"AGUA POTABLE"},"geometry":{"type":"MultiLineString","coordinates":[[[615898.008,9762244.3986,0.0],[615898.008,9762246.9788,0.0]]]}},
{"type":"Feature","properties":{"Layer":"AGUA POTABLE"},"geometry":{"type":"MultiLineString","coordinates":[[[615935.0919447,9762243.6787251,-39.0],[615928.1137,9762236.8928332,-39.0]]]}},
{"type":"Feature","properties":{"Layer":"AGUA POTABLE"},"geometry":{"type":"MultiLineString","coordinates":[[[615922.5256,9762183.5565724,-36.0746718],[615922.5256,9762186.1367724,-36.0746718]]]}},
{"type":"Feature","properties":{"Layer":"AGUA POTABLE"},"geometry":{"type":"MultiLineString","coordinates":[[[615935.4264158,9762202.301937,-0.2127179],[615935.4264158,9762207.5009012,-0.2127179]]]}},
{"type":"Feature","properties":{"Layer":"AGUA POTABLE"},"geometry":{"type":"MultiLineString","coordinates":[[[615809.3166344,9761979.5158198,0.0],[615814.9785,9762029.284,0.0]]]}},
{"type":"Feature","properties":{"Layer":"AGUA POTABLE"},"geometry":{"type":"MultiLineString","coordinates":[[[616499.8804,9762119.6524136,0.0],[616499.9629722,9762113.6201866,0.0]]]}},
{"type":"Feature","properties":{"Layer":"AGUA POTABLE"},"geometry":{"type":"MultiLineString","coordinates":[[[616500.0126336,9762111.3529,0.0],[616500.0126336,9762103.1150234,0.0]]]}},
{"type":"Feature","properties":{"Layer":"AGUA POTABLE"},"geometry":{"type":"MultiLineString","coordinates":[[[616500.0126336,9762103.1150234,0.0],[616495.5299519,9762103.1150234,0.0]]]}},
{"type":"Feature","properties":{"Layer":"AGUA POTABLE"},"geometry":{"type":"MultiLineString","coordinates":[[[616518.650554,9762100.4260887,0.0],[616495.5684519,9762100.3577,0.0]]]}},
{"type":"Feature","properties":{"Layer":"AGUA POTABLE"},"geometry":{"type":"MultiLineString","coordinates":[[[616495.5299519,9762103.1150234,0.0],[616495.5684519,9762100.3577,0.0]]]}},
{"type":"Feature","properties":{"Layer":"AGUA POTABLE"},"geometry":{"type":"MultiLineString","coordinates":[[[616080.9407,9761901.6133,0.0],[616024.7288,9761877.5915,0.0]]]}},
{"type":"Feature","properties":{"Layer":"AGUA POTABLE"},"geometry":{"type":"MultiLineString","coordinates":[[[616098.5613,9761959.4403,0.0],[616080.9407,9761901.6133,0.0]]]}},
{"type":"Feature","properties":{"Layer":"AGUA POTABLE"},"geometry":{"type":"MultiLineString","coordinates":[[[615719.2997,9761837.9243,0.0],[615728.1754684,9761837.5503387,0.0]]]}},
{"type":"Feature","properties":{"Layer":"AGUA POTABLE"},"geometry":{"type":"MultiLineString","coordinates":[[[615715.8909414,9761846.1008167,0.0],[615715.8536838,9761850.0214776,0.0]]]}},
{"type":"Feature","properties":{"Layer":"AGUA POTABLE"},"geometry":{"type":"MultiLineString","coordinates":[[[615411.9102563,9762635.1715151,-39.0],[615406.2398242,9762637.8929755,-39.0]]]}},
{"type":"Feature","properties":{"Layer":"AGUA POTABLE"},"geometry":{"type":"MultiLineString","coordinates":[[[614684.2995673,9762525.585362,0.0],[614690.5064772,9762513.5874341,0.0]]]}},
{"type":"Feature","properties":{"Layer":"AGUA POTABLE"},"geometry":{"type":"MultiLineString","coordinates":[[[614694.1773015,9762514.8974538,0.0],[614692.4629806,9762514.236051,0.0]]]}},
{"type":"Feature","properties":{"Layer":"AGUA POTABLE"},"geometry":{"type":"MultiLineString","coordinates":[[[614685.9544107,9762525.8015805,-39.0],[614684.6302339,9762525.0811245,-39.0]]]}},
{"type":"Feature","properties":{"Layer":"AGUA POTABLE"},"geometry":{"type":"MultiLineString","coordinates":[[[615119.0772802,9762433.4744359,-39.0],[615130.6028,9762449.6577,-39.0]]]}},
{"type":"Feature","properties":{"Layer":"AGUA POTABLE"},"geometry":{"type":"MultiLineString","coordinates":[[[615119.8748667,9762424.8925534,-39.0],[615129.3447716,9762439.1481248,-39.0]]]}},
{"type":"Feature","properties":{"Layer":"AGUA POTABLE"},"geometry":{"type":"MultiLineString","coordinates":[[[615129.615658,9762438.9513143,-39.0],[615125.2268902,9762442.1399408,-39.0]]]}},
{"type":"Feature","properties":{"Layer":"AGUA POTABLE"},"geometry":{"type":"MultiLineString","coordinates":[[[614840.4824679,9762558.005421,-39.0],[614798.9012727,9762557.9570449,-39.0]]]}},
{"type":"Feature","properties":{"Layer":"AGUA POTABLE"},"geometry":{"type":"MultiLineString","coordinates":[[[615321.0986036,9762674.5553836,-148.2109206],[615265.931,9762691.8324,-148.2109206]]]}},
{"type":"Feature","properties":{"Layer":"AGUA POTABLE"},"geometry":{"type":"MultiLineString","coordinates":[[[615103.3092063,9762794.8817751,-39.0],[615102.6637006,9762795.079126,-39.0]]]}},
{"type":"Feature","properties":{"Layer":"AGUA POTABLE"},"geometry":{"type":"MultiLineString","coordinates":[[[615127.6660406,9762796.5933392,20.5449927],[615104.810007,9762803.58113,20.5449927]]]}},
{"type":"Feature","properties":{"Layer":"AGUA POTABLE"},"geometry":{"type":"MultiLineString","coordinates":[[[615127.5449138,9762796.6303714,143.7780855],[615126.7358326,9762793.9586129,143.7780855]]]}},
{"type":"Feature","properties":{"Layer":"AGUA POTABLE"},"geometry":{"type":"MultiLineString","coordinates":[[[615106.3348987,9762770.9269692,0.0],[615096.1734006,9762774.109,0.0]]]}},
{"type":"Feature","properties":{"Layer":"AGUA POTABLE"},"geometry":{"type":"MultiLineString","coordinates":[[[615113.8825,9762814.2796,-39.0],[615126.4281356,9762855.1063087,-39.0],[614942.4177886,9762910.3954129,-39.0]]]}},
{"type":"Feature","properties":{"Layer":"AGUA POTABLE"},"geometry":{"type":"MultiLineString","coordinates":[[[615083.3453702,9762802.428704,143.7780855],[615089.0153861,9762820.9744904,143.7780855]]]}},
{"type":"Feature","properties":{"Layer":"AGUA POTABLE"},"geometry":{"type":"MultiLineString","coordinates":[[[615084.3580078,9762800.8225421,143.7780855],[615089.0461,9762799.1961,143.7780855],[615089.7407206,9762801.2659122,143.7780855]]]}},
{"type":"Feature","properties":{"Layer":"AGUA POTABLE"},"geometry":{"type":"MultiLineString","coordinates":[[[614868.3621306,9762759.5151469,-122.4576815],[614888.9997416,9762821.3159171,-122.4576815],[614957.8564682,9762803.6862716,-122.4576815],[614945.2885979,9762764.1803996,-122.4576815],[614940.5905052,9762765.6167507,-122.4576815],[614897.1264768,9762648.9861293,-122.4576815]]]}},
{"type":"Feature","properties":{"Layer":"AGUA POTABLE"},"geometry":{"type":"MultiLineString","coordinates":[[[614868.3621306,9762759.5151469,-122.4576815],[614907.7474923,9762709.767539,-122.4576815]]]}},
{"type":"Feature","properties":{"Layer":"AGUA POTABLE"},"geometry":{"type":"MultiLineString","coordinates":[[[614957.8319568,9762803.6060984,-108.7252536],[614973.3132841,9762799.4640869,-108.7252536]]]}},
{"type":"Feature","properties":{"Layer":"AGUA POTABLE"},"geometry":{"type":"MultiLineString","coordinates":[[[614934.1779387,9762748.5319079,-161.4576815],[614937.0058671,9762747.6697803,-161.4576815],[614940.866,9762757.5436,-161.4576815],[614963.1506811,9762750.8234896,-161.4576815]]]}},
{"type":"Feature","properties":{"Layer":"AGUA POTABLE"},"geometry":{"type":"MultiLineString","coordinates":[[[614947.0933395,9762797.0489997,143.7780855],[614949.3503115,9762805.8641347,143.7780855]]]}},
{"type":"Feature","properties":{"Layer":"AGUA POTABLE"},"geometry":{"type":"MultiLineString","coordinates":[[[614885.0378293,9762809.4516935,-122.4576815],[614890.2762245,9762807.7361915,-122.4576815]]]}},
{"type":"Feature","properties":{"Layer":"AGUA POTABLE"},"geometry":{"type":"MultiLineString","coordinates":[[[614871.942746,9762826.6151155,143.7780855],[614888.9736431,9762821.3225992,143.7780855]]]}},
{"type":"Feature","properties":{"Layer":"AGUA POTABLE"},"geometry":{"type":"MultiLineString","coordinates":[[[614880.3184994,9762613.8969552,0.0],[614884.751869,9762612.5097598,0.0]]]}},
{"type":"Feature","properties":{"Layer":"AGUA POTABLE"},"geometry":{"type":"MultiLineString","coordinates":[[[614828.5032734,9762647.8224845,-39.0],[614831.5563186,9762646.8923292,-39.0]]]}},
{"type":"Feature","properties":{"Layer":"AGUA POTABLE"},"geometry":{"type":"MultiLineString","coordinates":[[[615172.0982061,9762537.6141053,41.0899853],[615171.5753866,9762536.1922288,41.0899853]]]}},
{"type":"Feature","properties":{"Layer":"AGUA POTABLE"},"geometry":{"type":"MultiLineString","coordinates":[[[614793.9385533,9762688.3717118,0.0],[614791.5418417,9762681.5876228,0.0],[614823.0150698,9762671.4616125,0.0]]]}},
{"type":"Feature","properties":{"Layer":"AGUA POTABLE"},"geometry":{"type":"MultiLineString","coordinates":[[[614821.661194,9762680.4489997,-39.0],[614821.2064442,9762678.9908601,-39.0]]]}},
{"type":"Feature","properties":{"Layer":"AGUA POTABLE"},"geometry":{"type":"MultiLineString","coordinates":[[[614829.6941539,9762677.9930774,-39.0],[614829.2394041,9762676.5349378,-39.0]]]}},
{"type":"Feature","properties":{"Layer":"AGUA POTABLE"},"geometry":{"type":"MultiLineString","coordinates":[[[614825.5595857,9762679.100288,-39.0],[614820.5664615,9762662.7977948,-39.0]]]}},
{"type":"Feature","properties":{"Layer":"AGUA POTABLE"},"geometry":{"type":"MultiLineString","coordinates":[[[614820.2957137,9762662.2249691,-39.0],[614830.6238051,9762659.0673547,-39.0]]]}},
{"type":"Feature","properties":{"Layer":"AGUA POTABLE"},"geometry":{"type":"MultiLineString","coordinates":[[[614831.3423964,9762659.5032609,104.7780855],[614828.1207989,9762648.96589,104.7780855]]]}},
{"type":"Feature","properties":{"Layer":"AGUA POTABLE"},"geometry":{"type":"MultiLineString","coordinates":[[[615139.6062584,9762868.4435143,-39.0],[615169.8898902,9762887.7984057,-39.0]]]}},
{"type":"Feature","properties":{"Layer":"AGUA POTABLE"},"geometry":{"type":"MultiLineString","coordinates":[[[615140.3830897,9762726.2303143,-39.0],[615136.4932465,9762727.6461849,-39.0]]]}},
{"type":"Feature","properties":{"Layer":"AGUA POTABLE"},"geometry":{"type":"MultiLineString","coordinates":[[[615148.7359118,9762721.8222123,20.5449927],[615152.3161,9762734.360972,20.5449927]]]}},
{"type":"Feature","properties":{"Layer":"AGUA POTABLE"},"geometry":{"type":"MultiLineString","coordinates":[[[615157.1986697,9762730.625665,-39.0],[615157.6693139,9762732.0579368,-39.0]]]}},
{"type":"Feature","properties":{"Layer":"AGUA POTABLE"},"geometry":{"type":"MultiLineString","coordinates":[[[615111.6568316,9762691.1246619,20.5449927],[615114.2787331,9762699.1063877,20.5449927]]]}},
{"type":"Feature","properties":{"Layer":"AGUA POTABLE"},"geometry":{"type":"MultiLineString","coordinates":[[[615105.063553,9762730.0810187,-39.0],[615083.089755,9762737.7283703,-39.0]]]}},
{"type":"Feature","properties":{"Layer":"AGUA POTABLE"},"geometry":{"type":"MultiLineString","coordinates":[[[614999.4587121,9762814.1662601,-67.8883289],[614981.9261716,9762819.779578,-67.8883289]]]}},
{"type":"Feature","properties":{"Layer":"AGUA POTABLE"},"geometry":{"type":"MultiLineString","coordinates":[[[615059.1695449,9762749.0337764,143.7780855],[615055.8517034,9762739.5582626,143.7780855]]]}},
{"type":"Feature","properties":{"Layer":"AGUA POTABLE"},"geometry":{"type":"MultiLineString","coordinates":[[[615036.8167983,9762782.7979563,264.1189776],[615034.5296502,9762774.0831593,264.1189776]]]}},
{"type":"Feature","properties":{"Layer":"AGUA POTABLE"},"geometry":{"type":"MultiLineString","coordinates":[[[615101.2771227,9762779.1656959,0.0],[615097.4848906,9762780.3532177,0.0]]]}},
{"type":"Feature","properties":{"Layer":"AGUA POTABLE"},"geometry":{"type":"MultiLineString","coordinates":[[[615126.3018563,9762818.5594255,143.7780855],[615116.1512737,9762821.66277,143.7780855]]]}},
{"type":"Feature","properties":{"Layer":"AGUA POTABLE"},"geometry":{"type":"MultiLineString","coordinates":[[[614922.0512,9762851.6528,143.7780855],[614925.101542,9762850.6998285,143.7780855]]]}},
{"type":"Feature","properties":{"Layer":"AGUA POTABLE"},"geometry":{"type":"MultiLineString","coordinates":[[[614944.352923,9762866.8070971,0.0],[614943.3999515,9762863.7567551,0.0]]]}},
{"type":"Feature","properties":{"Layer":"AGUA POTABLE"},"geometry":{"type":"MultiLineString","coordinates":[[[614929.3435023,9762871.4962599,0.0],[614944.4002948,9762866.7922975,0.0]]]}},
{"type":"Feature","properties":{"Layer":"AGUA POTABLE"},"geometry":{"type":"MultiLineString","coordinates":[[[614858.3433369,9762878.7388313,163.4924411],[614894.6443977,9762854.7210603,163.4924411]]]}},
{"type":"Feature","properties":{"Layer":"AGUA POTABLE"},"geometry":{"type":"MultiLineString","coordinates":[[[614894.4500815,9762854.1042602,-133.0005776],[614885.1322563,9762822.5163474,-133.0005776]]]}},
{"type":"Feature","properties":{"Layer":"AGUA POTABLE"},"geometry":{"type":"MultiLineString","coordinates":[[[616176.4113,9762067.565,0.0],[616172.9601469,9762067.5808133,0.0]]]}},
{"type":"Feature","properties":{"Layer":"AGUA POTABLE"},"geometry":{"type":"MultiLineString","coordinates":[[[616176.6551662,9762081.9101388,39.0],[616173.0119,9762081.9502,39.0]]]}},
{"type":"Feature","properties":{"Layer":"AGUA POTABLE"},"geometry":{"type":"MultiLineString","coordinates":[[[615128.4339989,9762705.225674,20.5449927],[615125.957885,9762706.0324512,20.5449927]]]}},
{"type":"Feature","properties":{"Layer":"AGUA POTABLE"},"geometry":{"type":"MultiLineString","coordinates":[[[616051.8528355,9762082.5456145,-39.0],[616051.8528355,9762102.8552472,-39.0]]]}},
{"type":"Feature","properties":{"Layer":"AGUA POTABLE"},"geometry":{"type":"MultiLineString","coordinates":[[[616051.8528355,9762102.8552472,-39.0],[616044.4387375,9762102.896954,-39.0]]]}},
{"type":"Feature","properties":{"Layer":"AGUA POTABLE"},"geometry":{"type":"MultiLineString","coordinates":[[[616004.7608383,9762145.6208629,0.0],[616004.72733,9762134.5759026,0.0]]]}},
{"type":"Feature","properties":{"Layer":"AGUA POTABLE"},"geometry":{"type":"MultiLineString","coordinates":[[[616005.3231019,9762145.6177,0.1989759],[615997.9090038,9762145.6594069,0.1989759]]]}},
{"type":"Feature","properties":{"Layer":"AGUA POTABLE"},"geometry":{"type":"MultiLineString","coordinates":[[[616005.3377295,9762130.3423188,0.1989759],[615997.9236315,9762130.3840257,0.1989759]]]}},
{"type":"Feature","properties":{"Layer":"AGUA POTABLE"},"geometry":{"type":"MultiLineString","coordinates":[[[615030.9148693,9762864.6210957,0.0],[615032.1380658,9762868.8934199,0.0]]]}},
{"type":"Feature","properties":{"Layer":"AGUA POTABLE"},"geometry":{"type":"MultiLineString","coordinates":[[[614974.4115715,9762953.176242,0.0],[614973.4586,9762950.1259,0.0]]]}},
{"type":"Feature","properties":{"Layer":"AGUA POTABLE"},"geometry":{"type":"MultiLineString","coordinates":[[[615002.9058277,9762943.8504531,-39.0],[615001.9528562,9762940.8001111,-39.0]]]}},
{"type":"Feature","properties":{"Layer":"AGUA POTABLE"},"geometry":{"type":"MultiLineString","coordinates":[[[614972.7048965,9762963.1237459,287.5561709],[614966.1500326,9762956.6601761,287.5561709]]]}},
{"type":"Feature","properties":{"Layer":"AGUA POTABLE"},"geometry":{"type":"MultiLineString","coordinates":[[[614965.9459815,9762956.5841012,-39.0],[614964.6844,9762956.971,-39.0]]]}},
{"type":"Feature","properties":{"Layer":"AGUA POTABLE"},"geometry":{"type":"MultiLineString","coordinates":[[[614966.2971715,9762955.781042,0.0],[614965.3442,9762952.7307,0.0]]]}},
{"type":"Feature","properties":{"Layer":"AGUA POTABLE"},"geometry":{"type":"MultiLineString","coordinates":[[[614975.7550345,9762963.3723101,575.1123418],[614974.493453,9762963.7592089,575.1123418]]]}},
{"type":"Feature","properties":{"Layer":"AGUA POTABLE"},"geometry":{"type":"MultiLineString","coordinates":[[[614976.4659,9762963.7829,0.0],[614975.5129285,9762960.732558,0.0]]]}},
{"type":"Feature","properties":{"Layer":"AGUA POTABLE"},"geometry":{"type":"MultiLineString","coordinates":[[[614915.9395654,9763146.9820511,143.7780855],[614907.3752934,9763146.7596304,143.7780855]]]}},
{"type":"Feature","properties":{"Layer":"AGUA POTABLE"},"geometry":{"type":"MultiLineString","coordinates":[[[614920.108899,9763081.7379621,0.0],[614909.6794,9763081.4671,0.0]]]}},
{"type":"Feature","properties":{"Layer":"AGUA POTABLE"},"geometry":{"type":"MultiLineString","coordinates":[[[615040.1439423,9762879.4314565,23.522777],[615040.6584338,9762880.8773051,23.522777]]]}},
{"type":"Feature","properties":{"Layer":"AGUA POTABLE"},"geometry":{"type":"MultiLineString","coordinates":[[[614933.1537413,9762881.8851735,71.886838],[614979.145048,9762867.7225921,71.886838]]]}},
{"type":"Feature","properties":{"Layer":"AGUA POTABLE"},"geometry":{"type":"MultiLineString","coordinates":[[[614978.346602,9762867.388371,23.522777],[614982.6192854,9762881.3736714,23.522777]]]}},
{"type":"Feature","properties":{"Layer":"AGUA POTABLE"},"geometry":{"type":"MultiLineString","coordinates":[[[614793.874065,9762852.2102738,143.7780855],[614788.3510002,9762840.9462311,143.7780855]]]}},
{"type":"Feature","properties":{"Layer":"AGUA POTABLE"},"geometry":{"type":"MultiLineString","coordinates":[[[616860.6918239,9762250.8588912,0.0611141],[616858.475081,9762254.3306473,0.0611141]]]}},
{"type":"Feature","properties":{"Layer":"AGUA POTABLE"},"geometry":{"type":"MultiLineString","coordinates":[[[616861.9799438,9762249.0519414,0.0611141],[616869.0823,9762241.557,0.0611141]]]}},
{"type":"Feature","properties":{"Layer":"AGUA POTABLE"},"geometry":{"type":"MultiLineString","coordinates":[[[615525.7488447,9762990.2239545,0.0],[615528.1560549,9762989.8383957,0.0]]]}},
{"type":"Feature","properties":{"Layer":"AGUA POTABLE"},"geometry":{"type":"MultiLineString","coordinates":[[[615654.4717485,9762260.6544753,0.0],[615660.2001045,9762219.9440873,0.0]]]}},
{"type":"Feature","properties":{"Layer":"AGUA POTABLE"},"geometry":{"type":"MultiLineString","coordinates":[[[615001.6949609,9762635.3383181,-39.0],[615042.4278285,9762635.4469592,-39.0]]]}},
{"type":"Feature","properties":{"Layer":"AGUA POTABLE"},"geometry":{"type":"MultiLineString","coordinates":[[[614803.4437592,9762458.6760744,104.7780855],[614814.2664519,9762460.1622777,104.7780855]]]}},
{"type":"Feature","properties":{"Layer":"AGUA POTABLE"},"geometry":{"type":"MultiLineString","coordinates":[[[615008.1553871,9762889.8801444,-15.477223],[615009.8368834,9762895.3839996,-15.477223]]]}},
{"type":"Feature","properties":{"Layer":"AGUA POTABLE"},"geometry":{"type":"MultiLineString","coordinates":[[[615184.5061599,9762718.183292,20.5449927],[615167.0765443,9762724.3538333,20.5449927]]]}},
{"type":"Feature","properties":{"Layer":"AGUA POTABLE"},"geometry":{"type":"MultiLineString","coordinates":[[[614853.043522,9762502.5034838,0.0],[614826.761,9762459.1173,0.0]]]}},
{"type":"Feature","properties":{"Layer":"AGUA POTABLE"},"geometry":{"type":"MultiLineString","coordinates":[[[614786.349083,9762470.9167332,0.0],[614803.4437592,9762458.6760744,0.0]]]}},
{"type":"Feature","properties":{"Layer":"AGUA POTABLE"},"geometry":{"type":"MultiLineString","coordinates":[[[614777.5616154,9762449.1737866,0.0],[614786.349083,9762470.9167332,0.0]]]}},
{"type":"Feature","properties":{"Layer":"AGUA POTABLE"},"geometry":{"type":"MultiLineString","coordinates":[[[614791.3026776,9762424.8452033,-39.0],[614777.5616154,9762449.1737866,-39.0]]]}},
{"type":"Feature","properties":{"Layer":"AGUA POTABLE"},"geometry":{"type":"MultiLineString","coordinates":[[[614793.8956121,9762429.0477602,-78.0],[614792.8919,9762430.7391652,-78.0]]]}},
{"type":"Feature","properties":{"Layer":"AGUA POTABLE"},"geometry":{"type":"MultiLineString","coordinates":[[[614790.0310847,9762431.8502026,-39.0],[614788.3458843,9762430.8361077,-39.0]]]}},
{"type":"Feature","properties":{"Layer":"AGUA POTABLE"},"geometry":{"type":"MultiLineString","coordinates":[[[614793.7131983,9762429.3109858,-39.0],[614790.159524,9762427.172818,-39.0]]]}},
{"type":"Feature","properties":{"Layer":"AGUA POTABLE"},"geometry":{"type":"MultiLineString","coordinates":[[[614836.1774211,9762454.7036789,-39.0],[614847.207234,9762440.4467745,-39.0]]]}},
{"type":"Feature","properties":{"Layer":"AGUA POTABLE"},"geometry":{"type":"MultiLineString","coordinates":[[[614786.8957,9762468.1328,0.0],[614785.1710367,9762468.783259,0.0]]]}},
{"type":"Feature","properties":{"Layer":"AGUA POTABLE"},"geometry":{"type":"MultiLineString","coordinates":[[[614777.5352439,9762448.4398672,-39.0],[614761.3651986,9762454.6118402,-39.0]]]}},
{"type":"Feature","properties":{"Layer":"AGUA POTABLE"},"geometry":{"type":"MultiLineString","coordinates":[[[614747.6744436,9762463.8476544,0.0],[614753.0651668,9762462.1098955,0.0]]]}},
{"type":"Feature","properties":{"Layer":"AGUA POTABLE"},"geometry":{"type":"MultiLineString","coordinates":[[[614681.6531568,9762530.5664018,0.0],[614684.4361826,9762525.4461177,0.0]]]}},
{"type":"Feature","properties":{"Layer":"AGUA POTABLE"},"geometry":{"type":"MultiLineString","coordinates":[[[614675.3110597,9762550.9813291,-39.0],[614685.6795234,9762531.4791699,-39.0]]]}},
{"type":"Feature","properties":{"Layer":"AGUA POTABLE"},"geometry":{"type":"MultiLineString","coordinates":[[[614672.1727,9762562.463,-39.0],[614677.5302936,9762552.3616398,-39.0]]]}},
{"type":"Feature","properties":{"Layer":"AGUA POTABLE"},"geometry":{"type":"MultiLineString","coordinates":[[[614686.0762,9762573.2062,-39.0],[614674.674223,9762567.2944714,-39.0]]]}},
{"type":"Feature","properties":{"Layer":"AGUA POTABLE"},"geometry":{"type":"MultiLineString","coordinates":[[[614685.1337,9762531.8382,0.0],[614682.2237,9762530.2155,0.0]]]}},
{"type":"Feature","properties":{"Layer":"AGUA POTABLE"},"geometry":{"type":"MultiLineString","coordinates":[[[614677.4145092,9762552.5799431,0.0],[614674.6357,9762551.1164,0.0]]]}},
{"type":"Feature","properties":{"Layer":"AGUA POTABLE"},"geometry":{"type":"MultiLineString","coordinates":[[[614676.3660148,9762556.9428535,-39.0],[614675.6217234,9762556.5494771,-39.0]]]}},
{"type":"Feature","properties":{"Layer":"AGUA POTABLE"},"geometry":{"type":"MultiLineString","coordinates":[[[614674.674223,9762567.2944714,0.0],[614672.1501,9762561.8543,0.0]]]}},
{"type":"Feature","properties":{"Layer":"AGUA POTABLE"},"geometry":{"type":"MultiLineString","coordinates":[[[614686.0220717,9762572.0219081,-39.0],[614685.7403397,9762572.5516504,-39.0]]]}},
{"type":"Feature","properties":{"Layer":"AGUA POTABLE"},"geometry":{"type":"MultiLineString","coordinates":[[[614714.2292595,9762508.549455,59.5449927],[614713.2401917,9762505.8396802,59.5449927]]]}},
{"type":"Feature","properties":{"Layer":"AGUA POTABLE"},"geometry":{"type":"MultiLineString","coordinates":[[[614702.7837595,9762512.0183247,20.5449927],[614701.8911462,9762509.0942457,20.5449927]]]}},
{"type":"Feature","properties":{"Layer":"AGUA POTABLE"},"geometry":{"type":"MultiLineString","coordinates":[[[614702.6417469,9762511.3764031,20.5449927],[614749.5899452,9762497.480963,20.5449927],[614796.7268305,9762488.4858916,20.5449927],[614836.1997872,9762495.8206709,20.5449927],[614870.8060813,9762497.2044018,20.5449927],[614859.1161705,9762526.8889158,20.5449927]]]}},
{"type":"Feature","properties":{"Layer":"AGUA POTABLE"},"geometry":{"type":"MultiLineString","coordinates":[[[614826.761,9762459.1173,-39.0],[614814.09891,9762460.3041473,-39.0]]]}},
{"type":"Feature","properties":{"Layer":"AGUA POTABLE"},"geometry":{"type":"MultiLineString","coordinates":[[[614836.1774211,9762454.7036789,0.0],[614827.0078281,9762459.2792025,0.0]]]}},
{"type":"Feature","properties":{"Layer":"AGUA POTABLE"},"geometry":{"type":"MultiLineString","coordinates":[[[614865.1830565,9762443.973095,-78.0],[614850.2175265,9762426.6368092,-78.0]]]}},
{"type":"Feature","properties":{"Layer":"AGUA POTABLE"},"geometry":{"type":"MultiLineString","coordinates":[[[614850.122994,9762426.6578552,-39.0],[614844.1059087,9762425.0326037,-39.0]]]}},
{"type":"Feature","properties":{"Layer":"AGUA POTABLE"},"geometry":{"type":"MultiLineString","coordinates":[[[614847.208975,9762440.2935838,-39.0],[614844.1059087,9762425.0326037,-39.0]]]}},
{"type":"Feature","properties":{"Layer":"AGUA POTABLE"},"geometry":{"type":"MultiLineString","coordinates":[[[614844.4091701,9762425.0171392,-39.0],[614805.6948752,9762433.3852939,-39.0]]]}},
{"type":"Feature","properties":{"Layer":"AGUA POTABLE"},"geometry":{"type":"MultiLineString","coordinates":[[[614805.6609902,9762433.5977471,-39.0],[614791.2894044,9762424.8687036,-39.0]]]}},
{"type":"Feature","properties":{"Layer":"AGUA POTABLE"},"geometry":{"type":"MultiLineString","coordinates":[[[614753.0651668,9762462.1098955,-39.0],[614761.3651986,9762454.6118402,-39.0]]]}},
{"type":"Feature","properties":{"Layer":"AGUA POTABLE"},"geometry":{"type":"MultiLineString","coordinates":[[[614748.1948149,9762463.679907,-39.0],[614748.6745246,9762465.1848054,-39.0]]]}},
{"type":"Feature","properties":{"Layer":"AGUA POTABLE"},"geometry":{"type":"MultiLineString","coordinates":[[[615935.3811,9762299.9917,-39.0],[615855.8067,9762370.074,-39.0]]]}},
{"type":"Feature","properties":{"Layer":"AGUA POTABLE"},"geometry":{"type":"MultiLineString","coordinates":[[[615839.5171507,9762433.1616678,0.0],[615933.1523325,9762526.8430514,0.0]]]}},
{"type":"Feature","properties":{"Layer":"AGUA POTABLE"},"geometry":{"type":"MultiLineString","coordinates":[[[615561.5235,9762003.1658,0.0],[615561.5235,9762011.051314,0.0]]]}},
{"type":"Feature","properties":{"Layer":"AGUA POTABLE"},"geometry":{"type":"MultiLineString","coordinates":[[[615558.9366389,9762014.4949453,0.0],[615561.5235,9762011.051314,0.0]]]}},
{"type":"Feature","properties":{"Layer":"AGUA POTABLE"},"geometry":{"type":"MultiLineString","coordinates":[[[615854.6214744,9762017.5701917,45.3447924],[615827.479109,9762014.9237333,45.3447924]]]}},
{"type":"Feature","properties":{"Layer":"AGUA POTABLE"},"geometry":{"type":"MultiLineString","coordinates":[[[615825.6770972,9762015.8121363,45.3447924],[615815.8324425,9762029.6714053,45.3447924]]]}},
{"type":"Feature","properties":{"Layer":"AGUA POTABLE"},"geometry":{"type":"MultiLineString","coordinates":[[[615813.6837932,9761986.925438,134.577123],[615809.6394293,9761986.8777907,134.577123]]]}},
{"type":"Feature","properties":{"Layer":"AGUA POTABLE"},"geometry":{"type":"MultiLineString","coordinates":[[[615623.8536873,9762116.048426,0.0],[615621.8745,9762116.0764,0.0]]]}},
{"type":"Feature","properties":{"Layer":"AGUA POTABLE"},"geometry":{"type":"MultiLineString","coordinates":[[[615323.6904686,9762696.4921799,148.2109206],[615306.9194,9762689.6378,148.2109206]]]}},
{"type":"Feature","properties":{"Layer":"AGUA POTABLE"},"geometry":{"type":"MultiLineString","coordinates":[[[615265.931,9762691.8324,-148.2109206],[615258.3556147,9762703.336272,-148.2109206]]]}},
{"type":"Feature","properties":{"Layer":"AGUA POTABLE"},"geometry":{"type":"MultiLineString","coordinates":[[[615042.4852194,9762635.4285845,-3.9145296],[615045.8466,9762645.2044,-3.9145296]]]}},
{"type":"Feature","properties":{"Layer":"AGUA POTABLE"},"geometry":{"type":"MultiLineString","coordinates":[[[615002.5949609,9762635.561,0.0],[614998.6655,9762659.7213,0.0]]]}},
{"type":"Feature","properties":{"Layer":"AGUA POTABLE"},"geometry":{"type":"MultiLineString","coordinates":[[[615051.4618046,9762624.5623115,-3.9145296],[615045.8466,9762644.6687,-3.9145296]]]}},
{"type":"Feature","properties":{"Layer":"AGUA POTABLE"},"geometry":{"type":"MultiLineString","coordinates":[[[614998.6557916,9762659.780992,0.0],[614996.7824428,9762659.4943883,0.0]]]}},
{"type":"Feature","properties":{"Layer":"AGUA POTABLE"},"geometry":{"type":"MultiLineString","coordinates":[[[615053.6025713,9762641.9975712,39.0],[615045.8572,9762644.857,39.0]]]}},
{"type":"Feature","properties":{"Layer":"AGUA POTABLE"},"geometry":{"type":"MultiLineString","coordinates":[[[615007.9496965,9762546.601937,0.0],[615007.9496965,9762544.7025128,0.0]]]}}
]
}
