{
"type": "FeatureCollection",
"name": "aass",
"crs": { "type": "name", "properties": { "name": "urn:ogc:def:crs:EPSG::32717" } },
"xy_coordinate_resolution": 1e-07,
"features": [
{"type":"Feature","properties":{"Layer":"MP_COLECTOR GENERAL"},"geometry":{"type":"MultiLineString","coordinates":[[[614868.2363047,9763070.7231021],[614849.4576215,9763063.5638523]]]}},
{"type":"Feature","properties":{"Layer":"MP_COLECTOR GENERAL"},"geometry":{"type":"MultiLineString","coordinates":[[[614891.6073392,9763078.5512345],[614870.0251742,9763071.3092481]]]}},
{"type":"Feature","properties":{"Layer":"MP_COLECTOR GENERAL"},"geometry":{"type":"MultiLineString","coordinates":[[[614848.2283725,9763063.0258815],[614820.7926575,9763047.2970211]]]}},
{"type":"Feature","properties":{"Layer":"MP_COLECTOR GENERAL"},"geometry":{"type":"MultiLineString","coordinates":[[[614899.9702962,9763098.0120659],[614892.5643169,9763079.5767641]]]}},
{"type":"Feature","properties":{"Layer":"MP_COLECTOR GENERAL"},"geometry":{"type":"MultiLineString","coordinates":[[[614917.2829957,9763109.5553988],[614900.9742256,9763099.1990323]]]}},
{"type":"Feature","properties":{"Layer":"MP_COLECTOR GENERAL"},"geometry":{"type":"MultiLineString","coordinates":[[[614918.4294527,9763109.3661412],[614930.4714927,9763097.6035437]]]}},
{"type":"Feature","properties":{"Layer":"MP_COLECTOR GENERAL"},"geometry":{"type":"MultiLineString","coordinates":[[[614819.5964817,9763046.4871135],[614785.3494045,9763019.05983]]]}},
{"type":"Feature","properties":{"Layer":"MP_COLECTOR GENERAL"},"geometry":{"type":"MultiLineString","coordinates":[[[614784.3178435,9763018.072407],[614764.7264695,9762995.8397401]]]}},
{"type":"Feature","properties":{"Layer":"MP_COLECTOR GENERAL"},"geometry":{"type":"MultiLineString","coordinates":[[[614763.9319884,9762994.7361053],[614754.2247055,9762977.4791304]]]}},
{"type":"Feature","properties":{"Layer":"MP_COLECTOR GENERAL"},"geometry":{"type":"MultiLineString","coordinates":[[[614743.4165481,9762953.5503811],[614738.4343393,9762938.4582425]]]}},
{"type":"Feature","properties":{"Layer":"MP_COLECTOR GENERAL"},"geometry":{"type":"MultiLineString","coordinates":[[[614738.0362082,9762937.0861218],[614730.2695551,9762906.5360109]]]}},
{"type":"Feature","properties":{"Layer":"MP_COLECTOR GENERAL"},"geometry":{"type":"MultiLineString","coordinates":[[[614729.954852,9762905.2046924],[614723.8645182,9762877.2712711]]]}},
{"type":"Feature","properties":{"Layer":"MP_COLECTOR GENERAL"},"geometry":{"type":"MultiLineString","coordinates":[[[614723.5703992,9762875.9562967],[614717.9551502,9762847.9293511]]]}},
{"type":"Feature","properties":{"Layer":"MP_COLECTOR GENERAL"},"geometry":{"type":"MultiLineString","coordinates":[[[614717.6408498,9762846.4626489],[614711.6871502,9762818.6793511]]]}},
{"type":"Feature","properties":{"Layer":"MP_COLECTOR GENERAL"},"geometry":{"type":"MultiLineString","coordinates":[[[614700.9392058,9762789.3988633],[614694.4141878,9762759.7820794]]]}},
{"type":"Feature","properties":{"Layer":"MP_COLECTOR GENERAL"},"geometry":{"type":"MultiLineString","coordinates":[[[614694.1729625,9762758.3699187],[614690.7232144,9762731.0734426]]]}},
{"type":"Feature","properties":{"Layer":"MP_COLECTOR GENERAL"},"geometry":{"type":"MultiLineString","coordinates":[[[614690.7307414,9762729.7575524],[614699.9422586,9762663.0174476]]]}},
{"type":"Feature","properties":{"Layer":"MP_COLECTOR GENERAL"},"geometry":{"type":"MultiLineString","coordinates":[[[614711.2972422,9762817.3244735],[614701.3219195,9762790.6876504]]]}},
{"type":"Feature","properties":{"Layer":"MP_COLECTOR GENERAL"},"geometry":{"type":"MultiLineString","coordinates":[[[614700.1923924,9762661.6947268],[614705.2737483,9762640.526397]]]}},
{"type":"Feature","properties":{"Layer":"MP_COLECTOR GENERAL"},"geometry":{"type":"MultiLineString","coordinates":[[[614705.6412389,9762639.2103078],[614714.7388347,9762612.0441802]]]}},
{"type":"Feature","properties":{"Layer":"MP_COLECTOR GENERAL"},"geometry":{"type":"MultiLineString","coordinates":[[[614694.4839822,9762590.8904888],[614700.3353293,9762565.667751]]]}},
{"type":"Feature","properties":{"Layer":"MP_COLECTOR GENERAL"},"geometry":{"type":"MultiLineString","coordinates":[[[614700.7845717,9762564.4082838],[614708.3774283,9762549.4607162]]]}},
{"type":"Feature","properties":{"Layer":"MP_COLECTOR GENERAL"},"geometry":{"type":"MultiLineString","coordinates":[[[614709.1393953,9762548.3919405],[614723.914498,9762533.3659563]]]}},
{"type":"Feature","properties":{"Layer":"MP_COLECTOR GENERAL"},"geometry":{"type":"MultiLineString","coordinates":[[[614746.0397042,9762523.0019078],[614765.9649646,9762510.1099805]]]}},
{"type":"Feature","properties":{"Layer":"MP_COLECTOR GENERAL"},"geometry":{"type":"MultiLineString","coordinates":[[[614766.4839347,9762509.116927],[614765.6234673,9762501.8523521]]]}},
{"type":"Feature","properties":{"Layer":"MP_COLECTOR GENERAL"},"geometry":{"type":"MultiLineString","coordinates":[[[614714.5107765,9762610.8323704],[614694.8136524,9762591.9956992]]]}},
{"type":"Feature","properties":{"Layer":"MP_COLECTOR GENERAL"},"geometry":{"type":"MultiLineString","coordinates":[[[614765.9690418,9762500.6641191],[614785.7838493,9762476.9965388]]]}},
{"type":"Feature","properties":{"Layer":"MP_COLECTOR GENERAL"},"geometry":{"type":"MultiLineString","coordinates":[[[614786.8024557,9762476.8356282],[614795.5758415,9762482.3412264]]]}},
{"type":"Feature","properties":{"Layer":"MP_COLECTOR GENERAL"},"geometry":{"type":"MultiLineString","coordinates":[[[614974.3316338,9763067.3386805],[614934.6708602,9763092.4915226]]]}},
{"type":"Feature","properties":{"Layer":"MP_COLECTOR GENERAL"},"geometry":{"type":"MultiLineString","coordinates":[[[615147.264,9762878.636],[615123.859,9762885.712]]]}},
{"type":"Feature","properties":{"Layer":"MP_COLECTOR GENERAL"},"geometry":{"type":"MultiLineString","coordinates":[[[615191.0987775,9762834.8444089],[615147.7945914,9762878.1059314]]]}},
{"type":"Feature","properties":{"Layer":"MP_COLECTOR GENERAL"},"geometry":{"type":"MultiLineString","coordinates":[[[615215.2464237,9762843.5583819],[615192.3314286,9762834.5913084]]]}},
{"type":"Feature","properties":{"Layer":"MP_COLECTOR GENERAL"},"geometry":{"type":"MultiLineString","coordinates":[[[615234.91,9762831.256],[615216.5352803,9762843.4903389]]]}},
{"type":"Feature","properties":{"Layer":"MP_COLECTOR GENERAL"},"geometry":{"type":"MultiLineString","coordinates":[[[615255.856,9762843.253],[615234.91,9762831.256]]]}},
{"type":"Feature","properties":{"Layer":"MP_COLECTOR GENERAL"},"geometry":{"type":"MultiLineString","coordinates":[[[615370.182,9762935.778],[615299.2287048,9762880.0461139]]]}},
{"type":"Feature","properties":{"Layer":"MP_COLECTOR GENERAL"},"geometry":{"type":"MultiLineString","coordinates":[[[615423.6378591,9762978.8537075],[615380.5050923,9762943.9607027]]]}},
{"type":"Feature","properties":{"Layer":"MP_COLECTOR GENERAL"},"geometry":{"type":"MultiLineString","coordinates":[[[614929.052184,9763094.6527486],[614934.1869094,9763098.9778947],[614937.3838779,9763095.1780574],[614932.2491525,9763090.8529114],[614929.052184,9763094.6527486]]]}},
{"type":"Feature","properties":{"Layer":"MP_COLECTOR GENERAL"},"geometry":{"type":"MultiLineString","coordinates":[[[615123.859,9762885.712],[615083.7847484,9762947.6999209]]]}},
{"type":"Feature","properties":{"Layer":"MP_COLECTOR GENERAL"},"geometry":{"type":"MultiLineString","coordinates":[[[615083.0085022,9762948.73901],[615032.0266763,9763007.883918]]]}},
{"type":"Feature","properties":{"Layer":"MP_COLECTOR GENERAL"},"geometry":{"type":"MultiLineString","coordinates":[[[615031.0526479,9763009.0246282],[615001.8649913,9763046.3511836]]]}},
{"type":"Feature","properties":{"Layer":"MP_COLECTOR GENERAL"},"geometry":{"type":"MultiLineString","coordinates":[[[615278.8847345,9762757.4793304],[615304.319,9762762.138]]]}},
{"type":"Feature","properties":{"Layer":"MP_COLECTOR GENERAL"},"geometry":{"type":"MultiLineString","coordinates":[[[615325.58,9762754.965],[615304.319,9762762.138]]]}},
{"type":"Feature","properties":{"Layer":"MP_COLECTOR GENERAL"},"geometry":{"type":"MultiLineString","coordinates":[[[615352.11,9762746.377],[615338.412,9762748.933]]]}},
{"type":"Feature","properties":{"Layer":"MP_COLECTOR GENERAL"},"geometry":{"type":"MultiLineString","coordinates":[[[615234.91,9762831.256],[615278.8847345,9762757.4793304]]]}},
{"type":"Feature","properties":{"Layer":"MP_COLECTOR GENERAL"},"geometry":{"type":"MultiLineString","coordinates":[[[615370.997,9762726.512],[615356.273,9762730.356]]]}},
{"type":"Feature","properties":{"Layer":"MP_COLECTOR GENERAL"},"geometry":{"type":"MultiLineString","coordinates":[[[615352.11,9762746.377],[615348.771,9762733.998]]]}},
{"type":"Feature","properties":{"Layer":"MP_COLECTOR GENERAL"},"geometry":{"type":"MultiLineString","coordinates":[[[615325.58,9762754.965],[615338.412,9762748.933]]]}},
{"type":"Feature","properties":{"Layer":"MP_COLECTOR GENERAL"},"geometry":{"type":"MultiLineString","coordinates":[[[615398.3174706,9762653.805357],[615403.3699962,9762670.8648325],[615403.231,9762670.87]]]}},
{"type":"Feature","properties":{"Layer":"MP_COLECTOR GENERAL"},"geometry":{"type":"MultiLineString","coordinates":[[[615405.565,9762720.468],[615402.835,9762712.618]]]}},
{"type":"Feature","properties":{"Layer":"MP_COLECTOR GENERAL"},"geometry":{"type":"MultiLineString","coordinates":[[[615387.1669598,9762703.7961294],[615402.2344228,9762712.2904312]]]}},
{"type":"Feature","properties":{"Layer":"MP_COLECTOR GENERAL"},"geometry":{"type":"MultiLineString","coordinates":[[[615384.791,9762721.621],[615370.997,9762726.512]]]}},
{"type":"Feature","properties":{"Layer":"MP_COLECTOR GENERAL"},"geometry":{"type":"MultiLineString","coordinates":[[[615391.021,9762725.534],[615384.791,9762721.621]]]}},
{"type":"Feature","properties":{"Layer":"MP_COLECTOR GENERAL"},"geometry":{"type":"MultiLineString","coordinates":[[[615405.565,9762720.468],[615391.021,9762725.534]]]}},
{"type":"Feature","properties":{"Layer":"MP_COLECTOR GENERAL"},"geometry":{"type":"MultiLineString","coordinates":[[[615096.8635749,9762605.0084416],[615103.6955713,9762590.5837187]]]}},
{"type":"Feature","properties":{"Layer":"MP_COLECTOR GENERAL"},"geometry":{"type":"MultiLineString","coordinates":[[[614985.2417209,9762824.4501851],[615004.388851,9762818.2092089]]]}},
{"type":"Feature","properties":{"Layer":"MP_COLECTOR GENERAL"},"geometry":{"type":"MultiLineString","coordinates":[[[614928.3419163,9762846.521273],[614948.7868133,9762836.6384389]]]}},
{"type":"Feature","properties":{"Layer":"MP_COLECTOR GENERAL"},"geometry":{"type":"MultiLineString","coordinates":[[[615034.6917186,9762805.2283925],[615055.687,9762798.364]]]}},
{"type":"Feature","properties":{"Layer":"MP_COLECTOR GENERAL"},"geometry":{"type":"MultiLineString","coordinates":[[[615087.4578918,9762625.5372998],[615096.3575687,9762606.2354063]]]}},
{"type":"Feature","properties":{"Layer":"MP_COLECTOR GENERAL"},"geometry":{"type":"MultiLineString","coordinates":[[[614916.155,9763012.014],[614924.6,9763012.574]]]}},
{"type":"Feature","properties":{"Layer":"MP_COLECTOR GENERAL"},"geometry":{"type":"MultiLineString","coordinates":[[[614924.6,9763012.574],[614919.1493576,9762991.7712482]]]}},
{"type":"Feature","properties":{"Layer":"MP_COLECTOR GENERAL"},"geometry":{"type":"MultiLineString","coordinates":[[[614915.6082182,9762958.8921603],[614908.624,9762937.662]]]}},
{"type":"Feature","properties":{"Layer":"MP_COLECTOR GENERAL"},"geometry":{"type":"MultiLineString","coordinates":[[[614914.5133423,9762934.4143711],[614910.5950432,9762919.5957463]]]}},
{"type":"Feature","properties":{"Layer":"MP_COLECTOR GENERAL"},"geometry":{"type":"MultiLineString","coordinates":[[[614910.217285,9762918.3033316],[614904.9940201,9762896.9529647]]]}},
{"type":"Feature","properties":{"Layer":"MP_COLECTOR GENERAL"},"geometry":{"type":"MultiLineString","coordinates":[[[614893.3844066,9762852.4914257],[614927.0157821,9762847.0600199]]]}},
{"type":"Feature","properties":{"Layer":"MP_COLECTOR GENERAL"},"geometry":{"type":"MultiLineString","coordinates":[[[615021.8737316,9762809.4808788],[615033.5390042,9762805.576678]]]}},
{"type":"Feature","properties":{"Layer":"MP_COLECTOR GENERAL"},"geometry":{"type":"MultiLineString","coordinates":[[[615043.7400266,9762728.3900775],[615055.2305151,9762763.8613648]]]}},
{"type":"Feature","properties":{"Layer":"MP_COLECTOR GENERAL"},"geometry":{"type":"MultiLineString","coordinates":[[[615058.6018864,9762686.2963358],[615043.8871136,9762727.1066642]]]}},
{"type":"Feature","properties":{"Layer":"MP_COLECTOR GENERAL"},"geometry":{"type":"MultiLineString","coordinates":[[[615068.3955254,9762662.8018847],[615058.827,9762685.672]]]}},
{"type":"Feature","properties":{"Layer":"MP_COLECTOR GENERAL"},"geometry":{"type":"MultiLineString","coordinates":[[[615094.0639418,9762656.2965327],[615069.0537013,9762662.5023044]]]}},
{"type":"Feature","properties":{"Layer":"MP_COLECTOR GENERAL"},"geometry":{"type":"MultiLineString","coordinates":[[[615062.4517869,9762788.3632253],[615056.1072131,9762797.7427747]]]}},
{"type":"Feature","properties":{"Layer":"MP_COLECTOR GENERAL"},"geometry":{"type":"MultiLineString","coordinates":[[[614918.7758749,9763048.5065026],[614930.4527625,9763092.9880558]]]}},
{"type":"Feature","properties":{"Layer":"MP_COLECTOR GENERAL"},"geometry":{"type":"MultiLineString","coordinates":[[[614927.6425099,9762978.4711959],[614912.7553933,9762982.0261099]]]}},
{"type":"Feature","properties":{"Layer":"MP_COLECTOR GENERAL"},"geometry":{"type":"MultiLineString","coordinates":[[[614892.8439546,9762853.3338542],[614904.5400588,9762895.6163414]]]}},
{"type":"Feature","properties":{"Layer":"MP_COLECTOR GENERAL"},"geometry":{"type":"MultiLineString","coordinates":[[[614918.0143024,9763047.5846644],[614907.752,9763042.628]]]}},
{"type":"Feature","properties":{"Layer":"MP_COLECTOR GENERAL"},"geometry":{"type":"MultiLineString","coordinates":[[[614927.9289629,9762978.9021596],[614919.3058252,9762990.6139505]]]}},
{"type":"Feature","properties":{"Layer":"MP_COLECTOR GENERAL"},"geometry":{"type":"MultiLineString","coordinates":[[[615005.8306779,9762817.7438685],[615020.5660955,9762810.0562525]]]}},
{"type":"Feature","properties":{"Layer":"MP_COLECTOR GENERAL"},"geometry":{"type":"MultiLineString","coordinates":[[[614950.0784977,9762836.1873149],[614983.8164429,9762824.9927479]]]}},
{"type":"Feature","properties":{"Layer":"MP_COLECTOR GENERAL"},"geometry":{"type":"MultiLineString","coordinates":[[[614915.9625071,9762959.7622452],[614918.1907936,9762967.1639397]]]}},
{"type":"Feature","properties":{"Layer":"MP_COLECTOR GENERAL"},"geometry":{"type":"MultiLineString","coordinates":[[[614918.0376123,9762968.4065566],[614912.3872356,9762981.4964138]]]}},
{"type":"Feature","properties":{"Layer":"MP_COLECTOR GENERAL"},"geometry":{"type":"MultiLineString","coordinates":[[[614909.1032079,9763031.2486495],[614916.155,9763012.014]]]}},
{"type":"Feature","properties":{"Layer":"MP_COLECTOR GENERAL"},"geometry":{"type":"MultiLineString","coordinates":[[[614907.752,9763042.628],[614908.7788499,9763031.5750707]]]}},
{"type":"Feature","properties":{"Layer":"MP_COLECTOR GENERAL"},"geometry":{"type":"MultiLineString","coordinates":[[[614914.0733205,9762935.3182256],[614909.2538886,9762937.3951018]]]}},
{"type":"Feature","properties":{"Layer":"MP_COLECTOR GENERAL"},"geometry":{"type":"MultiLineString","coordinates":[[[615081.554,9762863.167],[615037.1454154,9762877.7013451]]]}},
{"type":"Feature","properties":{"Layer":"MP_COLECTOR GENERAL"},"geometry":{"type":"MultiLineString","coordinates":[[[615002.2733624,9762888.7958418],[614960.0674677,9762902.6746792]]]}},
{"type":"Feature","properties":{"Layer":"MP_COLECTOR GENERAL"},"geometry":{"type":"MultiLineString","coordinates":[[[614941.568,9762589.568],[614941.545,9762629.92]]]}},
{"type":"Feature","properties":{"Layer":"MP_COLECTOR GENERAL"},"geometry":{"type":"MultiLineString","coordinates":[[[614849.573,9762728.609],[614823.208,9762750.964]]]}},
{"type":"Feature","properties":{"Layer":"MP_COLECTOR GENERAL"},"geometry":{"type":"MultiLineString","coordinates":[[[614869.311,9762653.399],[614878.083,9762681.208]]]}},
{"type":"Feature","properties":{"Layer":"MP_COLECTOR GENERAL"},"geometry":{"type":"MultiLineString","coordinates":[[[614826.692,9762690.253],[614838.142,9762686.394]]]}},
{"type":"Feature","properties":{"Layer":"MP_COLECTOR GENERAL"},"geometry":{"type":"MultiLineString","coordinates":[[[614883.471,9762701.634],[614895.669,9762738.048]]]}},
{"type":"Feature","properties":{"Layer":"MP_COLECTOR GENERAL"},"geometry":{"type":"MultiLineString","coordinates":[[[614994.4730208,9762655.5239414],[615014.7393937,9762650.8234534]]]}},
{"type":"Feature","properties":{"Layer":"MP_COLECTOR GENERAL"},"geometry":{"type":"MultiLineString","coordinates":[[[614985.5431199,9762689.4671863],[614993.6065951,9762656.3750136]]]}},
{"type":"Feature","properties":{"Layer":"MP_COLECTOR GENERAL"},"geometry":{"type":"MultiLineString","coordinates":[[[614964.185,9762692.475],[614984.7225489,9762690.1294351]]]}},
{"type":"Feature","properties":{"Layer":"MP_COLECTOR GENERAL"},"geometry":{"type":"MultiLineString","coordinates":[[[614937.2039539,9762692.0893197],[614963.5279606,9762692.3813483]]]}},
{"type":"Feature","properties":{"Layer":"MP_COLECTOR GENERAL"},"geometry":{"type":"MultiLineString","coordinates":[[[614918.0726002,9762636.6820341],[614936.1730953,9762691.3855918]]]}},
{"type":"Feature","properties":{"Layer":"MP_COLECTOR GENERAL"},"geometry":{"type":"MultiLineString","coordinates":[[[614838.142,9762686.394],[614849.573,9762728.609]]]}},
{"type":"Feature","properties":{"Layer":"MP_COLECTOR GENERAL"},"geometry":{"type":"MultiLineString","coordinates":[[[614929.0240012,9762978.0278126],[614976.6426114,9762962.1754921]]]}},
{"type":"Feature","properties":{"Layer":"MP_COLECTOR GENERAL"},"geometry":{"type":"MultiLineString","coordinates":[[[614959.6855804,9762903.5896071],[614972.0438442,9762938.7316139]]]}},
{"type":"Feature","properties":{"Layer":"MP_COLECTOR GENERAL"},"geometry":{"type":"MultiLineString","coordinates":[[[614972.4948816,9762940.0929409],[614977.3698442,9762954.8066139]]]}},
{"type":"Feature","properties":{"Layer":"MP_COLECTOR GENERAL"},"geometry":{"type":"MultiLineString","coordinates":[[[614977.4940288,9762956.1134159],[614976.7568031,9762961.4410791]]]}},
{"type":"Feature","properties":{"Layer":"MP_COLECTOR GENERAL"},"geometry":{"type":"MultiLineString","coordinates":[[[615044.2923357,9762727.5232783],[615090.603,9762712.262]]]}},
{"type":"Feature","properties":{"Layer":"MP_COLECTOR GENERAL"},"geometry":{"type":"MultiLineString","coordinates":[[[614843.1332047,9762796.9003288],[614865.528,9762776.394]]]}},
{"type":"Feature","properties":{"Layer":"MP_COLECTOR GENERAL"},"geometry":{"type":"MultiLineString","coordinates":[[[614891.9017958,9762852.5031443],[614866.3352042,9762848.7878557]]]}},
{"type":"Feature","properties":{"Layer":"MP_COLECTOR GENERAL"},"geometry":{"type":"MultiLineString","coordinates":[[[614865.593,9762848.68],[614823.208,9762750.964]]]}},
{"type":"Feature","properties":{"Layer":"MP_COLECTOR GENERAL"},"geometry":{"type":"MultiLineString","coordinates":[[[614724.9806997,9762532.6154864],[614744.3726136,9762523.8658832]]]}},
{"type":"Feature","properties":{"Layer":"MP_COLECTOR GENERAL"},"geometry":{"type":"MultiLineString","coordinates":[[[615055.7009509,9762765.3024912],[615062.5673424,9762787.1523772]]]}},
{"type":"Feature","properties":{"Layer":"MP_COLECTOR GENERAL"},"geometry":{"type":"MultiLineString","coordinates":[[[614941.545,9762629.92],[614917.837,9762635.97]]]}},
{"type":"Feature","properties":{"Layer":"MP_COLECTOR GENERAL"},"geometry":{"type":"MultiLineString","coordinates":[[[614917.837,9762635.97],[614905.712,9762635.596]]]}},
{"type":"Feature","properties":{"Layer":"MP_COLECTOR GENERAL"},"geometry":{"type":"MultiLineString","coordinates":[[[614905.712,9762635.596],[614885.65,9762638.383]]]}},
{"type":"Feature","properties":{"Layer":"MP_COLECTOR GENERAL"},"geometry":{"type":"MultiLineString","coordinates":[[[614885.65,9762638.383],[614869.311,9762653.399]]]}},
{"type":"Feature","properties":{"Layer":"MP_COLECTOR GENERAL"},"geometry":{"type":"MultiLineString","coordinates":[[[614878.083,9762681.208],[614883.471,9762701.634]]]}},
{"type":"Feature","properties":{"Layer":"MP_COLECTOR GENERAL"},"geometry":{"type":"MultiLineString","coordinates":[[[614865.528,9762776.394],[614895.669,9762738.048]]]}},
{"type":"Feature","properties":{"Layer":"MP_COLECTOR GENERAL"},"geometry":{"type":"MultiLineString","coordinates":[[[615068.9889434,9762661.5200086],[615086.9015687,9762626.7494063]]]}},
{"type":"Feature","properties":{"Layer":"MP_COLECTOR GENERAL"},"geometry":{"type":"MultiLineString","coordinates":[[[615035.8669198,9762878.0574025],[615003.622151,9762888.3113761]]]}},
{"type":"Feature","properties":{"Layer":"MP_COLECTOR GENERAL"},"geometry":{"type":"MultiLineString","coordinates":[[[615379.2737707,9762943.1117749],[615373.1982293,9762939.5762251]]]}},
{"type":"Feature","properties":{"Layer":"MP_COLECTOR GENERAL"},"geometry":{"type":"MultiLineString","coordinates":[[[615371.9453648,9762938.7552474],[615370.5642026,9762936.423307]]]}},
{"type":"Feature","properties":{"Layer":"MP_COLECTOR GENERAL"},"geometry":{"type":"MultiLineString","coordinates":[[[615000.8048131,9763047.3944074],[614975.5631869,9763066.4845926]]]}},
{"type":"Feature","properties":{"Layer":"MP_COLECTOR GENERAL"},"geometry":{"type":"MultiLineString","coordinates":[[[615298.4348213,9762879.3901643],[615256.4196676,9762843.6406508]]]}},
{"type":"Feature","properties":{"Layer":"MP_COLECTOR GENERAL"},"geometry":{"type":"MultiLineString","coordinates":[[[615403.231,9762670.87],[615403.706,9762682.839]]]}},
{"type":"Feature","properties":{"Layer":"MP_COLECTOR GENERAL"},"geometry":{"type":"MultiLineString","coordinates":[[[615403.706,9762682.839],[615399.921,9762696.577]]]}},
{"type":"Feature","properties":{"Layer":"MP_COLECTOR GENERAL"},"geometry":{"type":"MultiLineString","coordinates":[[[615399.921,9762696.577],[615399.561,9762702.722]]]}},
{"type":"Feature","properties":{"Layer":"MP_COLECTOR GENERAL"},"geometry":{"type":"MultiLineString","coordinates":[[[615399.561,9762702.722],[615402.835,9762712.618]]]}},
{"type":"Feature","properties":{"Layer":"MP_COLECTOR GENERAL"},"geometry":{"type":"MultiLineString","coordinates":[[[615356.553271,9762730.3215406],[615348.771,9762733.998]]]}},
{"type":"Feature","properties":{"Layer":"MP_COLECTOR GENERAL"},"geometry":{"type":"MultiLineString","coordinates":[[[615392.5580099,9762634.3589674],[615397.9347303,9762652.5130628]]]}},
{"type":"Feature","properties":{"Layer":"MP_COLECTOR GENERAL"},"geometry":{"type":"MultiLineString","coordinates":[[[615095.4260422,9762655.9227436],[615156.8106681,9762637.6295007]]]}},
{"type":"Feature","properties":{"Layer":"MP_COLECTOR GENERAL"},"geometry":{"type":"MultiLineString","coordinates":[[[614753.5858457,9762976.2723442],[614743.9075595,9762954.8033127]]]}},
{"type":"Feature","properties":{"Layer":"MP_COLECTOR GENERAL"},"geometry":{"type":"MultiLineString","coordinates":[[[616147.0636921,9762142.0566416],[616118.244,9762141.024]]]}},
{"type":"Feature","properties":{"Layer":"MP_COLECTOR GENERAL"},"geometry":{"type":"MultiLineString","coordinates":[[[615986.906,9762388.129],[616012.014,9762348.324],[616004.6902301,9762276.2715494],[616012.014,9762348.324],[615986.906,9762388.129],[615975.7275002,9762395.8100147],[615939.567,9762409.524],[615922.262,9762415.019],[615966.191,9762450.037],[616029.4995423,9762518.7863438],[615966.191,9762450.037],[615922.262,9762415.019],[615939.567,9762409.524],[615975.7275002,9762395.8100147]]]}},
{"type":"Feature","properties":{"Layer":"MP_COLECTOR GENERAL"},"geometry":{"type":"MultiLineString","coordinates":[[[616029.7108252,9762518.878976],[616060.563,9762552.549],[616096.817,9762587.16],[616060.563,9762552.549]]]}},
{"type":"Feature","properties":{"Layer":"MP_COLECTOR GENERAL"},"geometry":{"type":"MultiLineString","coordinates":[[[616031.5780265,9761929.1026334],[616015.6260746,9761914.8633714],[616031.5780265,9761929.1026334],[616038.8855733,9761948.3319174],[616031.5780265,9761929.1026334]]]}},
{"type":"Feature","properties":{"Layer":"MP_COLECTOR GENERAL"},"geometry":{"type":"MultiLineString","coordinates":[[[616004.6902301,9762276.2715494],[616021.8294995,9762252.3939497],[616049.6048976,9762229.0558086],[616080.4256919,9762203.7811285],[616104.268,9762185.314],[616103.7679392,9762168.5597252],[616118.244,9762141.024],[616147.0636921,9762142.0566416],[616147.4118599,9762098.8764075],[616119.1667535,9762099.4192147],[616102.15,9762099.697],[616119.1667535,9762099.4192147],[616147.4118599,9762098.8764075],[616147.0636921,9762142.0566416]]]}},
{"type":"Feature","properties":{"Layer":"MP_COLECTOR GENERAL"},"geometry":{"type":"MultiLineString","coordinates":[[[616102.009,9762094.352],[616102.15,9762099.697]]]}},
{"type":"Feature","properties":{"Layer":"MP_COLECTOR GENERAL"},"geometry":{"type":"MultiLineString","coordinates":[[[616031.785,9761977.887],[616039.3079439,9761949.6990899]]]}},
{"type":"Feature","properties":{"Layer":"MP_COLECTOR GENERAL"},"geometry":{"type":"MultiLineString","coordinates":[[[616039.3079439,9761949.6990899],[616031.785,9761977.887]]]}},
{"type":"Feature","properties":{"Layer":"MP_COLECTOR GENERAL"},"geometry":{"type":"MultiLineString","coordinates":[[[616031.785,9761977.887],[616027.53,9761990.458]]]}},
{"type":"Feature","properties":{"Layer":"MP_COLECTOR GENERAL"},"geometry":{"type":"MultiLineString","coordinates":[[[616027.53,9761990.458],[616018.59,9761999.375]]]}},
{"type":"Feature","properties":{"Layer":"MP_COLECTOR GENERAL"},"geometry":{"type":"MultiLineString","coordinates":[[[616018.59,9761999.375],[616004.6717243,9762013.718569]]]}},
{"type":"Feature","properties":{"Layer":"MP_COLECTOR GENERAL"},"geometry":{"type":"MultiLineString","coordinates":[[[616004.6717243,9762013.718569],[616006.7862888,9762019.3293229]]]}},
{"type":"Feature","properties":{"Layer":"MP_COLECTOR GENERAL"},"geometry":{"type":"MultiLineString","coordinates":[[[616006.7862888,9762019.3293229],[616014.2020638,9762027.9288345]]]}},
{"type":"Feature","properties":{"Layer":"MP_COLECTOR GENERAL"},"geometry":{"type":"MultiLineString","coordinates":[[[616014.2020638,9762027.9288345],[616024.7160062,9762039.8486334]]]}},
{"type":"Feature","properties":{"Layer":"MP_COLECTOR GENERAL"},"geometry":{"type":"MultiLineString","coordinates":[[[616024.7160062,9762039.8486334],[616024.567,9762048.433]]]}},
{"type":"Feature","properties":{"Layer":"MP_COLECTOR GENERAL"},"geometry":{"type":"MultiLineString","coordinates":[[[616024.567,9762048.433],[616030.511,9762067.198]]]}},
{"type":"Feature","properties":{"Layer":"MP_COLECTOR GENERAL"},"geometry":{"type":"MultiLineString","coordinates":[[[616030.511,9762067.198],[616043.947,9762095.785]]]}},
{"type":"Feature","properties":{"Layer":"MP_COLECTOR GENERAL"},"geometry":{"type":"MultiLineString","coordinates":[[[616043.947,9762095.785],[616102.3225493,9762094.5234568]]]}},
{"type":"Feature","properties":{"Layer":"MP_COLECTOR GENERAL"},"geometry":{"type":"MultiLineString","coordinates":[[[616102.3225493,9762094.5234568],[616043.947,9762095.785]]]}},
{"type":"Feature","properties":{"Layer":"MP_COLECTOR GENERAL"},"geometry":{"type":"MultiLineString","coordinates":[[[616096.817,9762587.16],[616106.7351635,9762597.6293614]]]}},
{"type":"Feature","properties":{"Layer":"MP_PENDIENTE"},"geometry":{"type":"MultiLineString","coordinates":[[[615035.8669198,9762878.0574025],[615003.622151,9762888.3113761]]]}},
{"type":"Feature","properties":{"Layer":"MP_PENDIENTE"},"geometry":{"type":"MultiLineString","coordinates":[[[614763.9319884,9762994.7361053],[614754.2247055,9762977.4791304]]]}},
{"type":"Feature","properties":{"Layer":"MP_PENDIENTE"},"geometry":{"type":"MultiLineString","coordinates":[[[614738.0362082,9762937.0861218],[614730.2695551,9762906.5360109]]]}},
{"type":"Feature","properties":{"Layer":"MP_PENDIENTE"},"geometry":{"type":"MultiLineString","coordinates":[[[614725.4681336,9762532.3955569],[614744.8600475,9762523.6459537]]]}},
{"type":"Feature","properties":{"Layer":"MP_PENDIENTE"},"geometry":{"type":"MultiLineString","coordinates":[[[614917.837,9762635.97],[614905.712,9762635.596]]]}},
{"type":"Feature","properties":{"Layer":"MP_PENDIENTE"},"geometry":{"type":"MultiLineString","coordinates":[[[614827.8276676,9762689.8702453],[614839.2776676,9762686.0112453]]]}},
{"type":"Feature","properties":{"Layer":"MP_PENDIENTE"},"geometry":{"type":"MultiLineString","coordinates":[[[614891.9017958,9762852.5031443],[614866.3352042,9762848.7878557]]]}},
{"type":"Feature","properties":{"Layer":"MP_PENDIENTE"},"geometry":{"type":"MultiLineString","coordinates":[[[614916.155,9763012.014],[614924.6,9763012.574]]]}},
{"type":"Feature","properties":{"Layer":"MP_PENDIENTE"},"geometry":{"type":"MultiLineString","coordinates":[[[614924.6,9763012.574],[614919.1493576,9762991.7712482]]]}},
{"type":"Feature","properties":{"Layer":"MP_PENDIENTE"},"geometry":{"type":"MultiLineString","coordinates":[[[614927.9289629,9762978.9021596],[614919.3058252,9762990.6139505]]]}},
{"type":"Feature","properties":{"Layer":"MP_PENDIENTE"},"geometry":{"type":"MultiLineString","coordinates":[[[614909.1032079,9763031.2486495],[614916.155,9763012.014]]]}},
{"type":"Feature","properties":{"Layer":"MP_PENDIENTE"},"geometry":{"type":"MultiLineString","coordinates":[[[614907.752,9763042.628],[614908.7788499,9763031.5750707]]]}},
{"type":"Feature","properties":{"Layer":"MP_PENDIENTE"},"geometry":{"type":"MultiLineString","coordinates":[[[615370.182,9762935.778],[615299.2287048,9762880.0461139]]]}},
{"type":"Feature","properties":{"Layer":"MP_PENDIENTE"},"geometry":{"type":"MultiLineString","coordinates":[[[615371.9453648,9762938.7552474],[615370.5642026,9762936.423307]]]}},
{"type":"Feature","properties":{"Layer":"MP_PENDIENTE"},"geometry":{"type":"MultiLineString","coordinates":[[[615298.4348213,9762879.3901643],[615256.4196676,9762843.6406508]]]}},
{"type":"Feature","properties":{"Layer":"MP_PENDIENTE"},"geometry":{"type":"MultiLineString","coordinates":[[[615234.91,9762831.256],[615216.5352803,9762843.4903389]]]}},
{"type":"Feature","properties":{"Layer":"MP_PENDIENTE"},"geometry":{"type":"MultiLineString","coordinates":[[[615000.4471507,9763047.6649067],[614975.2055245,9763066.7550919]]]}},
{"type":"Feature","properties":{"Layer":"MP_PENDIENTE"},"geometry":{"type":"MultiLineString","coordinates":[[[615391.021,9762725.534],[615384.791,9762721.621]]]}},
{"type":"Feature","properties":{"Layer":"MP_PENDIENTE"},"geometry":{"type":"MultiLineString","coordinates":[[[615405.565,9762720.468],[615391.021,9762725.534]]]}},
{"type":"Feature","properties":{"Layer":"MP_PENDIENTE"},"geometry":{"type":"MultiLineString","coordinates":[[[616027.53,9761990.458],[616018.59,9761999.375]]]}}
]
}
