{
"type": "FeatureCollection",
"name": "arriendos",
"crs": { "type": "name", "properties": { "name": "urn:ogc:def:crs:EPSG::32717" } },
"xy_coordinate_resolution": 1e-07,
"features": [
{"type":"Feature","properties":{"name":"3V","status":"VIGENTE","zona":3,"cod_ant":"40 Y 46","cod_act":"3V","ref":"COPOL SECUNDARIA (EDIFICACIONES VARIAS)","area_const":5320.75,"area_terr":12176.28,"fecha_venc":"26 de enero de 2032"},"geometry":{"type":"MultiPolygon","coordinates":[[[[616267.1206343,9762077.8202716,0.0],[616186.6862165,9762012.8318925,0.0],[616152.4339672,9762023.9628704,0.0],[616152.7967774,9762143.815262,0.0],[616267.5656436,9762143.2127844,0.0],[616267.1206343,9762077.8202716,0.0]]]]}},
{"type":"Feature","properties":{"name":"3W","status":"VIGENTE","zona":3,"cod_ant":null,"cod_act":"3W","ref":"COPOL PRIMARIA (EDIFICACIONES VARIAS)","area_const":4767.41,"area_terr":13324.49,"fecha_venc":"26 de enero de 2032"},"geometry":{"type":"MultiPolygon","coordinates":[[[[616281.5117986,9762313.6161543,0.0],[616282.1717546,9762286.6563237,0.0],[616284.6027291,9762281.1542369,0.0],[616291.1165132,9762273.7173013,0.0],[616316.1398219,9762248.9447095,0.0],[616314.8796584,9762233.2730485,0.0],[616313.9835963,9762230.6057899,0.0],[616311.2943409,9762229.2315721,0.0],[616296.3802519,9762232.3090668,0.0],[616294.3660174,9762233.571645,0.0],[616293.3851016,9762237.2158954,0.0],[616293.6382009,9762245.959766,0.0],[616225.7712526,9762246.4937471,0.0],[616225.7608206,9762248.2343841,0.0],[616197.5385108,9762248.4698238,0.0],[616167.7044268,9762249.0012546,0.0],[616161.9708206,9762249.2043841,0.0],[616138.1708206,9762254.8443841,0.0],[616122.5610042,9762258.4437229,0.0],[616119.6440175,9762265.6243841,0.0],[616122.352126,9762270.7343841,0.0],[616132.3508206,9762275.8143841,0.0],[616136.3434921,9762279.5243841,0.0],[616136.3434921,9762289.8443841,0.0],[616122.4510234,9762297.6543841,0.0],[616110.8291152,9762319.6486892,0.0],[616163.0059886,9762319.6486892,0.0],[616197.3852575,9762319.3830076,0.0],[616219.1240261,9762319.3830076,0.0],[616220.5681537,9762322.9145815,0.0],[616223.900345,9762325.1158179,0.0],[616249.4266061,9762324.5512312,0.0],[616249.5043752,9762331.7269653,0.0],[616270.0274894,9762331.5413737,0.0],[616270.1168194,9762336.829765,0.0],[616307.5909666,9762336.1919244,0.0],[616307.6154041,9762313.0646517,0.0],[616281.5117986,9762313.6161543,0.0]]]]}},
{"type":"Feature","properties":{"name":"LASERDECO S.A","status":"PEDIR ZEDE","zona":1,"cod_ant":null,"cod_act":null,"ref":"LASERDECO S.A","area_const":0.0,"area_terr":1950.62,"fecha_venc":"PEDIR ZEDE"},"geometry":{"type":"MultiPolygon","coordinates":[[[[616628.538857,9762471.807248,0.0],[616627.662243,9762443.659652,0.0],[616627.627711,9762443.6601253,0.0],[616627.5931834,9762443.6593948,0.0],[616627.5587023,9762443.6574616,0.0],[616627.5243095,9762443.6543279,0.0],[616627.4900467,9762443.6499975,0.0],[616627.4559557,9762443.6444757,0.0],[616627.4220779,9762443.6377692,0.0],[616627.3884543,9762443.6298861,0.0],[616627.3551259,9762443.6208361,0.0],[616627.3221332,9762443.6106301,0.0],[616627.2895161,9762443.5992805,0.0],[616627.2573144,9762443.5868011,0.0],[616627.2255671,9762443.5732071,0.0],[616627.1943129,9762443.5585149,0.0],[616627.1635897,9762443.5427425,0.0],[616627.1334348,9762443.525909,0.0],[616627.1038848,9762443.5080348,0.0],[616627.0749757,9762443.4891417,0.0],[616627.0467426,9762443.4692525,0.0],[616627.0192198,9762443.4483916,0.0],[616626.9924407,9762443.4265841,0.0],[616626.9664378,9762443.4038567,0.0],[616626.9412427,9762443.3802369,0.0],[616626.9168861,9762443.3557534,0.0],[616626.8933976,9762443.3304359,0.0],[616626.8708056,9762443.3043153,0.0],[616626.8491376,9762443.2774232,0.0],[616626.82842,9762443.2497923,0.0],[616626.8086778,9762443.2214562,0.0],[616626.7899352,9762443.1924494,0.0],[616626.7722148,9762443.1628069,0.0],[616626.7555382,9762443.132565,0.0],[616626.7399257,9762443.1017602,0.0],[616626.7253961,9762443.07043,0.0],[616626.7119673,9762443.0386125,0.0],[616626.6996554,9762443.0063464,0.0],[616626.6884754,9762442.9736708,0.0],[616626.678441,9762442.9406254,0.0],[616626.6695643,9762442.9072505,0.0],[616626.6618561,9762442.8735864,0.0],[616626.6553257,9762442.8396741,0.0],[616626.6499812,9762442.8055549,0.0],[616626.6458289,9762442.7712702,0.0],[616626.642874,9762442.7368615,0.0],[616626.6411199,9762442.7023708,0.0],[616626.6405689,9762442.6678399,0.0],[616626.6412217,9762442.6333108,0.0],[616626.6430774,9762442.5988254,0.0],[616626.6461337,9762442.5644256,0.0],[616596.4218663,9762439.3472744,0.0],[616596.417653,9762439.3812642,0.0],[616596.4122675,9762439.4150881,0.0],[616596.4057162,9762439.4487057,0.0],[616596.398007,9762439.4820767,0.0],[616596.389149,9762439.5151614,0.0],[616596.3791528,9762439.5479202,0.0],[616596.3680304,9762439.5803139,0.0],[616596.355795,9762439.6123038,0.0],[616596.3424613,9762439.6438518,0.0],[616596.3280453,9762439.6749201,0.0],[616596.3125641,9762439.7054716,0.0],[616596.2960362,9762439.7354697,0.0],[616596.2784814,9762439.7648787,0.0],[616596.2599207,9762439.7936634,0.0],[616596.2403762,9762439.8217895,0.0],[616596.2198713,9762439.8492232,0.0],[616596.1984305,9762439.8759319,0.0],[616596.1760794,9762439.9018835,0.0],[616596.1528447,9762439.9270472,0.0],[616596.1287542,9762439.9513928,0.0],[616596.1038367,9762439.9748913,0.0],[616596.0781219,9762439.9975145,0.0],[616596.0516406,9762440.0192355,0.0],[616596.0244244,9762440.0400282,0.0],[616595.9965058,9762440.0598679,0.0],[616595.9679182,9762440.0787308,0.0],[616595.9386958,9762440.0965945,0.0],[616595.9088734,9762440.1134374,0.0],[616595.8784867,9762440.1292396,0.0],[616595.847572,9762440.1439821,0.0],[616595.8161662,9762440.1576474,0.0],[616595.7843069,9762440.1702191,0.0],[616595.7520322,9762440.1816821,0.0],[616595.7193805,9762440.1920228,0.0],[616595.686391,9762440.2012289,0.0],[616595.653103,9762440.2092892,0.0],[616595.6195563,9762440.2161943,0.0],[616595.585791,9762440.2219358,0.0],[616595.5518474,9762440.2265069,0.0],[616595.5177662,9762440.2299021,0.0],[616595.4835879,9762440.2321174,0.0],[616595.4493535,9762440.23315,0.0],[616595.4151039,9762440.2329989,0.0],[616595.3808799,9762440.2316642,0.0],[616593.5047201,9762473.5413358,0.0],[616593.538732,9762473.5438394,0.0],[616593.5726376,9762473.547512,0.0],[616593.6063967,9762473.5523492,0.0],[616593.6399693,9762473.5583454,0.0],[616593.6733157,9762473.5654934,0.0],[616593.7063964,9762473.5737848,0.0],[616593.7391721,9762473.5832097,0.0],[616593.771604,9762473.5937569,0.0],[616593.8036538,9762473.6054141,0.0],[616593.8352834,9762473.6181673,0.0],[616593.8664554,9762473.6320015,0.0],[616593.8971328,9762473.6469002,0.0],[616593.9272793,9762473.6628459,0.0],[616593.9568592,9762473.6798196,0.0],[616593.9858374,9762473.6978012,0.0],[616594.0141797,9762473.7167694,0.0],[616594.0418524,9762473.7367018,0.0],[616594.0688227,9762473.7575747,0.0],[616594.0950587,9762473.7793634,0.0],[616594.1205293,9762473.8020421,0.0],[616594.1452044,9762473.8255839,0.0],[616594.1690547,9762473.8499609,0.0],[616594.1920519,9762473.8751443,0.0],[616594.2141689,9762473.9011043,0.0],[616594.2353793,9762473.9278099,0.0],[616594.2556582,9762473.9552297,0.0],[616594.2749813,9762473.9833312,0.0],[616594.293326,9762474.012081,0.0],[616594.3106703,9762474.0414451,0.0],[616594.3269939,9762474.0713887,0.0],[616594.3422773,9762474.1018763,0.0],[616594.3565024,9762474.1328718,0.0],[616594.3696524,9762474.1643385,0.0],[616594.3817117,9762474.1962391,0.0],[616594.392666,9762474.2285359,0.0],[616594.4025024,9762474.2611904,0.0],[616594.4112091,9762474.2941642,0.0],[616594.418776,9762474.3274181,0.0],[616594.4251939,9762474.3609127,0.0],[616594.4304553,9762474.3946083,0.0],[616594.434554,9762474.428465,0.0],[616594.4374851,9762474.4624427,0.0],[616594.4392452,9762474.4965011,0.0],[616594.4398321,9762474.5306,0.0],[616594.4392954,9762474.5632083,0.0],[616594.4376858,9762474.5957814,0.0],[616594.4350052,9762474.6282838,0.0],[616594.4312563,9762474.6606803,0.0],[616594.4264433,9762474.692936,0.0],[616594.4205713,9762474.7250157,0.0],[616594.4136468,9762474.7568849,0.0],[616594.4056772,9762474.7885089,0.0],[616594.3966712,9762474.8198535,0.0],[616594.3866385,9762474.8508847,0.0],[616594.37559,9762474.881569,0.0],[616594.3635377,9762474.911873,0.0],[616594.3504946,9762474.9417639,0.0],[616594.3364749,9762474.9712095,0.0],[616598.5906251,9762477.0832905,0.0],[616598.6064997,9762477.0526662,0.0],[616598.6234307,9762477.022613,0.0],[616598.6413975,9762476.9931673,0.0],[616598.6603783,9762476.9643648,0.0],[616598.6803502,9762476.9362405,0.0],[616598.701289,9762476.9088285,0.0],[616598.7231692,9762476.8821618,0.0],[616598.7459644,9762476.856273,0.0],[616598.769647,9762476.8311933,0.0],[616598.7941881,9762476.8069531,0.0],[616598.8195581,9762476.7835819,0.0],[616598.8457263,9762476.7611079,0.0],[616598.8726609,9762476.7395584,0.0],[616598.9003293,9762476.7189595,0.0],[616598.9286979,9762476.6993361,0.0],[616598.9577323,9762476.6807121,0.0],[616598.9873975,9762476.66311,0.0],[616599.0176573,9762476.6465512,0.0],[616599.0484753,9762476.6310557,0.0],[616599.0798139,9762476.6166423,0.0],[616599.1116352,9762476.6033285,0.0],[616599.1439006,9762476.5911304,0.0],[616599.1765711,9762476.5800628,0.0],[616599.2096071,9762476.5701391,0.0],[616599.2429684,9762476.5613713,0.0],[616599.2766147,9762476.5537701,0.0],[616599.3105053,9762476.5473447,0.0],[616599.3445989,9762476.5421028,0.0],[616599.3788543,9762476.5380508,0.0],[616599.4132301,9762476.5351937,0.0],[616599.4476844,9762476.5335348,0.0],[616599.4821756,9762476.5330763,0.0],[616599.5166619,9762476.5338185,0.0],[616599.5511014,9762476.5357608,0.0],[616599.5854525,9762476.5389006,0.0],[616599.6196734,9762476.5432343,0.0],[616599.6537228,9762476.5487564,0.0],[616599.6875593,9762476.5554605,0.0],[616599.7211419,9762476.5633382,0.0],[616599.75443,9762476.5723802,0.0],[616599.7873832,9762476.5825753,0.0],[616599.8199616,9762476.5939113,0.0],[616599.8521256,9762476.6063744,0.0],[616599.8838363,9762476.6199496,0.0],[616599.9150553,9762476.6346203,0.0],[616599.9457446,9762476.6503688,0.0],[616599.9758673,9762476.667176,0.0],[616600.0053866,9762476.6850215,0.0],[616600.0342669,9762476.7038837,0.0],[616600.0624731,9762476.7237398,0.0],[616600.0899711,9762476.7445656,0.0],[616600.1167275,9762476.766336,0.0],[616600.1427099,9762476.7890245,0.0],[616600.1678868,9762476.8126036,0.0],[616600.1922277,9762476.8370449,0.0],[616600.2157031,9762476.8623185,0.0],[616600.2382845,9762476.8883941,0.0],[616600.2599446,9762476.9152398,0.0],[616600.2806572,9762476.9428232,0.0],[616600.300397,9762476.9711108,0.0],[616600.3191403,9762477.0000684,0.0],[616600.3368643,9762477.0296609,0.0],[616600.3535474,9762477.0598524,0.0],[616600.3691695,9762477.0906063,0.0],[616600.3837117,9762477.1218854,0.0],[616600.3971563,9762477.1536517,0.0],[616600.409487,9762477.1858667,0.0],[616600.4206889,9762477.2184914,0.0],[616600.4307484,9762477.2514862,0.0],[616600.4396534,9762477.2848112,0.0],[616600.4473929,9762477.318426,0.0],[616600.4539577,9762477.3522898,0.0],[616600.4593398,9762477.3863616,0.0],[616600.4635326,9762477.4206001,0.0],[616600.4665311,9762477.4549637,0.0],[616600.4683317,9762477.489411,0.0],[616600.4689321,9762477.5239,0.0],[616600.4683478,9762477.5579236,0.0],[616600.4665955,9762477.5919071,0.0],[616600.4636773,9762477.6258103,0.0],[616600.4595966,9762477.6595934,0.0],[616600.4543583,9762477.6932164,0.0],[616600.4479685,9762477.7266397,0.0],[616600.4404348,9762477.7598239,0.0],[616600.431766,9762477.7927298,0.0],[616600.4219724,9762477.8253187,0.0],[616600.4110655,9762477.857552,0.0],[616600.3990582,9762477.8893918,0.0],[616600.3859647,9762477.9208005,0.0],[616600.3718004,9762477.951741,0.0],[616600.3565819,9762477.982177,0.0],[616600.3403274,9762478.0120724,0.0],[616600.3230558,9762478.041392,0.0],[616600.3047877,9762478.0701013,0.0],[616600.2855444,9762478.0981663,0.0],[616600.2653489,9762478.125554,0.0],[616600.2442248,9762478.1522321,0.0],[616600.222197,9762478.178169,0.0],[616600.1992916,9762478.2033343,0.0],[616600.1755356,9762478.2276982,0.0],[616600.150957,9762478.2512319,0.0],[616600.1255848,9762478.2739079,0.0],[616600.0994488,9762478.2956991,0.0],[616600.0725801,9762478.3165801,0.0],[616600.0450101,9762478.3365262,0.0],[616600.0167715,9762478.3555137,0.0],[616599.9878975,9762478.3735204,0.0],[616599.9584222,9762478.390525,0.0],[616599.9283804,9762478.4065074,0.0],[616599.8978076,9762478.4214488,0.0],[616599.8667396,9762478.4353316,0.0],[616599.8352133,9762478.4481394,0.0],[616599.8032658,9762478.459857,0.0],[616599.7709348,9762478.4704707,0.0],[616599.7382583,9762478.479968,0.0],[616599.7052751,9762478.4883376,0.0],[616599.6720238,9762478.4955696,0.0],[616599.6385439,9762478.5016556,0.0],[616599.6048747,9762478.5065884,0.0],[616599.5710559,9762478.5103621,0.0],[616599.5371276,9762478.5129723,0.0],[616599.5031296,9762478.5144159,0.0],[616599.4691021,9762478.5146913,0.0],[616599.4350852,9762478.513798,0.0],[616599.401119,9762478.5117372,0.0],[616597.552981,9762502.2274628,0.0],[616597.5872659,9762502.230735,0.0],[616597.6214164,9762502.2351967,0.0],[616597.6553912,9762502.2408427,0.0],[616597.6891493,9762502.2476659,0.0],[616597.7226498,9762502.2556583,0.0],[616597.7558523,9762502.2648101,0.0],[616597.7887167,9762502.2751104,0.0],[616597.8212033,9762502.2865465,0.0],[616597.8532728,9762502.2991049,0.0],[616597.8848865,9762502.3127701,0.0],[616597.9160061,9762502.3275259,0.0],[616597.9465941,9762502.3433542,0.0],[616597.9766136,9762502.360236,0.0],[616598.0060282,9762502.378151,0.0],[616598.0348024,9762502.3970774,0.0],[616598.0629014,9762502.4169924,0.0],[616598.0902914,9762502.4378719,0.0],[616598.1169391,9762502.4596907,0.0],[616598.1428125,9762502.4824225,0.0],[616598.1678802,9762502.5060397,0.0],[616598.1921119,9762502.5305139,0.0],[616598.2154785,9762502.5558155,0.0],[616598.2379516,9762502.5819138,0.0],[616598.2595041,9762502.6087774,0.0],[616598.2801099,9762502.6363738,0.0],[616598.2997443,9762502.6646697,0.0],[616598.3183833,9762502.6936309,0.0],[616598.3360046,9762502.7232223,0.0],[616598.3525868,9762502.7534083,0.0],[616598.3681099,9762502.7841524,0.0],[616598.3825551,9762502.8154174,0.0],[616598.395905,9762502.8471655,0.0],[616598.4081435,9762502.8793584,0.0],[616598.4192558,9762502.9119572,0.0],[616598.4292284,9762502.9449225,0.0],[616598.4380493,9762502.9782145,0.0],[616598.4457078,9762503.0117929,0.0],[616598.4521947,9762503.0456172,0.0],[616598.4575021,9762503.0796465,0.0],[616598.4616237,9762503.1138397,0.0],[616598.4645545,9762503.1481556,0.0],[616626.3423455,9762501.2546444,0.0],[616626.3406234,9762501.2206734,0.0],[616626.3400682,9762501.1866633,0.0],[616626.3406808,9762501.1526542,0.0],[616626.3424603,9762501.1186861,0.0],[616626.3454048,9762501.0847992,0.0],[616626.3495106,9762501.0510333,0.0],[616626.354773,9762501.0174282,0.0],[616626.3611858,9762500.9840235,0.0],[616626.3687414,9762500.9508586,0.0],[616626.3774309,9762500.9179726,0.0],[616626.3872441,9762500.8854043,0.0],[616626.3981694,9762500.853192,0.0],[616626.4101939,9762500.8213736,0.0],[616626.4233034,9762500.7899867,0.0],[616626.4374826,9762500.7590684,0.0],[616626.4527147,9762500.7286549,0.0],[616626.4689817,9762500.6987821,0.0],[616626.4862645,9762500.6694854,0.0],[616626.5045427,9762500.6407991,0.0],[616626.5237947,9762500.6127571,0.0],[616626.543998,9762500.5853924,0.0],[616626.5651286,9762500.5587374,0.0],[616626.5871617,9762500.5328233,0.0],[616626.6100712,9762500.5076807,0.0],[616626.6338303,9762500.4833394,0.0],[616626.6584109,9762500.4598279,0.0],[616626.683784,9762500.4371739,0.0],[616626.7099198,9762500.4154043,0.0],[616626.7367873,9762500.3945445,0.0],[616626.7643551,9762500.3746192,0.0],[616626.7925905,9762500.355652,0.0],[616626.8214603,9762500.337665,0.0],[616626.8509305,9762500.3206796,0.0],[616626.8809663,9762500.3047158,0.0],[616626.9115324,9762500.2897923,0.0],[616626.9425927,9762500.2759268,0.0],[616626.9741106,9762500.2631355,0.0],[616627.006049,9762500.2514337,0.0],[616627.0383703,9762500.240835,0.0],[616627.0710363,9762500.2313519,0.0],[616627.1040085,9762500.2229957,0.0],[616627.1372482,9762500.2157761,0.0],[616627.170716,9762500.2097018,0.0],[616627.2043727,9762500.2047797,0.0],[616627.2381784,9762500.2010158,0.0],[616627.2720934,9762500.1984145,0.0],[616627.3060778,9762500.1969788,0.0],[616627.3400913,9762500.1967105,0.0],[616627.3740941,9762500.1976098,0.0],[616628.5265059,9762473.7874902,0.0],[616628.4921809,9762473.7853951,0.0],[616628.4579492,9762473.7821101,0.0],[616628.4238522,9762473.7776391,0.0],[616628.3899309,9762473.7719877,0.0],[616628.3562261,9762473.7651625,0.0],[616628.3227784,9762473.7571718,0.0],[616628.2896282,9762473.7480252,0.0],[616628.2568154,9762473.7377338,0.0],[616628.2243794,9762473.7263099,0.0],[616628.1923594,9762473.7137672,0.0],[616628.160794,9762473.700121,0.0],[616628.1297211,9762473.6853876,0.0],[616628.0991782,9762473.6695848,0.0],[616628.0692021,9762473.6527317,0.0],[616628.0398289,9762473.6348484,0.0],[616628.0110939,9762473.6159566,0.0],[616627.9830319,9762473.5960791,0.0],[616627.9556765,9762473.5752397,0.0],[616627.9290608,9762473.5534635,0.0],[616627.9032168,9762473.5307769,0.0],[616627.8781756,9762473.5072071,0.0],[616627.8539674,9762473.4827825,0.0],[616627.8306213,9762473.4575326,0.0],[616627.8081656,9762473.4314877,0.0],[616627.7866272,9762473.4046793,0.0],[616627.766032,9762473.3771395,0.0],[616627.746405,9762473.3489017,0.0],[616627.7277696,9762473.3199998,0.0],[616627.7101485,9762473.2904686,0.0],[616627.6935627,9762473.2603437,0.0],[616627.6780323,9762473.2296614,0.0],[616627.663576,9762473.1984586,0.0],[616627.6502112,9762473.166773,0.0],[616627.637954,9762473.1346427,0.0],[616627.6268192,9762473.1021064,0.0],[616627.6168202,9762473.0692032,0.0],[616627.6079689,9762473.0359729,0.0],[616627.6002762,9762473.0024555,0.0],[616627.5937512,9762472.9686913,0.0],[616627.5884018,9762472.934721,0.0],[616627.5842345,9762472.9005856,0.0],[616627.5812542,9762472.866326,0.0],[616627.5794646,9762472.8319837,0.0],[616627.5788679,9762472.7976,0.0],[616627.5794478,9762472.7637056,0.0],[616627.5811868,9762472.7298508,0.0],[616627.5840829,9762472.6960753,0.0],[616627.5881327,9762472.6624187,0.0],[616627.5933315,9762472.6289203,0.0],[616627.5996731,9762472.5956194,0.0],[616627.6071502,9762472.5625548,0.0],[616627.615754,9762472.5297654,0.0],[616627.6254744,9762472.4972896,0.0],[616627.6363001,9762472.4651652,0.0],[616627.6482183,9762472.43343,0.0],[616627.6612152,9762472.402121,0.0],[616627.6752754,9762472.371275,0.0],[616627.6903827,9762472.340928,0.0],[616627.7065192,9762472.3111155,0.0],[616627.7236661,9762472.2818725,0.0],[616627.7418032,9762472.2532331,0.0],[616627.7609095,9762472.225231,0.0],[616627.7809625,9762472.1978988,0.0],[616627.8019387,9762472.1712687,0.0],[616627.8238137,9762472.1453716,0.0],[616627.8465617,9762472.120238,0.0],[616627.8701561,9762472.0958973,0.0],[616627.8945694,9762472.0723779,0.0],[616627.919773,9762472.0497075,0.0],[616627.9457373,9762472.0279125,0.0],[616627.972432,9762472.0070184,0.0],[616627.9998259,9762471.9870497,0.0],[616628.0278867,9762471.9680298,0.0],[616628.0565818,9762471.9499809,0.0],[616628.0858775,9762471.9329243,0.0],[616628.1157396,9762471.9168797,0.0],[616628.146133,9762471.9018661,0.0],[616628.1770222,9762471.8879009,0.0],[616628.2083711,9762471.8750006,0.0],[616628.2401429,9762471.8631802,0.0],[616628.2723004,9762471.8524535,0.0],[616628.3048061,9762471.8428332,0.0],[616628.3376219,9762471.8343305,0.0],[616628.3707093,9762471.8269554,0.0],[616628.4040296,9762471.8207164,0.0],[616628.4375439,9762471.8156208,0.0],[616628.4712128,9762471.8116748,0.0],[616628.504997,9762471.8088827,0.0],[616628.538857,9762471.807248,0.0]]]]}},
{"type":"Feature","properties":{"name":"1E","status":"VIGENTE","zona":1,"cod_ant":null,"cod_act":"1E","ref":"EMPRESA VIBAG","area_const":0.0,"area_terr":3000.86,"fecha_venc":"26 de junio de 2037"},"geometry":{"type":"MultiPolygon","coordinates":[[[[616886.3565116,9763300.8961397,0.0],[616950.2387784,9763257.6369603,0.0],[616950.2100967,9763257.5929654,0.0],[616950.1829728,9763257.5479934,0.0],[616950.1574398,9763257.5020995,0.0],[616950.1335291,9763257.4553399,0.0],[616950.1112699,9763257.4077719,0.0],[616950.0906896,9763257.3594539,0.0],[616950.0718133,9763257.310445,0.0],[616950.0546643,9763257.2608053,0.0],[616950.0392635,9763257.2105957,0.0],[616950.0256299,9763257.1598778,0.0],[616950.01378,9763257.1087137,0.0],[616950.0037286,9763257.0571661,0.0],[616949.9954878,9763257.0052983,0.0],[616949.9890678,9763256.9531737,0.0],[616949.9844765,9763256.9008564,0.0],[616949.9817194,9763256.8484104,0.0],[616949.9808,9763256.7959,0.0],[616949.981691,9763256.7442066,0.0],[616949.9843629,9763256.6925747,0.0],[616949.9888126,9763256.6410655,0.0],[616949.9950348,9763256.5897402,0.0],[616950.0030221,9763256.5386598,0.0],[616950.012765,9763256.4878851,0.0],[616950.0242519,9763256.4374763,0.0],[616950.0374692,9763256.3874932,0.0],[616950.0524011,9763256.3379954,0.0],[616950.06903,9763256.2890416,0.0],[616950.0873361,9763256.2406899,0.0],[616950.1072976,9763256.1929978,0.0],[616950.1288908,9763256.1460219,0.0],[616950.1520901,9763256.0998181,0.0],[616950.1768679,9763256.0544412,0.0],[616950.2031948,9763256.0099452,0.0],[616950.2310394,9763255.9663829,0.0],[616950.2603688,9763255.9238061,0.0],[616950.2911481,9763255.8822653,0.0],[616950.3233406,9763255.8418099,0.0],[616950.3569083,9763255.802488,0.0],[616950.3918111,9763255.7643463,0.0],[616950.4280076,9763255.72743,0.0],[616950.4654548,9763255.6917831,0.0],[616950.5041083,9763255.6574479,0.0],[616950.5439221,9763255.6244651,0.0],[616950.5848488,9763255.592874,0.0],[616950.62684,9763255.5627121,0.0],[616950.6698457,9763255.5340152,0.0],[616950.7138148,9763255.5068175,0.0],[616950.7586951,9763255.4811512,0.0],[616950.8044332,9763255.4570468,0.0],[616939.5316668,9763233.1428532,0.0],[616939.4851084,9763233.1653748,0.0],[616939.4378012,9763233.186278,0.0],[616939.3898015,9763233.2055378,0.0],[616939.3411664,9763233.2231314,0.0],[616939.2919536,9763233.2390379,0.0],[616939.2422217,9763233.2532383,0.0],[616939.1920299,9763233.2657158,0.0],[616939.1414377,9763233.2764555,0.0],[616939.0905053,9763233.2854447,0.0],[616939.0392933,9763233.2926727,0.0],[616938.9878626,9763233.2981309,0.0],[616938.9362743,9763233.3018128,0.0],[616938.8845897,9763233.303714,0.0],[616938.8328703,9763233.3038323,0.0],[616938.7811776,9763233.3021675,0.0],[616938.729573,9763233.2987216,0.0],[616938.6781178,9763233.2934987,0.0],[616938.6268733,9763233.2865051,0.0],[616938.5759004,9763233.2777489,0.0],[616938.5252596,9763233.2672407,0.0],[616938.4750112,9763233.2549929,0.0],[616938.4252149,9763233.2410201,0.0],[616938.3759299,9763233.2253389,0.0],[616938.3272148,9763233.2079679,0.0],[616938.2791275,9763233.1889279,0.0],[616938.2317252,9763233.1682413,0.0],[616938.1850642,9763233.1459329,0.0],[616938.1392001,9763233.1220292,0.0],[616938.0941872,9763233.0965585,0.0],[616938.0500793,9763233.0695511,0.0],[616938.0069286,9763233.0410392,0.0],[616937.9647865,9763233.0110566,0.0],[616937.9237031,9763232.979639,0.0],[616937.8837272,9763232.9468238,0.0],[616937.8449063,9763232.9126499,0.0],[616937.8072867,9763232.877158,0.0],[616937.770913,9763232.8403903,0.0],[616937.7358285,9763232.8023905,0.0],[616937.7020749,9763232.7632037,0.0],[616937.6696922,9763232.7228766,0.0],[616937.6387191,9763232.6814571,0.0],[616937.6091923,9763232.6389944,0.0],[616937.581147,9763232.595539,0.0],[616937.5546164,9763232.5511426,0.0],[616937.5296321,9763232.505858,0.0],[616937.5062239,9763232.459739,0.0],[616937.4844195,9763232.4128404,0.0],[616912.9033805,9763243.3298596,0.0],[616912.9237505,9763243.3779666,0.0],[616912.942433,9763243.4267537,0.0],[616912.9594052,9763243.4761618,0.0],[616912.9746466,9763243.526131,0.0],[616912.9881387,9763243.5766005,0.0],[616912.9998651,9763243.6275094,0.0],[616913.0098117,9763243.6787957,0.0],[616913.0179662,9763243.7303972,0.0],[616913.024319,9763243.7822514,0.0],[616913.0288621,9763243.8342954,0.0],[616913.0315903,9763243.886466,0.0],[616913.0325,9763243.9387,0.0],[616913.031604,9763243.9905387,0.0],[616913.028917,9763244.0423155,0.0],[616913.0244423,9763244.0939685,0.0],[616913.0181851,9763244.145436,0.0],[616913.010153,9763244.1966566,0.0],[616913.0003556,9763244.2475689,0.0],[616912.9888045,9763244.2981122,0.0],[616912.9755136,9763244.3482262,0.0],[616912.9604988,9763244.3978509,0.0],[616912.9437779,9763244.446927,0.0],[616912.925371,9763244.495396,0.0],[616912.9053,9763244.5431999,0.0],[616912.883589,9763244.5902816,0.0],[616912.8602638,9763244.6365849,0.0],[616912.8353523,9763244.6820544,0.0],[616912.8088844,9763244.7266358,0.0],[616912.7808916,9763244.7702759,0.0],[616912.7514073,9763244.8129225,0.0],[616912.7204668,9763244.8545247,0.0],[616912.688107,9763244.8950328,0.0],[616912.6543667,9763244.9343983,0.0],[616912.619286,9763244.9725743,0.0],[616912.582907,9763245.0095151,0.0],[616912.5452731,9763245.0451767,0.0],[616912.5064293,9763245.0795163,0.0],[616912.4664218,9763245.112493,0.0],[616912.4252987,9763245.1440674,0.0],[616912.3831089,9763245.1742017,0.0],[616912.3399029,9763245.20286,0.0],[616912.2957323,9763245.230008,0.0],[616912.2506499,9763245.2556133,0.0],[616912.2047095,9763245.2796453,0.0],[616912.157966,9763245.3020753,0.0],[616912.1104753,9763245.3228765,0.0],[616912.0622941,9763245.342024,0.0],[616912.0134799,9763245.359495,0.0],[616911.9640912,9763245.3752685,0.0],[616911.9141868,9763245.3893258,0.0],[616911.8638264,9763245.40165,0.0],[616911.8130701,9763245.4122265,0.0],[616911.7619787,9763245.4210426,0.0],[616911.7106131,9763245.4280877,0.0],[616911.6590348,9763245.4333535,0.0],[616911.6073052,9763245.4368336,0.0],[616911.5554863,9763245.4385239,0.0],[616911.5036399,9763245.4384223,0.0],[616911.4518281,9763245.4365291,0.0],[616911.4001125,9763245.4328464,0.0],[616911.3485552,9763245.4273787,0.0],[616911.2972176,9763245.4201325,0.0],[616911.2461611,9763245.4111164,0.0],[616911.1954467,9763245.4003412,0.0],[616911.1451349,9763245.3878198,0.0],[616911.095286,9763245.3735672,0.0],[616911.0459594,9763245.3576003,0.0],[616910.997214,9763245.3399383,0.0],[616910.9491081,9763245.3206023,0.0],[616910.9016993,9763245.2996153,0.0],[616910.855044,9763245.2770024,0.0],[616910.8091981,9763245.2527907,0.0],[616910.7642163,9763245.227009,0.0],[616910.7201523,9763245.1996882,0.0],[616910.6770589,9763245.1708609,0.0],[616910.6349875,9763245.1405616,0.0],[616910.5939883,9763245.1088264,0.0],[616910.5541103,9763245.0756932,0.0],[616910.5154012,9763245.0412017,0.0],[616910.4779073,9763245.0053931,0.0],[616910.4416732,9763244.9683101,0.0],[616910.4067424,9763244.929997,0.0],[616910.3731565,9763244.8904996,0.0],[616910.3409556,9763244.8498652,0.0],[616910.3101783,9763244.8081421,0.0],[616910.2808612,9763244.7653803,0.0],[616908.7873388,9763245.7518197,0.0],[616908.8149801,9763245.7952743,0.0],[616908.8411133,9763245.8396522,0.0],[616908.8657078,9763245.8849011,0.0],[616908.8887343,9763245.9309677,0.0],[616908.9101659,9763245.9777975,0.0],[616908.9299772,9763246.0253355,0.0],[616908.948145,9763246.0735256,0.0],[616908.9646477,9763246.1223109,0.0],[616908.9794659,9763246.171634,0.0],[616908.9925822,9763246.2214367,0.0],[616909.0039811,9763246.2716604,0.0],[616909.0136492,9763246.3222457,0.0],[616909.021575,9763246.3731331,0.0],[616909.0277492,9763246.4242626,0.0],[616909.0321646,9763246.475574,0.0],[616909.0348159,9763246.5270066,0.0],[616909.0357,9763246.5785,0.0],[616909.0348041,9763246.6303355,0.0],[616909.0321174,9763246.6821092,0.0],[616909.0276432,9763246.733759,0.0],[616909.0213869,9763246.7852234,0.0],[616909.0133557,9763246.8364409,0.0],[616909.0035595,9763246.8873502,0.0],[616908.9920099,9763246.9378906,0.0],[616908.9787206,9763246.9880017,0.0],[616908.9637075,9763247.0376236,0.0],[616908.9469887,9763247.0866971,0.0],[616908.928584,9763247.1351635,0.0],[616908.9085154,9763247.1829649,0.0],[616908.886807,9763247.2300443,0.0],[616908.8634845,9763247.2763454,0.0],[616908.838576,9763247.3218129,0.0],[616908.8121112,9763247.3663924,0.0],[616908.7841216,9763247.4100308,0.0],[616908.7546407,9763247.4526759,0.0],[616908.7237038,9763247.4942768,0.0],[616908.6913477,9763247.5347837,0.0],[616908.6576111,9763247.5741483,0.0],[616908.6225344,9763247.6123235,0.0],[616908.5861594,9763247.6492638,0.0],[616908.5485296,9763247.684925,0.0],[616908.5096899,9763247.7192645,0.0],[616908.4696867,9763247.7522414,0.0],[616908.4285678,9763247.7838162,0.0],[616908.3863824,9763247.8139511,0.0],[616908.3431808,9763247.8426103,0.0],[616908.2990146,9763247.8697594,0.0],[616908.2539366,9763247.895366,0.0],[616908.2080007,9763247.9193996,0.0],[616908.1612616,9763247.9418315,0.0],[616908.1137753,9763247.9626347,0.0],[616908.0655985,9763247.9817846,0.0],[616908.0167886,9763247.9992582,0.0],[616907.9674041,9763248.0150346,0.0],[616907.9175039,9763248.029095,0.0],[616907.8671476,9763248.0414226,0.0],[616907.8163954,9763248.0520027,0.0],[616907.7653079,9763248.0608226,0.0],[616907.7139461,9763248.0678718,0.0],[616907.6623713,9763248.0731419,0.0],[616907.6106453,9763248.0766266,0.0],[616907.5588297,9763248.0783217,0.0],[616907.5069866,9763248.0782252,0.0],[616907.4551777,9763248.0763372,0.0],[616907.403465,9763248.0726599,0.0],[616907.3519102,9763248.0671979,0.0],[616907.300575,9763248.0599575,0.0],[616907.2495207,9763248.0509474,0.0],[616907.1988082,9763248.0401785,0.0],[616907.1484982,9763248.0276635,0.0],[616907.0986506,9763248.0134174,0.0],[616907.0493252,9763247.9974572,0.0],[616907.0005808,9763247.979802,0.0],[616906.9524755,9763247.9604729,0.0],[616906.905067,9763247.939493,0.0],[616906.8584118,9763247.9168873,0.0],[616906.8125656,9763247.8926829,0.0],[616906.7675833,9763247.8669086,0.0],[616906.7235185,9763247.8395952,0.0],[616906.6804239,9763247.8107754,0.0],[616906.6383509,9763247.7804836,0.0],[616906.5973499,9763247.748756,0.0],[616906.5574698,9763247.7156305,0.0],[616906.5187582,9763247.6811466,0.0],[616906.4812614,9763247.6453455,0.0],[616906.4450242,9763247.60827,0.0],[616906.4100898,9763247.5699645,0.0],[616906.3765001,9763247.5304745,0.0],[616906.344295,9763247.4898475,0.0],[616906.3135132,9763247.4481317,0.0],[616906.2841913,9763247.4053772,0.0],[616906.2563643,9763247.3616349,0.0],[616906.2300656,9763247.3169571,0.0],[616906.2053266,9763247.2713972,0.0],[616906.1821767,9763247.2250096,0.0],[616906.1606437,9763247.1778497,0.0],[616906.1407532,9763247.1299739,0.0],[616906.1225291,9763247.0814393,0.0],[616906.105993,9763247.0323039,0.0],[616884.051607,9763254.0325961,0.0],[616884.0662679,9763254.081676,0.0],[616884.0792444,9763254.1312279,0.0],[616884.0905216,9763254.181194,0.0],[616884.1000861,9763254.231516,0.0],[616884.1079269,9763254.2821352,0.0],[616884.1140348,9763254.3329926,0.0],[616884.1184026,9763254.3840289,0.0],[616884.1210254,9763254.4351846,0.0],[616884.1219,9763254.4864,0.0],[616884.1210075,9763254.5381378,0.0],[616884.1183309,9763254.589814,0.0],[616884.1138736,9763254.6413671,0.0],[616884.1076407,9763254.6927359,0.0],[616884.0996398,9763254.7438591,0.0],[616884.0898802,9763254.7946759,0.0],[616884.0783738,9763254.8451258,0.0],[616884.065134,9763254.8951488,0.0],[616884.0501767,9763254.9446854,0.0],[616884.0335198,9763254.9936767,0.0],[616884.0151829,9763255.0420642,0.0],[616883.995188,9763255.0897905,0.0],[616883.9735588,9763255.1367987,0.0],[616883.9503211,9763255.1830329,0.0],[616883.9255025,9763255.2284381,0.0],[616883.8991325,9763255.2729603,0.0],[616883.8712426,9763255.3165464,0.0],[616883.8418659,9763255.3591446,0.0],[616883.8110375,9763255.4007042,0.0],[616883.7787938,9763255.4411757,0.0],[616883.7451735,9763255.480511,0.0],[616883.7102164,9763255.5186633,0.0],[616883.6739641,9763255.5555871,0.0],[616883.6364599,9763255.5912386,0.0],[616883.5977483,9763255.6255752,0.0],[616883.5578753,9763255.6585562,0.0],[616883.5168886,9763255.6901423,0.0],[616883.4748367,9763255.7202958,0.0],[616883.4317699,9763255.748981,0.0],[616883.3877392,9763255.7761637,0.0],[616883.3427972,9763255.8018114,0.0],[616883.2969972,9763255.8258938,0.0],[616883.2503939,9763255.8483822,0.0],[616883.2030426,9763255.8692497,0.0],[616883.1549998,9763255.8884715,0.0],[616883.1063225,9763255.9060249,0.0],[616883.0570688,9763255.9218888,0.0],[616883.0072972,9763255.9360444,0.0],[616882.9570669,9763255.9484749,0.0],[616882.9064378,9763255.9591655,0.0],[616882.8554701,9763255.9681034,0.0],[616882.8042244,9763255.975278,0.0],[616882.7527618,9763255.9806808,0.0],[616882.7011434,9763255.9843054,0.0],[616882.6494307,9763255.9861473,0.0],[616882.5976852,9763255.9862045,0.0],[616882.5459686,9763255.9844769,0.0],[616882.4943423,9763255.9809665,0.0],[616882.4428679,9763255.9756775,0.0],[616882.3916064,9763255.9686162,0.0],[616882.3406191,9763255.959791,0.0],[616882.2899665,9763255.9492124,0.0],[616882.2397088,9763255.936893,0.0],[616882.1899061,9763255.9228474,0.0],[616882.1406174,9763255.9070924,0.0],[616882.0919014,9763255.8896468,0.0],[616882.0438162,9763255.8705312,0.0],[616881.9964189,9763255.8497684,0.0],[616881.949766,9763255.8273832,0.0],[616881.9039129,9763255.8034021,0.0],[616881.8589143,9763255.7778537,0.0],[616881.8148236,9763255.7507685,0.0],[616881.7716934,9763255.7221786,0.0],[616881.729575,9763255.6921181,0.0],[616881.6885185,9763255.6606227,0.0],[616881.6485728,9763255.62773,0.0],[616881.6097853,9763255.593479,0.0],[616881.5722024,9763255.5579106,0.0],[616881.5358686,9763255.521067,0.0],[616881.5008272,9763255.4829921,0.0],[616881.4671199,9763255.4437312,0.0],[616881.4347869,9763255.4033311,0.0],[616881.4038666,9763255.3618397,0.0],[616860.2190334,9763270.5880603,0.0],[616860.2486064,9763270.6307466,0.0],[616860.2766842,9763270.6744311,0.0],[616860.3032331,9763270.7190613,0.0],[616860.3282212,9763270.7645837,0.0],[616860.3516185,9763270.8109438,0.0],[616860.3733971,9763270.858086,0.0],[616860.3935309,9763270.9059538,0.0],[616860.4119956,9763270.9544898,0.0],[616860.4287692,9763271.0036359,0.0],[616860.4438317,9763271.0533332,0.0],[616860.4571648,9763271.103522,0.0],[616860.4687526,9763271.1541423,0.0],[616860.4785814,9763271.2051334,0.0],[616860.4866392,9763271.2564342,0.0],[616860.4929164,9763271.3079831,0.0],[616860.4974055,9763271.3597184,0.0],[616860.5001011,9763271.4115781,0.0],[616860.501,9763271.4635,0.0],[616860.5001145,9763271.5150325,0.0],[616860.4974592,9763271.5665042,0.0],[616860.4930371,9763271.6178542,0.0],[616860.4868535,9763271.669022,0.0],[616860.4789157,9763271.7199472,0.0],[616860.469233,9763271.7705696,0.0],[616860.4578169,9763271.8208295,0.0],[616860.4446809,9763271.8706675,0.0],[616860.4298405,9763271.9200248,0.0],[616860.4133131,9763271.9688432,0.0],[616860.3951183,9763272.0170649,0.0],[616860.3752777,9763272.064633,0.0],[616860.3538145,9763272.1114915,0.0],[616860.3307542,9763272.1575849,0.0],[616860.3061239,9763272.2028589,0.0],[616860.2799528,9763272.24726,0.0],[616860.2522718,9763272.2907358,0.0],[616860.2231134,9763272.3332349,0.0],[616860.1925123,9763272.3747072,0.0],[616860.1605044,9763272.4151037,0.0],[616860.1271276,9763272.4543767,0.0],[616860.0924212,9763272.4924799,0.0],[616860.0564264,9763272.5293683,0.0],[616860.0191854,9763272.5649983,0.0],[616859.9807424,9763272.5993278,0.0],[616884.1347476,9763300.6013722,0.0],[616884.1744328,9763300.5683149,0.0],[616884.2152325,9763300.5366435,0.0],[616884.2570985,9763300.5063955,0.0],[616884.299981,9763300.4776068,0.0],[616884.3438292,9763300.4503115,0.0],[616884.3885912,9763300.424542,0.0],[616884.4342138,9763300.4003289,0.0],[616884.480643,9763300.3777008,0.0],[616884.5278237,9763300.3566846,0.0],[616884.5757,9763300.3373052,0.0],[616884.6242151,9763300.3195856,0.0],[616884.6733115,9763300.3035468,0.0],[616884.7229309,9763300.2892078,0.0],[616884.7730147,9763300.2765855,0.0],[616884.8235033,9763300.2656951,0.0],[616884.8743368,9763300.2565493,0.0],[616884.9254552,9763300.2491591,0.0],[616884.9767976,9763300.2435331,0.0],[616885.0283033,9763300.2396781,0.0],[616885.0799112,9763300.2375986,0.0],[616885.1315601,9763300.2372971,0.0],[616885.1831888,9763300.238774,0.0],[616885.234736,9763300.2420275,0.0],[616885.2861406,9763300.2470537,0.0],[616885.3373418,9763300.2538467,0.0],[616885.3882787,9763300.2623984,0.0],[616885.4388909,9763300.2726987,0.0],[616885.4891186,9763300.2847354,0.0],[616885.5389021,9763300.2984942,0.0],[616885.5881823,9763300.3139588,0.0],[616885.636901,9763300.3311108,0.0],[616885.6850002,9763300.34993,0.0],[616885.7324231,9763300.370394,0.0],[616885.7791133,9763300.3924785,0.0],[616885.8250154,9763300.4161574,0.0],[616885.8700752,9763300.4414026,0.0],[616885.9142391,9763300.4681841,0.0],[616885.9574547,9763300.4964702,0.0],[616885.999671,9763300.5262274,0.0],[616886.0408377,9763300.5574204,0.0],[616886.0809061,9763300.5900121,0.0],[616886.1198286,9763300.6239641,0.0],[616886.1575592,9763300.6592359,0.0],[616886.1940531,9763300.6957858,0.0],[616886.229267,9763300.7335705,0.0],[616886.2631592,9763300.7725451,0.0],[616886.2956894,9763300.8126634,0.0],[616886.3268192,9763300.8538779,0.0],[616886.3565116,9763300.8961397,0.0]]]]}},
{"type":"Feature","properties":{"name":"0","status":"STATUS INCIERTO","zona":2,"cod_ant":null,"cod_act":null,"ref":"TERRENO PARA ARRIENDO","area_const":0.0,"area_terr":1949.23,"fecha_venc":"STATUS INCIERTO"},"geometry":{"type":"MultiPolygon","coordinates":[[[[616469.0928168,9762139.3837417,0.0],[616483.3723356,9762106.1794746,0.0],[616468.1500839,9762099.6919742,0.0],[616466.7097175,9762095.3480353,0.0],[616460.5536269,9762092.7836291,0.0],[616458.668361,9762093.3394803,0.0],[616456.599606,9762097.1379987,0.0],[616450.7131505,9762105.577099,0.0],[616403.6801101,9762131.9952501,0.0],[616414.7855564,9762138.220963,0.0],[616469.0928168,9762139.3837417,0.0]]]]}},
{"type":"Feature","properties":{"name":"3H","status":"G.ADM AFIRMA QUE SÍ TIENE","zona":3,"cod_ant":"41","cod_act":"3H","ref":"CONDUESPOL","area_const":2044.78,"area_terr":6936.74,"fecha_venc":"PEDIR GADM"},"geometry":{"type":"MultiPolygon","coordinates":[[[[616145.0399161,9762052.7788572,0.0],[616083.530147,9762052.8264863,0.0],[616083.641524,9762080.8553155,0.0],[616144.9974519,9762080.9003629,0.0],[616145.0399161,9762052.7788572,0.0]]],[[[616235.3894584,9762214.4167391,0.0],[616158.6021043,9762214.3374931,0.0],[616158.6031373,9762232.263748,0.0],[616169.3220056,9762232.3063153,0.0],[616169.3692222,9762224.2055347,0.0],[616235.3144492,9762224.2116312,0.0],[616235.3894584,9762214.4167391,0.0]]],[[[615781.7648673,9761854.2396717,0.0],[615777.8700945,9761860.5966533,0.0],[615779.8846408,9761959.4057592,0.0],[615793.8415921,9761972.5611369,0.0],[615815.8597948,9761967.885,0.0],[615822.1451429,9761959.0504469,0.0],[615819.4143231,9761837.3175589,0.0],[615781.7648673,9761838.3919748,0.0],[615781.7648673,9761854.2396717,0.0]]],[[[616234.5441803,9762225.0011136,0.0],[616170.1165087,9762226.0319785,0.0],[616170.1165087,9762233.0712408,0.0],[616158.8039855,9762233.0157873,0.0],[616141.0581319,9762231.9621276,0.0],[616127.4437296,9762235.0676531,0.0],[616121.5931444,9762239.9754893,0.0],[616119.6521927,9762244.8001451,0.0],[616122.0090636,9762250.0407166,0.0],[616127.4991867,9762251.2330102,0.0],[616175.7734613,9762239.9754893,0.0],[616182.3449744,9762239.365472,0.0],[616196.8466616,9762240.8627812,0.0],[616211.1542685,9762239.5595736,0.0],[616234.5288826,9762233.0435141,0.0],[616234.5441803,9762225.0011136,0.0]]]]}}
]
}
