{
"type": "FeatureCollection",
"name": "camaras",
"crs": { "type": "name", "properties": { "name": "urn:ogc:def:crs:EPSG::32717" } },
"xy_coordinate_resolution": 1e-07,
"features": [
{"type":"Feature","properties":{"Layer":"CAMARAS"},"geometry":{"type":"MultiPolygon","coordinates":[[[[617416.8008974,9762876.4794734,0.0],[617420.1595779,9762879.8381539,0.0],[617423.2290289,9762876.7687028,0.0],[617419.8703485,9762873.4100223,0.0],[617416.8008974,9762876.4794734,0.0]]]]}},
{"type":"Feature","properties":{"Layer":"CAMARAS"},"geometry":{"type":"MultiPolygon","coordinates":[[[[617309.4637716,9762760.8342161,0.0],[617312.8224521,9762764.1928966,0.0],[617315.8919032,9762761.1234455,0.0],[617312.5332227,9762757.764765,0.0],[617309.4637716,9762760.8342161,0.0]]]]}},
{"type":"Feature","properties":{"Layer":"CAMARAS"},"geometry":{"type":"MultiPolygon","coordinates":[[[[617189.6162703,9762631.7833733,0.0],[617192.9749508,9762635.1420537,0.0],[617196.0444019,9762632.0726026,0.0],[617192.6857214,9762628.7139222,0.0],[617189.6162703,9762631.7833733,0.0]]]]}},
{"type":"Feature","properties":{"Layer":"CAMARAS"},"geometry":{"type":"MultiPolygon","coordinates":[[[[617018.1694444,9762504.5711588,0.0],[617022.8487054,9762505.3872381,0.0],[617023.5945088,9762501.1109269,0.0],[617018.9152478,9762500.2948476,0.0],[617018.1694444,9762504.5711588,0.0]]]]}},
{"type":"Feature","properties":{"Layer":"CAMARAS"},"geometry":{"type":"MultiPolygon","coordinates":[[[[616650.2595434,9762448.0087397,0.0],[616654.9388044,9762448.824819,0.0],[616655.6846079,9762444.5485078,0.0],[616651.0053469,9762443.7324285,0.0],[616650.2595434,9762448.0087397,0.0]]]]}},
{"type":"Feature","properties":{"Layer":"CAMARAS"},"geometry":{"type":"MultiPolygon","coordinates":[[[[615915.1278917,9762582.2235582,0.0],[615918.9514279,9762585.0417208,0.0],[615921.5269072,9762581.5474446,0.0],[615917.703371,9762578.729282,0.0],[615915.1278917,9762582.2235582,0.0]]]]}},
{"type":"Feature","properties":{"Layer":"CAMARAS"},"geometry":{"type":"MultiPolygon","coordinates":[[[[615907.0755938,9762573.8243501,0.0],[615910.2744245,9762577.3356107,0.0],[615913.4833165,9762574.4122441,0.0],[615910.2844858,9762570.9009835,0.0],[615907.0755938,9762573.8243501,0.0]]]]}},
{"type":"Feature","properties":{"Layer":"CAMARAS"},"geometry":{"type":"MultiPolygon","coordinates":[[[[616229.493206,9762165.0619157,0.0],[616232.6598004,9762165.0619157,0.0],[616232.6598004,9762162.1680094,0.0],[616229.493206,9762162.1680094,0.0],[616229.493206,9762165.0619157,0.0]]]]}},
{"type":"Feature","properties":{"Layer":"CAMARAS"},"geometry":{"type":"MultiPolygon","coordinates":[[[[616230.5464215,9762160.3416913,0.0],[616230.5464215,9762163.5082856,0.0],[616233.4403277,9762163.5082856,0.0],[616233.4403277,9762160.3416913,0.0],[616230.5464215,9762160.3416913,0.0]]]]}},
{"type":"Feature","properties":{"Layer":"CAMARAS"},"geometry":{"type":"MultiPolygon","coordinates":[[[[616151.8447287,9762156.6240517,0.0],[616151.8447287,9762161.3739432,0.0],[616156.1855881,9762161.3739432,0.0],[616156.1855881,9762156.6240517,0.0],[616151.8447287,9762156.6240517,0.0]]]]}},
{"type":"Feature","properties":{"Layer":"CAMARAS"},"geometry":{"type":"MultiPolygon","coordinates":[[[[616078.0100685,9762074.2819786,0.0],[616078.0100685,9762079.0318701,0.0],[616082.3509278,9762079.0318701,0.0],[616082.3509278,9762074.2819786,0.0],[616078.0100685,9762074.2819786,0.0]]]]}},
{"type":"Feature","properties":{"Layer":"CAMARAS"},"geometry":{"type":"MultiPolygon","coordinates":[[[[616055.3058737,9762132.719289,0.0],[616059.2641166,9762132.719289,0.0],[616059.2641166,9762129.1019062,0.0],[616055.3058737,9762129.1019062,0.0],[616055.3058737,9762132.719289,0.0]]]]}},
{"type":"Feature","properties":{"Layer":"CAMARAS"},"geometry":{"type":"MultiPolygon","coordinates":[[[[616060.4949609,9762126.420462,0.0],[616060.4949609,9762130.3787049,0.0],[616064.1123437,9762130.3787049,0.0],[616064.1123437,9762126.420462,0.0],[616060.4949609,9762126.420462,0.0]]]]}},
{"type":"Feature","properties":{"Layer":"CAMARAS"},"geometry":{"type":"MultiPolygon","coordinates":[[[[616060.4773761,9762131.9696093,0.0],[616060.4773761,9762135.9278522,0.0],[616064.0947589,9762135.9278522,0.0],[616064.0947589,9762131.9696093,0.0],[616060.4773761,9762131.9696093,0.0]]]]}},
{"type":"Feature","properties":{"Layer":"CAMARAS"},"geometry":{"type":"MultiPolygon","coordinates":[[[[616060.4773761,9762138.0674631,0.0],[616060.4773761,9762142.025706,0.0],[616064.0947589,9762142.025706,0.0],[616064.0947589,9762138.0674631,0.0],[616060.4773761,9762138.0674631,0.0]]]]}},
{"type":"Feature","properties":{"Layer":"CAMARAS"},"geometry":{"type":"MultiPolygon","coordinates":[[[[615935.1257916,9762138.6165067,0.0],[615935.1257916,9762143.3663982,0.0],[615939.4666509,9762143.3663982,0.0],[615939.4666509,9762138.6165067,0.0],[615935.1257916,9762138.6165067,0.0]]]]}},
{"type":"Feature","properties":{"Layer":"CAMARAS"},"geometry":{"type":"MultiPolygon","coordinates":[[[[615917.5433057,9762236.4822739,0.0],[615917.5433057,9762239.6488682,0.0],[615920.437212,9762239.6488682,0.0],[615920.437212,9762236.4822739,0.0],[615917.5433057,9762236.4822739,0.0]]]]}},
{"type":"Feature","properties":{"Layer":"CAMARAS"},"geometry":{"type":"MultiPolygon","coordinates":[[[[615940.4092195,9762241.4535785,0.0],[615943.5758138,9762241.4535785,0.0],[615943.5758138,9762238.5596723,0.0],[615940.4092195,9762238.5596723,0.0],[615940.4092195,9762241.4535785,0.0]]]]}},
{"type":"Feature","properties":{"Layer":"CAMARAS"},"geometry":{"type":"MultiPolygon","coordinates":[[[[615936.5464215,9762236.4092195,0.0],[615936.5464215,9762239.5758138,0.0],[615939.4403277,9762239.5758138,0.0],[615939.4403277,9762236.4092195,0.0],[615936.5464215,9762236.4092195,0.0]]]]}},
{"type":"Feature","properties":{"Layer":"CAMARAS"},"geometry":{"type":"MultiPolygon","coordinates":[[[[616147.9116222,9762090.41718,0.0],[616152.6615137,9762090.41718,0.0],[616152.6615137,9762086.0763206,0.0],[616147.9116222,9762086.0763206,0.0],[616147.9116222,9762090.41718,0.0]]]]}},
{"type":"Feature","properties":{"Layer":"CAMARAS"},"geometry":{"type":"MultiPolygon","coordinates":[[[[615566.1575271,9762261.3891749,0.0],[615570.0002882,9762262.3383185,0.0],[615570.8676972,9762258.8264728,0.0],[615567.0249361,9762257.8773293,0.0],[615566.1575271,9762261.3891749,0.0]]]]}},
{"type":"Feature","properties":{"Layer":"CAMARAS"},"geometry":{"type":"MultiPolygon","coordinates":[[[[615308.1030094,9762702.7202763,0.0],[615309.1274781,9762706.5436453,0.0],[615312.6216016,9762705.6073977,0.0],[615311.5971329,9762701.7840287,0.0],[615308.1030094,9762702.7202763,0.0]]]]}},
{"type":"Feature","properties":{"Layer":"CAMARAS"},"geometry":{"type":"MultiPolygon","coordinates":[[[[615307.1995659,9762697.4321688,0.0],[615308.2240346,9762701.2555378,0.0],[615311.718158,9762700.3192902,0.0],[615310.6936894,9762696.4959212,0.0],[615307.1995659,9762697.4321688,0.0]]]]}},
{"type":"Feature","properties":{"Layer":"CAMARAS"},"geometry":{"type":"MultiPolygon","coordinates":[[[[615309.4630769,9762708.2311387,0.0],[615310.4875455,9762712.0545078,0.0],[615313.981669,9762711.1182602,0.0],[615312.9572003,9762707.2948912,0.0],[615309.4630769,9762708.2311387,0.0]]]]}},
{"type":"Feature","properties":{"Layer":"CAMARAS"},"geometry":{"type":"MultiPolygon","coordinates":[[[[615124.2345661,9762790.8066139,0.0],[615125.4639285,9762795.3946567,0.0],[615129.6568766,9762794.2711597,0.0],[615128.4275143,9762789.6831168,0.0],[615124.2345661,9762790.8066139,0.0]]]]}},
{"type":"Feature","properties":{"Layer":"CAMARAS"},"geometry":{"type":"MultiPolygon","coordinates":[[[[615121.5168763,9762762.9409779,0.0],[615126.1049191,9762761.7116155,0.0],[615124.981422,9762757.5186673,0.0],[615120.3933792,9762758.7480297,0.0],[615121.5168763,9762762.9409779,0.0]]]]}},
{"type":"Feature","properties":{"Layer":"CAMARAS"},"geometry":{"type":"MultiPolygon","coordinates":[[[[615114.0681361,9762727.685152,0.0],[615118.656179,9762726.4557897,0.0],[615117.5326819,9762722.2628415,0.0],[615112.9446391,9762723.4922039,0.0],[615114.0681361,9762727.685152,0.0]]]]}},
{"type":"Feature","properties":{"Layer":"CAMARAS"},"geometry":{"type":"MultiPolygon","coordinates":[[[[615065.0666983,9762793.2929786,0.0],[615065.8862732,9762796.3516738,0.0],[615068.681572,9762795.6026758,0.0],[615067.8619971,9762792.5439805,0.0],[615065.0666983,9762793.2929786,0.0]]]]}},
{"type":"Feature","properties":{"Layer":"CAMARAS"},"geometry":{"type":"MultiPolygon","coordinates":[[[[615064.0282841,9762788.6583253,0.0],[615064.847859,9762791.7170205,0.0],[615067.6431578,9762790.9680225,0.0],[615066.8235829,9762787.9093273,0.0],[615064.0282841,9762788.6583253,0.0]]]]}},
{"type":"Feature","properties":{"Layer":"CAMARAS"},"geometry":{"type":"MultiPolygon","coordinates":[[[[615067.4257807,9762792.9121672,0.0],[615070.4844759,9762792.0925923,0.0],[615069.7354779,9762789.2972935,0.0],[615066.6767827,9762790.1168684,0.0],[615067.4257807,9762792.9121672,0.0]]]]}},
{"type":"Feature","properties":{"Layer":"CAMARAS"},"geometry":{"type":"MultiPolygon","coordinates":[[[[615062.1892652,9762737.5290975,0.0],[615065.2479604,9762736.7095226,0.0],[615064.4989623,9762733.9142238,0.0],[615061.4402671,9762734.7337987,0.0],[615062.1892652,9762737.5290975,0.0]]]]}},
{"type":"Feature","properties":{"Layer":"CAMARAS"},"geometry":{"type":"MultiPolygon","coordinates":[[[[615052.7945039,9762717.6765655,0.0],[615051.974929,9762714.6178703,0.0],[615049.1796302,9762715.3668684,0.0],[615049.9992051,9762718.4255636,0.0],[615052.7945039,9762717.6765655,0.0]]]]}},
{"type":"Feature","properties":{"Layer":"CAMARAS"},"geometry":{"type":"MultiPolygon","coordinates":[[[[615029.7331676,9762683.56405,0.0],[615032.6741096,9762682.3900909,0.0],[615031.6012448,9762679.7024052,0.0],[615028.6603029,9762680.8763643,0.0],[615029.7331676,9762683.56405,0.0]]]]}},
{"type":"Feature","properties":{"Layer":"CAMARAS"},"geometry":{"type":"MultiPolygon","coordinates":[[[[614998.8614676,9762541.53975,0.0],[615001.8024096,9762540.3657909,0.0],[615000.7295448,9762537.6781052,0.0],[614997.7886029,9762538.8520643,0.0],[614998.8614676,9762541.53975,0.0]]]]}},
{"type":"Feature","properties":{"Layer":"CAMARAS"},"geometry":{"type":"MultiPolygon","coordinates":[[[[615011.0785277,9762553.9516939,0.0],[615010.2589528,9762550.8929987,0.0],[615007.463654,9762551.6419967,0.0],[615008.2832289,9762554.7006919,0.0],[615011.0785277,9762553.9516939,0.0]]]]}},
{"type":"Feature","properties":{"Layer":"CAMARAS"},"geometry":{"type":"MultiPolygon","coordinates":[[[[614985.4170243,9762905.6998898,0.0],[614987.4244152,9762910.0047534,0.0],[614991.3585698,9762908.170227,0.0],[614989.3511789,9762903.8653634,0.0],[614985.4170243,9762905.6998898,0.0]]]]}},
{"type":"Feature","properties":{"Layer":"CAMARAS"},"geometry":{"type":"MultiPolygon","coordinates":[[[[614948.7222045,9762826.5162562,0.0],[614945.7465792,9762827.5992952,0.0],[614946.7363535,9762830.3186776,0.0],[614949.7119788,9762829.2356385,0.0],[614948.7222045,9762826.5162562,0.0]]]]}},
{"type":"Feature","properties":{"Layer":"CAMARAS"},"geometry":{"type":"MultiPolygon","coordinates":[[[[614948.8310678,9762829.0472742,0.0],[614950.1693284,9762831.9171832,0.0],[614952.7920982,9762830.6941656,0.0],[614951.4538376,9762827.8242565,0.0],[614948.8310678,9762829.0472742,0.0]]]]}},
{"type":"Feature","properties":{"Layer":"CAMARAS"},"geometry":{"type":"MultiPolygon","coordinates":[[[[614951.879478,9762835.7915957,0.0],[614954.8551033,9762834.7085566,0.0],[614953.8653291,9762831.9891743,0.0],[614950.8897038,9762833.0722133,0.0],[614951.879478,9762835.7915957,0.0]]]]}},
{"type":"Feature","properties":{"Layer":"CAMARAS"},"geometry":{"type":"MultiPolygon","coordinates":[[[[614888.8883659,9762740.8168556,0.0],[614885.5296854,9762744.175536,0.0],[614888.5991365,9762747.2449871,0.0],[614891.9578169,9762743.8863067,0.0],[614888.8883659,9762740.8168556,0.0]]]]}},
{"type":"Feature","properties":{"Layer":"CAMARAS"},"geometry":{"type":"MultiPolygon","coordinates":[[[[614866.0023085,9762678.909996,0.0],[614868.9779338,9762677.8269569,0.0],[614867.9881596,9762675.1075746,0.0],[614865.0125343,9762676.1906137,0.0],[614866.0023085,9762678.909996,0.0]]]]}},
{"type":"Feature","properties":{"Layer":"CAMARAS"},"geometry":{"type":"MultiPolygon","coordinates":[[[[614867.1744088,9762677.688232,0.0],[614868.757706,9762680.4305831,0.0],[614871.2639023,9762678.98363,0.0],[614869.6806051,9762676.2412789,0.0],[614867.1744088,9762677.688232,0.0]]]]}},
{"type":"Feature","properties":{"Layer":"CAMARAS"},"geometry":{"type":"MultiPolygon","coordinates":[[[[614859.1874213,9762615.2745729,0.0],[614858.1043823,9762612.2989476,0.0],[614855.3849999,9762613.2887219,0.0],[614856.468039,9762616.2643472,0.0],[614859.1874213,9762615.2745729,0.0]]]]}},
{"type":"Feature","properties":{"Layer":"CAMARAS"},"geometry":{"type":"MultiPolygon","coordinates":[[[[614853.436281,9762607.4718876,0.0],[614854.5193201,9762610.4475129,0.0],[614857.2387024,9762609.4577387,0.0],[614856.1556634,9762606.4821134,0.0],[614853.436281,9762607.4718876,0.0]]]]}},
{"type":"Feature","properties":{"Layer":"CAMARAS"},"geometry":{"type":"MultiPolygon","coordinates":[[[[614800.9646085,9762646.291896,0.0],[614803.9402338,9762645.2088569,0.0],[614802.9504596,9762642.4894746,0.0],[614799.9748343,9762643.5725137,0.0],[614800.9646085,9762646.291896,0.0]]]]}},
{"type":"Feature","properties":{"Layer":"CAMARAS"},"geometry":{"type":"MultiPolygon","coordinates":[[[[614841.2039957,9762802.0002986,0.0],[614836.924384,9762804.0609762,0.0],[614838.8076084,9762807.9720535,0.0],[614843.0872202,9762805.9113758,0.0],[614841.2039957,9762802.0002986,0.0]]]]}},
{"type":"Feature","properties":{"Layer":"CAMARAS"},"geometry":{"type":"MultiPolygon","coordinates":[[[[614882.2600379,9762846.0577733,0.0],[614885.3187331,9762845.2381984,0.0],[614884.5697351,9762842.4428996,0.0],[614881.5110398,9762843.2624746,0.0],[614882.2600379,9762846.0577733,0.0]]]]}},
{"type":"Feature","properties":{"Layer":"CAMARAS"},"geometry":{"type":"MultiPolygon","coordinates":[[[[614906.0637417,9762936.1259865,0.0],[614903.0521315,9762937.1045179,0.0],[614903.9463977,9762939.8567863,0.0],[614906.9580079,9762938.8782548,0.0],[614906.0637417,9762936.1259865,0.0]]]]}},
{"type":"Feature","properties":{"Layer":"CAMARAS"},"geometry":{"type":"MultiPolygon","coordinates":[[[[614909.0979545,9762929.8924525,0.0],[614910.023777,9762932.9206817,0.0],[614912.7912333,9762932.0745854,0.0],[614911.8654108,9762929.0463562,0.0],[614909.0979545,9762929.8924525,0.0]]]]}},
{"type":"Feature","properties":{"Layer":"CAMARAS"},"geometry":{"type":"MultiPolygon","coordinates":[[[[614711.5196415,9762821.6598797,0.0],[614712.3444515,9762826.3376096,0.0],[614716.6193635,9762825.5838273,0.0],[614715.7945535,9762820.9060974,0.0],[614711.5196415,9762821.6598797,0.0]]]]}},
{"type":"Feature","properties":{"Layer":"CAMARAS"},"geometry":{"type":"MultiPolygon","coordinates":[[[[617432.655149,9762884.2767088,0.0],[617435.8217433,9762884.2767088,0.0],[617435.8217433,9762881.3828026,0.0],[617432.655149,9762881.3828026,0.0],[617432.655149,9762884.2767088,0.0]]]]}},
{"type":"Feature","properties":{"Layer":"CAMARAS"},"geometry":{"type":"MultiPolygon","coordinates":[[[[617431.5685624,9762894.944858,0.0],[617434.7351567,9762894.944858,0.0],[617434.7351567,9762892.0509518,0.0],[617431.5685624,9762892.0509518,0.0],[617431.5685624,9762894.944858,0.0]]]]}},
{"type":"Feature","properties":{"Layer":"CAMARAS"},"geometry":{"type":"MultiPolygon","coordinates":[[[[617415.9301483,9762893.8108402,0.0],[617419.0967426,9762893.8108402,0.0],[617419.0967426,9762890.916934,0.0],[617415.9301483,9762890.916934,0.0],[617415.9301483,9762893.8108402,0.0]]]]}},
{"type":"Feature","properties":{"Layer":"CAMARAS"},"geometry":{"type":"MultiPolygon","coordinates":[[[[617428.2180245,9762901.5863398,0.0],[617431.3846188,9762901.5863398,0.0],[617431.3846188,9762898.6924336,0.0],[617428.2180245,9762898.6924336,0.0],[617428.2180245,9762901.5863398,0.0]]]]}},
{"type":"Feature","properties":{"Layer":"CAMARAS"},"geometry":{"type":"MultiPolygon","coordinates":[[[[617423.1900817,9762898.9314638,0.0],[617426.356676,9762898.9314638,0.0],[617426.356676,9762896.0375575,0.0],[617423.1900817,9762896.0375575,0.0],[617423.1900817,9762898.9314638,0.0]]]]}},
{"type":"Feature","properties":{"Layer":"CAMARAS"},"geometry":{"type":"MultiPolygon","coordinates":[[[[617425.1158996,9762898.9734566,0.0],[617428.2824939,9762898.9734566,0.0],[617428.2824939,9762896.0795503,0.0],[617425.1158996,9762896.0795503,0.0],[617425.1158996,9762898.9734566,0.0]]]]}},
{"type":"Feature","properties":{"Layer":"CAMARAS"},"geometry":{"type":"MultiPolygon","coordinates":[[[[617411.3109304,9762906.162621,0.0],[617414.4775247,9762906.162621,0.0],[617414.4775247,9762903.2687148,0.0],[617411.3109304,9762903.2687148,0.0],[617411.3109304,9762906.162621,0.0]]]]}},
{"type":"Feature","properties":{"Layer":"CAMARAS"},"geometry":{"type":"MultiPolygon","coordinates":[[[[617421.8115867,9762910.8301127,0.0],[617424.978181,9762910.8301127,0.0],[617424.978181,9762907.9362064,0.0],[617421.8115867,9762907.9362064,0.0],[617421.8115867,9762910.8301127,0.0]]]]}}
]
}
