{
"type": "FeatureCollection",
"name": "ciclovia_proy",
"crs": { "type": "name", "properties": { "name": "urn:ogc:def:crs:EPSG::32717" } },
"xy_coordinate_resolution": 1e-07,
"features": [
{"type":"Feature","properties":{"Layer":"CICLOVIA PROYECTADA"},"geometry":{"type":"MultiLineString","coordinates":[[[615191.7456085,9762424.1861789,0.0],[615119.4296212,9762474.7102773,0.0],[615115.3337746,9762477.577879,0.0],[615111.5566264,9762480.2025294,0.0],[615067.3851298,9762509.956284,0.0]]]}},
{"type":"Feature","properties":{"Layer":"CICLOVIA PROYECTADA"},"geometry":{"type":"MultiLineString","coordinates":[[[615054.4738715,9762517.1916908,0.0],[615050.1047501,9762519.6228999,0.0],[615048.3347847,9762520.5239559,0.0],[615048.2308191,9762520.4939945,0.0],[615035.9625632,9762526.1935237,0.0],[615031.8174698,9762528.0902388,0.0],[615031.4471459,9762528.3035399,0.0],[615024.5446548,9762530.7024617,0.0],[615022.8632902,9762531.3143285,0.0],[615016.8220416,9762533.5128043,0.0],[615013.8255164,9762534.5189899,0.0],[615012.2858422,9762535.090748,0.0],[615009.8029094,9762535.9531438,0.0],[615007.975118,9762536.5879896,0.0],[615005.4492918,9762537.4652835,0.0],[615002.7288626,9762538.2121391,0.0],[614992.3076394,9762540.6075978,0.0],[614982.2110409,9762542.9392669,0.0],[614979.3005539,9762543.5813815,0.0],[614972.9858848,9762544.9062012,0.0],[614970.4605498,9762545.4135181,0.0],[614967.5343499,9762545.7878539,0.0],[614965.0769956,9762546.1163881,0.0],[614957.2228945,9762547.1530566,0.0],[614953.8177225,9762547.5700047,0.0],[614951.0514893,9762547.9404823,0.0],[614947.0567202,9762548.1136748,0.0],[614945.9339531,9762548.1623522,0.0],[614945.3333779,9762548.1598991,0.0],[614942.3806101,9762548.2889593,0.0],[614939.9369242,9762548.3957685,0.0],[614937.18167,9762548.5161957,0.0],[614934.7145958,9762548.6059016,0.0],[614932.579878,9762548.6951043,0.0],[614930.4388782,9762548.7845695,0.0],[614926.9633333,9762548.8999002,0.0],[614924.1572799,9762548.7993113,0.0],[614921.7366393,9762548.6655587,0.0],[614917.1975696,9762548.5863653,0.0],[614907.1890165,9762548.0425223,0.0],[614905.0062641,9762547.8384702,0.0],[614899.8266523,9762547.2866035,0.0],[614896.7889397,9762546.9347141,0.0],[614894.7494353,9762546.7182577,0.0],[614891.9372496,9762546.3709811,0.0],[614889.8966558,9762546.1582286,0.0],[614888.3250287,9762545.9757421,0.0],[614884.1887708,9762545.5248585,0.0],[614879.6103755,9762544.7827373,0.0],[614877.1746863,9762544.3878755,0.0],[614875.3390435,9762544.0911162,0.0],[614873.7437744,9762543.7964317,0.0],[614871.7726946,9762543.4802097,0.0],[614869.5002997,9762543.1156474,0.0],[614861.6575967,9762541.8252782,0.0],[614856.481858,9762541.1604762,0.0],[614853.3760033,9762540.8440827,0.0],[614840.7541289,9762539.5241844,0.0],[614833.7710695,9762539.1224636,0.0],[614827.0421815,9762539.0052757,0.0],[614820.9585664,9762539.0096312,0.0],[614815.5631913,9762539.3349588,0.0],[614811.0278438,9762539.7002749,0.0],[614807.2885372,9762540.0213326,0.0],[614797.6647568,9762542.4064676,0.0],[614791.3421399,9762544.2116136,0.0],[614782.5462728,9762547.6076784,0.0],[614778.9046407,9762549.5878173,0.0],[614774.8471355,9762551.5426805,0.0],[614768.7970065,9762555.2401859,0.0],[614761.148865,9762561.3355157,0.0],[614756.8777348,9762565.5022014,0.0],[614751.5113271,9762571.4819209,0.0],[614745.2135625,9762579.3779383,0.0],[614742.3212522,9762583.6969647,0.0],[614740.914457,9762585.8159435,0.0],[614737.4813485,9762591.9194618,0.0],[614735.8164704,9762595.6285423,0.0],[614732.8088281,9762601.890556,0.0],[614728.8016972,9762610.4850367,0.0],[614720.3353508,9762632.7372017,0.0],[614719.4477565,9762635.3124411,0.0]]]}},
{"type":"Feature","properties":{"Layer":"CICLOVIA PROYECTADA"},"geometry":{"type":"MultiLineString","coordinates":[[[614707.3480155,9762699.1385193,0.0],[614707.3368673,9762720.3735147,0.0],[614708.0643946,9762730.5822567,0.0],[614709.765455,9762745.4675287,0.0],[614751.6657407,9762942.8377016,0.0],[614760.518897,9762963.6523472,0.0],[614771.1738642,9762982.5590007,0.0],[614784.8453205,9763001.4798296,0.0],[614790.3232173,9763007.6601604,0.0]]]}},
{"type":"Feature","properties":{"Layer":"CICLOVIA PROYECTADA"},"geometry":{"type":"MultiLineString","coordinates":[[[614799.4619448,9763017.1155906,0.0],[614809.0294993,9763025.1544604,0.0],[614812.5880005,9763028.2103046,0.0],[614816.941689,9763031.2724253,0.0],[614827.7837986,9763038.651224,0.0],[614836.1706299,9763043.4678451,0.0],[614847.3987629,9763049.0384287,0.0],[614871.376968,9763058.659437,0.0],[614880.8307431,9763061.1706265,0.0],[614891.5020439,9763063.9375612,0.0],[614905.0731411,9763066.0388894,0.0],[614914.2623495,9763066.734512,0.0],[614926.7519912,9763067.4888447,0.0],[614935.7698644,9763066.4367149,0.0],[614937.6329846,9763066.0474763,0.0],[614952.0596184,9763062.1144667,0.0],[614957.9558311,9763060.0917509,0.0],[614963.5336239,9763057.8808173,0.0],[614973.8925783,9763052.0674077,0.0],[614981.300312,9763046.953474,0.0],[614988.1861765,9763040.9329687,0.0],[614992.5155997,9763036.7580058,0.0],[614994.7829272,9763034.1654044,0.0],[614996.7578721,9763031.9071767,0.0],[615015.5744178,9763010.3156654,0.0]]]}},
{"type":"Feature","properties":{"Layer":"CICLOVIA PROYECTADA"},"geometry":{"type":"MultiLineString","coordinates":[[[615021.3594225,9763003.586787,0.0],[615031.0200925,9762992.3881441,0.0],[615040.869016,9762980.9598668,0.0],[615044.7861914,9762976.4146476,0.0],[615050.6619732,9762969.5968346,0.0],[615054.5795104,9762965.0519212,0.0],[615058.4970493,9762960.5070093,0.0],[615060.4559256,9762958.2346437,0.0],[615066.4586888,9762951.3134048,0.0],[615067.7320119,9762949.9187682,0.0],[615069.350209,9762948.7092377,0.0],[615074.3088754,9762946.9797569,0.0],[615084.6905221,9762943.343631,0.0],[615090.2053843,9762941.2128663,0.0],[615091.5933104,9762939.413356,0.0],[615096.3533909,9762932.6268534,0.0],[615117.6490213,9762896.4396997,0.0],[615118.7578922,9762893.9158786,0.0],[615119.8414849,9762890.8931229,0.0],[615120.3979555,9762889.0456732,0.0],[615121.4137917,9762886.3679536,0.0],[615122.1100806,9762885.227809,0.0],[615122.6827733,9762884.5167424,0.0],[615124.1216019,9762883.3464663,0.0],[615125.6912279,9762882.104569,0.0],[615126.4734659,9762881.4806133,0.0],[615127.7631854,9762879.9789816,0.0],[615129.2008603,9762878.2086602,0.0],[615130.203466,9762877.5564961,0.0],[615135.0459828,9762878.3071512,0.0],[615139.8992749,9762879.5094642,0.0],[615141.7823497,9762879.8331372,0.0],[615143.5972305,9762879.5842328,0.0],[615146.5246501,9762878.9283257,0.0],[615150.6455924,9762877.6113347,0.0],[615153.452565,9762874.6008655,0.0],[615162.5154974,9762865.2808195,0.0],[615174.908809,9762852.1614352,0.0],[615176.3227147,9762850.746914,0.0],[615178.1716803,9762848.8678622,0.0],[615179.8016092,9762846.7663553,0.0],[615181.6406797,9762844.3961613,0.0],[615186.269474,9762837.8658482,0.0],[615187.4984027,9762836.0706859,0.0],[615188.3227656,9762835.4024544,0.0],[615190.890869,9762834.857339,0.0],[615199.8355349,9762833.8608694,0.0],[615201.3518089,9762833.6919508,0.0],[615204.6968972,9762834.1957828,0.0],[615206.1681168,9762835.3993983,0.0],[615210.7695336,9762840.6057864,0.0],[615213.4184614,9762843.602982,0.0],[615214.7429253,9762845.1015797,0.0],[615217.0096507,9762846.8298324,0.0],[615219.7982766,9762846.7443541,0.0],[615221.4572721,9762845.6404382,0.0],[615225.6043989,9762838.8453671,0.0],[615226.4019736,9762837.8130538,0.0],[615228.1583143,9762837.457294,0.0],[615234.7191527,9762836.2785752,0.0]]]}},
{"type":"Feature","properties":{"Layer":"CICLOVIA PROYECTADA"},"geometry":{"type":"MultiLineString","coordinates":[[[615240.9368504,9762837.1451238,0.0],[615251.6149557,9762842.6668793,0.0],[615254.1619409,9762844.2478605,0.0],[615256.7029563,9762845.8426148,0.0],[615259.1211295,9762847.6065177,0.0],[615284.9937069,9762868.2548925,0.0],[615320.0618848,9762896.5130575,0.0],[615341.0606337,9762913.4269762,0.0],[615371.9482591,9762938.2428344,0.0]]]}},
{"type":"Feature","properties":{"Layer":"CICLOVIA PROYECTADA"},"geometry":{"type":"MultiLineString","coordinates":[[[615015.5661873,9763010.3251097,0.0],[615021.3594225,9763003.586787,0.0]]]}},
{"type":"Feature","properties":{"Layer":"CICLOVIA PROYECTADA"},"geometry":{"type":"MultiLineString","coordinates":[[[615234.7191527,9762836.2785752,0.0],[615237.9593592,9762835.8652781,0.0],[615240.9368504,9762837.1451238,0.0]]]}},
{"type":"Feature","properties":{"Layer":"CICLOVIA PROYECTADA"},"geometry":{"type":"MultiLineString","coordinates":[[[614719.4477565,9762635.3124411,0.0],[614716.5787519,9762643.5674963,0.0],[614715.7903869,9762646.1222107,0.0],[614713.5822014,9762655.1607326,0.0],[614711.5578666,9762663.5332694,0.0],[614710.5695832,9762670.0936468,0.0],[614708.9368727,9762681.1588909,0.0],[614708.6797172,9762683.0646158,0.0]]]}},
{"type":"Feature","properties":{"Layer":"CICLOVIA PROYECTADA"},"geometry":{"type":"MultiLineString","coordinates":[[[614708.6797172,9762683.0646158,0.0],[614707.3480155,9762699.1385193,0.0]]]}},
{"type":"Feature","properties":{"Layer":"CICLOVIA PROYECTADA"},"geometry":{"type":"MultiLineString","coordinates":[[[614790.3232173,9763007.6601604,0.0],[614799.4619448,9763017.1155906,0.0]]]}}
]
}
