{
"type": "FeatureCollection",
"name": "ciclovia_pry",
"crs": { "type": "name", "properties": { "name": "urn:ogc:def:crs:OGC:1.3:CRS84" } },
"xy_coordinate_resolution": 1e-07,
"features": [
{"type":"Feature","properties":{"id":null},"geometry":{"type":"MultiLineString","coordinates":[[[-79.9641066,-2.1490771],[-79.9652388,-2.1482864],[-79.965363,-2.1482227],[-79.9655962,-2.1481139],[-79.9657991,-2.1480463],[-79.9660294,-2.147988],[-79.9663517,-2.1479441],[-79.9666695,-2.1479419],[-79.9669268,-2.1479737],[-79.9672188,-2.1480183],[-79.9674981,-2.1480276],[-79.9675663,-2.1480259],[-79.9677411,-2.147982],[-79.9679819,-2.1478424],[-79.9681337,-2.1476792],[-79.9683426,-2.1472649],[-79.9683751,-2.1471693],[-79.9683993,-2.1470737],[-79.9684471,-2.1469061],[-79.968468,-2.1467358],[-79.9684812,-2.1465765],[-79.9684804,-2.1464089],[-79.9684688,-2.1462278],[-79.9684287,-2.1460663],[-79.9683517,-2.1456042],[-79.9681835,-2.1448042],[-79.9680405,-2.1442657],[-79.9679413,-2.1440676],[-79.9678519,-2.1439311],[-79.9677356,-2.1437948],[-79.967646,-2.1437053],[-79.9675184,-2.143597],[-79.9672985,-2.1434445],[-79.9670126,-2.1433363],[-79.9666678,-2.143266],[-79.9665117,-2.1432528],[-79.9664187,-2.1432649],[-79.9661746,-2.143333],[-79.9660256,-2.1434308],[-79.9658936,-2.1435506],[-79.9657105,-2.1437687],[-79.9656533,-2.143833],[-79.9654516,-2.1440649],[-79.9653119,-2.1442347],[-79.965126,-2.1444512],[-79.9648005,-2.1449138],[-79.9646361,-2.1451649],[-79.9645767,-2.1452325],[-79.9644937,-2.1453017],[-79.964326,-2.145388],[-79.9640912,-2.145449],[-79.9639147,-2.145455],[-79.9636695,-2.1454078],[-79.9635018,-2.1452935],[-79.9631752,-2.1450264],[-79.9625627,-2.1445275],[-79.9624274,-2.144422],[-79.9623823,-2.1442297]]]}}
]
}
