{
"type": "FeatureCollection",
"name": "ciclovia_ex",
"crs": { "type": "name", "properties": { "name": "urn:ogc:def:crs:OGC:1.3:CRS84" } },
"xy_coordinate_resolution": 1e-07,
"features": [
{"type":"Feature","properties":{"id":null},"geometry":{"type":"MultiLineString","coordinates":[[[-79.9640143,-2.1488804],[-79.963824,-2.1490364],[-79.9636464,-2.1492133],[-79.963521,-2.1493216],[-79.9633077,-2.1494936],[-79.963052,-2.14971],[-79.9628678,-2.1498754],[-79.9626501,-2.1500732],[-79.9623702,-2.1503353],[-79.9621866,-2.1504985],[-79.9621041,-2.1505568],[-79.9619485,-2.1506287],[-79.9618451,-2.1506612],[-79.9616538,-2.1506743],[-79.9614663,-2.1506381],[-79.9611331,-2.1505425],[-79.9608207,-2.150448],[-79.9605128,-2.1503611],[-79.9601389,-2.1502535],[-79.9599839,-2.1502221],[-79.9598453,-2.1501996],[-79.9596804,-2.1501804],[-79.9595605,-2.1501908],[-79.9593867,-2.1502188],[-79.9592487,-2.1502606],[-79.959081,-2.1503287],[-79.9588451,-2.1504782],[-79.9586725,-2.1506298],[-79.9585367,-2.1507623],[-79.9583646,-2.1509232],[-79.9582354,-2.151026],[-79.958127,-2.1510749],[-79.9580022,-2.1510859],[-79.9574722,-2.1510892],[-79.9573963,-2.1510919],[-79.9572605,-2.151132],[-79.9569768,-2.1512397],[-79.9568168,-2.1512584],[-79.9565583,-2.1512705],[-79.9564258,-2.151298],[-79.9561289,-2.1515337],[-79.9560519,-2.1515403],[-79.9554471,-2.1515447],[-79.9549676,-2.1514474],[-79.9547933,-2.1514216],[-79.9539163,-2.1514287],[-79.9538828,-2.1514579],[-79.9537387,-2.1517057],[-79.9535947,-2.1517392],[-79.953554,-2.1517974]]]}}
]
}
