{
"type": "FeatureCollection",
"name": "comodatos",
"crs": { "type": "name", "properties": { "name": "urn:ogc:def:crs:EPSG::32717" } },
"xy_coordinate_resolution": 1e-07,
"features": [
{"type":"Feature","properties":{"name":"2D","status":null,"zona":2,"cod_ant":null,"cod_act":"2D","ref":"ESPOLTEL","area_const":771.05,"area_terr":2401.33,"fecha_venc":"30 de junio de 2024"},"geometry":{"type":"MultiPolygon","coordinates":[[[[616411.4907462,9762184.909558,0.0],[616411.4896052,9762184.8872267,0.0],[616411.4892439,9762184.8648692,0.0],[616411.4896628,9762184.8425126,0.0],[616411.4908613,9762184.8201843,0.0],[616411.4928379,9762184.7979114,0.0],[616411.4955903,9762184.775721,0.0],[616411.4991152,9762184.7536401,0.0],[616411.5034081,9762184.7316956,0.0],[616411.5084639,9762184.7099142,0.0],[616411.5142765,9762184.6883225,0.0],[616411.5208388,9762184.6669466,0.0],[616411.5281427,9762184.6458127,0.0],[616411.5361794,9762184.6249465,0.0],[616411.5449391,9762184.6043732,0.0],[616411.5544112,9762184.5841181,0.0],[616411.5645841,9762184.5642058,0.0],[616411.5754454,9762184.5446604,0.0],[616411.5869819,9762184.5255058,0.0],[616411.5991796,9762184.5067653,0.0],[616411.6120236,9762184.4884617,0.0],[616411.6254983,9762184.4706173,0.0],[616411.6395872,9762184.4532538,0.0],[616411.6542733,9762184.4363923,0.0],[616411.6695387,9762184.4200534,0.0],[616411.6853647,9762184.404257,0.0],[616411.7017321,9762184.3890222,0.0],[616411.718621,9762184.3743677,0.0],[616411.7360109,9762184.3603113,0.0],[616411.7538805,9762184.34687,0.0],[616411.7722081,9762184.3340603,0.0],[616411.7909714,9762184.3218977,0.0],[616411.8101475,9762184.3103971,0.0],[616411.8297132,9762184.2995724,0.0],[616411.8496446,9762184.2894368,0.0],[616411.8699174,9762184.2800027,0.0],[616411.890507,9762184.2712815,0.0],[616411.9113882,9762184.2632838,0.0],[616411.9325358,9762184.2560195,0.0],[616411.9539239,9762184.2494972,0.0],[616411.9755265,9762184.2437251,0.0],[616411.9973173,9762184.23871,0.0],[616412.0192698,9762184.2344581,0.0],[616412.0413572,9762184.2309747,0.0],[616412.0635527,9762184.2282638,0.0],[616412.0858293,9762184.2263288,0.0],[616412.1081598,9762184.2251721,0.0],[616412.1305171,9762184.2247951,0.0],[616412.1528739,9762184.2251983,0.0],[616412.1752031,9762184.226381,0.0],[616412.1974774,9762184.228342,0.0],[616412.2196697,9762184.2310788,0.0],[616412.2417531,9762184.2345881,0.0],[616412.2637006,9762184.2388656,0.0],[616412.2854855,9762184.2439061,0.0],[616412.3070813,9762184.2497035,0.0],[616412.3284618,9762184.2562507,0.0],[616412.3496008,9762184.2635398,0.0],[616412.3704728,9762184.2715618,0.0],[616412.3910521,9762184.2803071,0.0],[616412.4113139,9762184.2897649,0.0],[616412.4312334,9762184.2999238,0.0],[616412.4507865,9762184.3107713,0.0],[616412.4699492,9762184.3222944,0.0],[616412.4886982,9762184.3344789,0.0],[616412.5070109,9762184.34731,0.0],[616412.5248648,9762184.3607721,0.0],[616412.5422382,9762184.3748489,0.0],[616412.5591099,9762184.3895231,0.0],[616412.5754596,9762184.4047769,0.0],[616412.5912671,9762184.4205918,0.0],[616412.6065134,9762184.4369485,0.0],[616412.6211797,9762184.4538271,0.0],[616412.6352484,9762184.4712071,0.0],[616412.6487022,9762184.4890672,0.0],[616412.6615248,9762184.5073858,0.0],[616412.6737006,9762184.5261406,0.0],[616412.6852147,9762184.5453086,0.0],[616412.6960532,9762184.5648667,0.0],[616412.7062028,9762184.5847909,0.0],[616412.7156512,9762184.6050571,0.0],[616412.7243869,9762184.6256405,0.0],[616412.7323992,9762184.6465162,0.0],[616412.7396784,9762184.6676586,0.0],[616412.7462157,9762184.6890421,0.0],[616412.7520031,9762184.7106407,0.0],[616418.7477055,9762183.2156818,0.0],[616418.7426968,9762183.1939963,0.0],[616418.738444,9762183.1721501,0.0],[616418.7349523,9762183.1501693,0.0],[616418.732226,9762183.1280806,0.0],[616418.7302682,9762183.1059105,0.0],[616418.7290815,9762183.0836858,0.0],[616418.728667,9762183.0614333,0.0],[616418.7290255,9762183.0391798,0.0],[616418.7301565,9762183.0169522,0.0],[616418.7320585,9762182.9947773,0.0],[616418.7347294,9762182.9726817,0.0],[616418.7381658,9762182.9506923,0.0],[616418.7423636,9762182.9288354,0.0],[616418.7473179,9762182.9071374,0.0],[616418.7530225,9762182.8856246,0.0],[616418.7594707,9762182.8643228,0.0],[616418.7666545,9762182.8432577,0.0],[616418.7745655,9762182.8224548,0.0],[616418.783194,9762182.8019391,0.0],[616418.7925297,9762182.7817353,0.0],[616418.8025612,9762182.7618679,0.0],[616418.8132765,9762182.7423608,0.0],[616418.8246626,9762182.7232375,0.0],[616418.8367059,9762182.7045211,0.0],[616418.8493918,9762182.6862341,0.0],[616418.862705,9762182.6683986,0.0],[616418.8766294,9762182.6510361,0.0],[616418.8911483,9762182.6341676,0.0],[616418.9062441,9762182.6178133,0.0],[616418.9218987,9762182.6019931,0.0],[616418.9380932,9762182.586726,0.0],[616418.9548079,9762182.5720303,0.0],[616418.9720229,9762182.5579239,0.0],[616418.9897172,9762182.5444237,0.0],[616419.0078697,9762182.5315461,0.0],[616419.0264583,9762182.5193064,0.0],[616419.0454607,9762182.5077196,0.0],[616419.064854,9762182.4967996,0.0],[616419.0846147,9762182.4865595,0.0],[616419.104719,9762182.4770117,0.0],[616419.1251428,9762182.4681677,0.0],[616419.1458613,9762182.4600382,0.0],[616419.1668496,9762182.452633,0.0],[616419.1880823,9762182.445961,0.0],[616419.209534,9762182.4400302,0.0],[616419.2311786,9762182.4348479,0.0],[616419.25299,9762182.4304202,0.0],[616419.2749421,9762182.4267525,0.0],[616419.2970083,9762182.4238492,0.0],[616419.319162,9762182.4217139,0.0],[616419.3413765,9762182.420349,0.0],[616419.3636249,9762182.4197563,0.0],[616419.3858806,9762182.4199365,0.0],[616419.4081165,9762182.4208893,0.0],[616419.430306,9762182.4226135,0.0],[616419.4524222,9762182.4251072,0.0],[616419.4744385,9762182.4283673,0.0],[616419.4963283,9762182.4323899,0.0],[616419.5180653,9762182.4371701,0.0],[616419.5396231,9762182.4427022,0.0],[616419.5609759,9762182.4489794,0.0],[616419.5820979,9762182.4559943,0.0],[616419.6029635,9762182.4637383,0.0],[616419.6235477,9762182.4722021,0.0],[616419.6438256,9762182.4813756,0.0],[616419.6637728,9762182.4912476,0.0],[616419.6833652,9762182.5018062,0.0],[616419.7025791,9762182.5130387,0.0],[616419.7213914,9762182.5249316,0.0],[616419.7397795,9762182.5374706,0.0],[616419.7577211,9762182.5506404,0.0],[616419.7751946,9762182.5644253,0.0],[616419.7921789,9762182.5788085,0.0],[616419.8086536,9762182.5937728,0.0],[616419.8245988,9762182.6093001,0.0],[616419.8399952,9762182.6253717,0.0],[616421.6501043,9762180.9506004,0.0],[616421.6356073,9762180.9343886,0.0],[616421.6216687,9762180.9176943,0.0],[616421.6083046,9762180.9005366,0.0],[616421.5955303,9762180.8829354,0.0],[616421.5833606,9762180.8649109,0.0],[616421.5718094,9762180.8464839,0.0],[616421.5608901,9762180.8276755,0.0],[616421.5506152,9762180.8085076,0.0],[616421.5409966,9762180.789002,0.0],[616421.5320453,9762180.7691813,0.0],[616421.5237716,9762180.7490683,0.0],[616421.5161852,9762180.7286862,0.0],[616421.5092947,9762180.7080584,0.0],[616421.503108,9762180.6872087,0.0],[616421.4976323,9762180.6661611,0.0],[616421.4928738,9762180.6449398,0.0],[616421.4888381,9762180.6235693,0.0],[616421.4855299,9762180.6020742,0.0],[616421.4829528,9762180.5804792,0.0],[616421.4811099,9762180.5588092,0.0],[616421.4800033,9762180.5370891,0.0],[616421.4796343,9762180.515344,0.0],[616421.4800154,9762180.493247,0.0],[616421.4811581,9762180.4711762,0.0],[616421.483061,9762180.449158,0.0],[616421.485722,9762180.4272184,0.0],[616421.4891379,9762180.4053837,0.0],[616421.4933045,9762180.3836797,0.0],[616421.498217,9762180.3621322,0.0],[616421.5038694,9762180.340767,0.0],[616421.5102551,9762180.3196093,0.0],[616421.5173666,9762180.2986844,0.0],[616421.5251952,9762180.2780171,0.0],[616421.5337318,9762180.257632,0.0],[616421.5429661,9762180.2375534,0.0],[616421.5528872,9762180.2178051,0.0],[616421.5634833,9762180.1984106,0.0],[616421.5747418,9762180.1793929,0.0],[616421.5866493,9762180.1607747,0.0],[616421.5991916,9762180.1425782,0.0],[616421.6123538,9762180.1248249,0.0],[616421.6261204,9762180.107536,0.0],[616421.6404748,9762180.090732,0.0],[616421.6554001,9762180.0744328,0.0],[616421.6708784,9762180.058658,0.0],[616421.6868915,9762180.0434263,0.0],[616421.7034201,9762180.0287556,0.0],[616421.7204448,9762180.0146636,0.0],[616421.7379452,9762180.001167,0.0],[616421.7559006,9762179.9882817,0.0],[616421.7742895,9762179.9760232,0.0],[616421.7930902,9762179.964406,0.0],[616421.8122802,9762179.9534439,0.0],[616421.8318368,9762179.94315,0.0],[616421.8517366,9762179.9335364,0.0],[616421.8719561,9762179.9246147,0.0],[616421.8924712,9762179.9163954,0.0],[616421.9132574,9762179.9088883,0.0],[616421.9342901,9762179.9021024,0.0],[616421.9555443,9762179.8960457,0.0],[616421.9769947,9762179.8907253,0.0],[616421.9986158,9762179.8861477,0.0],[616422.0203818,9762179.8823183,0.0],[616422.0422669,9762179.8792416,0.0],[616422.0642451,9762179.8769213,0.0],[616422.0862902,9762179.8753602,0.0],[616422.108376,9762179.87456,0.0],[616422.1304763,9762179.8745218,0.0],[616422.1525648,9762179.8752456,0.0],[616422.1746152,9762179.8767306,0.0],[616422.1966013,9762179.8789749,0.0],[616422.2184969,9762179.8819759,0.0],[616422.240276,9762179.8857301,0.0],[616422.2619128,9762179.8902329,0.0],[616422.2833814,9762179.8954791,0.0],[616422.3046564,9762179.9014623,0.0],[616422.3257124,9762179.9081755,0.0],[616422.3465245,9762179.9156107,0.0],[616422.3670679,9762179.923759,0.0],[616422.3873181,9762179.9326108,0.0],[616422.407251,9762179.9421555,0.0],[616422.4268431,9762179.9523818,0.0],[616443.2316998,9762141.7153946,0.0],[616443.2126125,9762141.7045817,0.0],[616443.1939065,9762141.6931219,0.0],[616443.1756035,9762141.6810286,0.0],[616443.1577252,9762141.6683161,0.0],[616443.1402925,9762141.6549991,0.0],[616443.1233257,9762141.6410932,0.0],[616443.1068448,9762141.6266149,0.0],[616443.090869,9762141.611581,0.0],[616443.0754171,9762141.5960092,0.0],[616443.0605072,9762141.5799176,0.0],[616443.0461567,9762141.5633253,0.0],[616443.0323825,9762141.5462515,0.0],[616443.0192007,9762141.5287163,0.0],[616443.0066267,9762141.5107402,0.0],[616442.9946753,9762141.4923443,0.0],[616442.9833605,9762141.4735502,0.0],[616442.9726955,9762141.4543799,0.0],[616442.9626929,9762141.4348558,0.0],[616442.9533643,9762141.4150008,0.0],[616442.9447206,9762141.3948382,0.0],[616442.9367721,9762141.3743916,0.0],[616442.929528,9762141.3536849,0.0],[616442.9229969,9762141.3327424,0.0],[616442.9171862,9762141.3115887,0.0],[616442.912103,9762141.2902485,0.0],[616442.907753,9762141.2687468,0.0],[616442.9041415,9762141.2471089,0.0],[616442.9012726,9762141.22536,0.0],[616442.8991498,9762141.2035257,0.0],[616442.8977754,9762141.1816316,0.0],[616442.8971512,9762141.1597032,0.0],[616414.0728581,9762141.4867291,0.0],[616414.0727253,9762141.5089333,0.0],[616414.0718235,9762141.5311195,0.0],[616414.0701536,9762141.5532612,0.0],[616414.0677178,9762141.5753318,0.0],[616414.0645188,9762141.5973047,0.0],[616414.0605607,9762141.6191536,0.0],[616414.055848,9762141.6408523,0.0],[616414.0503865,9762141.6623747,0.0],[616414.0441828,9762141.683695,0.0],[616414.0372442,9762141.7047876,0.0],[616414.0295791,9762141.7256272,0.0],[616414.0211967,9762141.7461888,0.0],[616414.0121071,9762141.7664476,0.0],[616414.0023211,9762141.7863794,0.0],[616413.9918506,9762141.8059603,0.0],[616413.9807081,9762141.8251667,0.0],[616413.9689069,9762141.8439756,0.0],[616413.9564612,9762141.8623644,0.0],[616413.9433861,9762141.8803111,0.0],[616413.929697,9762141.897794,0.0],[616413.9154106,9762141.9147922,0.0],[616413.9005439,9762141.9312854,0.0],[616413.8851148,9762141.9472537,0.0],[616413.8691419,9762141.9626779,0.0],[616413.8526441,9762141.9775395,0.0],[616413.8356415,9762141.9918207,0.0],[616413.8181544,9762142.0055044,0.0],[616413.8002038,9762142.018574,0.0],[616413.7818111,9762142.0310141,0.0],[616413.7629986,9762142.0428095,0.0],[616413.7437888,9762142.0539461,0.0],[616413.7242047,9762142.0644107,0.0],[616413.7042699,9762142.0741905,0.0],[616413.6840083,9762142.0832739,0.0],[616413.6634442,9762142.09165,0.0],[616413.6426022,9762142.0993087,0.0],[616413.6215075,9762142.1062408,0.0],[616413.6001853,9762142.1124381,0.0],[616413.5786612,9762142.117893,0.0],[616413.556961,9762142.122599,0.0],[616413.5351109,9762142.1265504,0.0],[616413.513137,9762142.1297426,0.0],[616413.4910657,9762142.1321717,0.0],[616413.4689235,9762142.1338348,0.0],[616413.446737,9762142.1347299,0.0],[616413.4245328,9762142.1348558,0.0],[616413.4023376,9762142.1342125,0.0],[616413.380178,9762142.1328008,0.0],[616413.3580806,9762142.1306222,0.0],[616413.3360719,9762142.1276795,0.0],[616413.3141783,9762142.1239762,0.0],[616413.2924262,9762142.1195166,0.0],[616413.2708416,9762142.1143063,0.0],[616413.2494504,9762142.1083514,0.0],[616413.2282784,9762142.101659,0.0],[616413.2073509,9762142.0942372,0.0],[616413.1866931,9762142.086095,0.0],[616413.1663297,9762142.077242,0.0],[616413.1462852,9762142.0676889,0.0],[616413.1265837,9762142.0574473,0.0],[616413.1072488,9762142.0465293,0.0],[616413.0883037,9762142.034948,0.0],[616413.0697711,9762142.0227175,0.0],[616413.0516734,9762142.0098523,0.0],[616413.0340321,9762141.9963679,0.0],[616413.0168686,9762141.9822805,0.0],[616413.0002033,9762141.967607,0.0],[616412.9840564,9762141.952365,0.0],[616412.9684471,9762141.9365728,0.0],[616412.9533943,9762141.9202493,0.0],[616412.9389159,9762141.9034143,0.0],[616412.9250295,9762141.8860878,0.0],[616412.9117515,9762141.8682906,0.0],[616412.8990981,9762141.8500442,0.0],[616412.8870843,9762141.8313704,0.0],[616412.8757245,9762141.8122916,0.0],[616412.8650326,9762141.7928308,0.0],[616412.8550211,9762141.7730113,0.0],[616412.8457022,9762141.7528568,0.0],[616412.8370871,9762141.7323917,0.0],[616412.8291861,9762141.7116404,0.0],[616412.8220087,9762141.6906279,0.0],[616412.8155634,9762141.6693793,0.0],[616412.8098581,9762141.6479202,0.0],[616412.8048996,9762141.6262764,0.0],[616412.8006938,9762141.6044738,0.0],[616412.7972458,9762141.5825386,0.0],[616412.7945598,9762141.5604971,0.0],[616412.7926388,9762141.5383758,0.0],[616412.7914853,9762141.5162012,0.0],[616412.7911007,9762141.494,0.0],[616412.7914806,9762141.4719362,0.0],[616412.7926198,9762141.4498985,0.0],[616412.7945171,9762141.4279131,0.0],[616412.7971701,9762141.4060061,0.0],[616412.8005757,9762141.3842034,0.0],[616412.8047299,9762141.3625309,0.0],[616412.8096277,9762141.3410142,0.0],[616412.8152634,9762141.3196789,0.0],[616412.8216302,9762141.2985502,0.0],[616412.8287206,9762141.2776533,0.0],[616412.8365262,9762141.2570128,0.0],[616412.8450378,9762141.2366533,0.0],[616412.8542453,9762141.2165989,0.0],[616412.8641376,9762141.1968733,0.0],[616400.371,9762134.66,0.0],[616399.3947378,9762134.1491834,0.0],[616399.386791,9762134.1701051,0.0],[616399.3781185,9762134.1907365,0.0],[616399.368731,9762134.2110527,0.0],[616399.3586399,9762134.2310286,0.0],[616399.3478574,9762134.2506401,0.0],[616399.3363969,9762134.2698631,0.0],[616399.3242721,9762134.2886743,0.0],[616399.311498,9762134.3070506,0.0],[616399.2980901,9762134.3249698,0.0],[616399.2840647,9762134.3424099,0.0],[616399.2694389,9762134.3593497,0.0],[616399.2542306,9762134.3757685,0.0],[616399.2384583,9762134.3916463,0.0],[616399.2221413,9762134.4069637,0.0],[616399.2052994,9762134.4217021,0.0],[616399.1879532,9762134.4358435,0.0],[616399.1701238,9762134.4493706,0.0],[616399.151833,9762134.462267,0.0],[616399.1331031,9762134.4745169,0.0],[616399.1139569,9762134.4861054,0.0],[616399.0944178,9762134.4970183,0.0],[616399.0745096,9762134.5072424,0.0],[616399.0542565,9762134.5167652,0.0],[616399.0336833,9762134.525575,0.0],[616399.0128151,9762134.5336612,0.0],[616398.9916773,9762134.5410138,0.0],[616398.9702956,9762134.5476239,0.0],[616398.9486962,9762134.5534835,0.0],[616398.9269053,9762134.5585853,0.0],[616398.9049497,9762134.5629233,0.0],[616398.8828559,9762134.566492,0.0],[616398.860651,9762134.5692871,0.0],[616398.8383621,9762134.5713053,0.0],[616398.8160163,9762134.572544,0.0],[616398.7936409,9762134.5730018,0.0],[616398.7712631,9762134.572678,0.0],[616398.7489103,9762134.5715732,0.0],[616398.7266097,9762134.5696886,0.0],[616398.7043884,9762134.5670265,0.0],[616398.6822737,9762134.5635902,0.0],[616398.6602924,9762134.5593839,0.0],[616398.6384714,9762134.5544127,0.0],[616398.6168373,9762134.5486826,0.0],[616398.5954164,9762134.5422007,0.0],[616398.5742349,9762134.5349749,0.0],[616398.5533186,9762134.5270139,0.0],[616398.532693,9762134.5183274,0.0],[616398.5123832,9762134.5089262,0.0],[616398.4924141,9762134.4988215,0.0],[616398.47281,9762134.4880258,0.0],[616398.4535947,9762134.4765522,0.0],[616398.4347918,9762134.4644148,0.0],[616398.4164241,9762134.4516282,0.0],[616398.398514,9762134.4382081,0.0],[616398.3810834,9762134.4241709,0.0],[616398.3641535,9762134.4095337,0.0],[616398.347745,9762134.3943143,0.0],[616398.3318779,9762134.3785312,0.0],[616398.3165715,9762134.3622038,0.0],[616398.3018445,9762134.345352,0.0],[616398.2877149,9762134.3279962,0.0],[616398.2741998,9762134.3101577,0.0],[616398.2613158,9762134.2918582,0.0],[616398.2490786,9762134.27312,0.0],[616398.2375031,9762134.2539659,0.0],[616398.2266034,9762134.2344194,0.0],[616398.2163928,9762134.2145043,0.0],[616398.2068837,9762134.1942448,0.0],[616385.9872536,9762141.7282697,0.0],[616385.9986419,9762141.7474823,0.0],[616386.009354,9762141.7670801,0.0],[616386.0193767,9762141.7870392,0.0],[616386.0286979,9762141.8073354,0.0],[616386.0373062,9762141.8279441,0.0],[616386.0451912,9762141.8488402,0.0],[616386.0523434,9762141.8699984,0.0],[616386.058754,9762141.8913929,0.0],[616386.0644152,9762141.9129977,0.0],[616386.0693203,9762141.9347868,0.0],[616386.0734632,9762141.9567335,0.0],[616386.0768388,9762141.9788112,0.0],[616386.0794432,9762142.0009931,0.0],[616386.0812731,9762142.0232523,0.0],[616386.0823263,9762142.0455617,0.0],[616386.0826015,9762142.0678943,0.0],[616386.0820984,9762142.090223,0.0],[616386.0808177,9762142.1125205,0.0],[616386.0787608,9762142.1347599,0.0],[616386.0759302,9762142.1569141,0.0],[616386.0723295,9762142.1789562,0.0],[616386.0679629,9762142.2008595,0.0],[616386.0628358,9762142.2225973,0.0],[616386.0569544,9762142.2441433,0.0],[616386.0503258,9762142.2654713,0.0],[616386.0429582,9762142.2865554,0.0],[616386.0348604,9762142.3073699,0.0],[616386.0260422,9762142.3278897,0.0],[616386.0165144,9762142.3480898,0.0],[616386.0062886,9762142.3679456,0.0],[616385.9953772,9762142.387433,0.0],[616385.9837934,9762142.4065285,0.0],[616385.9715512,9762142.4252087,0.0],[616385.9586657,9762142.443451,0.0],[616385.9451523,9762142.4612333,0.0],[616385.9310275,9762142.478534,0.0],[616385.9163086,9762142.4953319,0.0],[616385.9010132,9762142.5116069,0.0],[616385.8851601,9762142.527339,0.0],[616385.8687684,9762142.5425092,0.0],[616385.8518582,9762142.557099,0.0],[616385.8344498,9762142.5710908,0.0],[616385.8165645,9762142.5844675,0.0],[616385.798224,9762142.5972129,0.0],[616385.7794505,9762142.6093115,0.0],[616385.7602669,9762142.6207487,0.0],[616385.7406964,9762142.6315105,0.0],[616385.7207628,9762142.6415839,0.0],[616385.7004903,9762142.6509566,0.0],[616385.6799036,9762142.6596172,0.0],[616385.6590276,9762142.6675553,0.0],[616385.6378877,9762142.6747612,0.0],[616385.6165095,9762142.6812262,0.0],[616385.5949191,9762142.6869423,0.0],[616385.5731426,9762142.6919027,0.0],[616385.5512065,9762142.6961013,0.0],[616385.5291374,9762142.699533,0.0],[616385.5069622,9762142.7021937,0.0],[616385.4847077,9762142.7040802,0.0],[616385.462401,9762142.70519,0.0],[616385.4400692,9762142.705522,0.0],[616385.4177394,9762142.7050757,0.0],[616385.3954386,9762142.7038515,0.0],[616385.3731941,9762142.7018512,0.0],[616385.3510328,9762142.6990769,0.0],[616385.3289816,9762142.6955322,0.0],[616385.3070673,9762142.6912213,0.0],[616385.2853165,9762142.6861494,0.0],[616385.2637556,9762142.6803228,0.0],[616385.2424109,9762142.6737484,0.0],[616385.2213082,9762142.6664343,0.0],[616385.2004731,9762142.6583894,0.0],[616385.179931,9762142.6496234,0.0],[616385.1597068,9762142.640147,0.0],[616385.1398251,9762142.6299717,0.0],[616385.1203099,9762142.6191098,0.0],[616385.1011851,9762142.6075745,0.0],[616385.0824739,9762142.5953799,0.0],[616385.0641989,9762142.5825407,0.0],[616385.0463823,9762142.5690725,0.0],[616385.0290458,9762142.5549918,0.0],[616385.0122105,9762142.5403155,0.0],[616384.9958968,9762142.5250616,0.0],[616384.9801244,9762142.5092485,0.0],[616384.9649127,9762142.4928954,0.0],[616383.2837724,9762144.0029336,0.0],[616383.2984048,9762144.0198063,0.0],[616383.3124404,9762144.0371785,0.0],[616383.3258622,9762144.0550293,0.0],[616383.3386538,9762144.0733368,0.0],[616383.3507999,9762144.0920789,0.0],[616383.3622855,9762144.1112328,0.0],[616383.3730968,9762144.1307753,0.0],[616383.3832207,9762144.1506826,0.0],[616383.3926447,9762144.1709306,0.0],[616383.4013576,9762144.1914946,0.0],[616383.4093487,9762144.2123497,0.0],[616383.4166083,9762144.2334705,0.0],[616383.4231276,9762144.2548315,0.0],[616383.4288987,9762144.2764067,0.0],[616383.4339146,9762144.2981698,0.0],[616383.4381691,9762144.3200945,0.0],[616383.4416572,9762144.3421541,0.0],[616383.4443745,9762144.3643218,0.0],[616383.4463178,9762144.3865708,0.0],[616383.4474848,9762144.408874,0.0],[616383.4478739,9762144.4312042,0.0],[616383.4474881,9762144.453437,0.0],[616383.4463314,9762144.4756431,0.0],[616383.444405,9762144.4977957,0.0],[616383.4417113,9762144.5198681,0.0],[616383.4382535,9762144.5418337,0.0],[616383.4340358,9762144.5636662,0.0],[616383.4290633,9762144.5853393,0.0],[616383.4233419,9762144.6068268,0.0],[616383.4168785,9762144.6281029,0.0],[616383.409681,9762144.649142,0.0],[616383.401758,9762144.6699187,0.0],[616383.393119,9762144.6904081,0.0],[616383.3837744,9762144.7105854,0.0],[616383.3737355,9762144.7304265,0.0],[616383.3630144,9762144.7499073,0.0],[616383.3516239,9762144.7690046,0.0],[616383.3395778,9762144.7876951,0.0],[616383.3268905,9762144.8059566,0.0],[616383.3135774,9762144.8237669,0.0],[616383.2996545,9762144.8411047,0.0],[616383.2851385,9762144.8579491,0.0],[616383.2700469,9762144.8742798,0.0],[616383.2543979,9762144.8900771,0.0],[616383.2382103,9762144.905322,0.0],[616383.2215036,9762144.9199963,0.0],[616383.2042979,9762144.9340821,0.0],[616383.1866139,9762144.9475626,0.0],[616383.1684729,9762144.9604215,0.0],[616383.1498967,9762144.9726433,0.0],[616383.1309078,9762144.9842134,0.0],[616383.1115289,9762144.9951179,0.0],[616383.0917834,9762145.0053434,0.0],[616383.0716951,9762145.0148779,0.0],[616383.0512881,9762145.0237098,0.0],[616383.030587,9762145.0318284,0.0],[616383.0096168,9762145.039224,0.0],[616382.9884026,9762145.0458877,0.0],[616382.96697,9762145.0518115,0.0],[616382.9453448,9762145.0569882,0.0],[616382.9235531,9762145.0614116,0.0],[616382.901621,9762145.0650764,0.0],[616382.879575,9762145.0679782,0.0],[616382.8574416,9762145.0701135,0.0],[616382.8352474,9762145.0714796,0.0],[616382.8130192,9762145.072075,0.0],[616382.7907838,9762145.071899,0.0],[616382.7685678,9762145.0709517,0.0],[616382.746398,9762145.0692343,0.0],[616382.7243012,9762145.0667489,0.0],[616382.7023039,9762145.0634985,0.0],[616382.6804326,9762145.0594869,0.0],[616382.6587136,9762145.054719,0.0],[616382.6371731,9762145.0492005,0.0],[616382.615837,9762145.0429381,0.0],[616382.594731,9762145.0359394,0.0],[616382.5738804,9762145.0282127,0.0],[616382.5533105,9762145.0197673,0.0],[616382.5330459,9762145.0106134,0.0],[616382.5131111,9762145.0007621,0.0],[616382.4935299,9762144.9902252,0.0],[616382.4743261,9762144.9790153,0.0],[616382.4555228,9762144.967146,0.0],[616382.4371425,9762144.9546315,0.0],[616382.4192074,9762144.941487,0.0],[616379.8059613,9762148.3803916,0.0],[616379.8231384,9762148.3939128,0.0],[616379.8398443,9762148.408012,0.0],[616379.8560597,9762148.4226727,0.0],[616379.8717657,9762148.4378779,0.0],[616379.886944,9762148.4536099,0.0],[616379.901577,9762148.4698503,0.0],[616379.9156476,9762148.4865804,0.0],[616379.9291394,9762148.5037806,0.0],[616379.9420368,9762148.5214309,0.0],[616379.9543247,9762148.5395108,0.0],[616379.9659889,9762148.5579992,0.0],[616379.9770158,9762148.5768747,0.0],[616379.9873925,9762148.5961153,0.0],[616379.997107,9762148.6156985,0.0],[616380.006148,9762148.6356017,0.0],[616380.014505,9762148.6558016,0.0],[616380.0221682,9762148.6762748,0.0],[616380.0291287,9762148.6969975,0.0],[616380.0353785,9762148.7179454,0.0],[616380.0409102,9762148.7390943,0.0],[616380.0457174,9762148.7604196,0.0],[616380.0497946,9762148.7818963,0.0],[616380.053137,9762148.8034997,0.0],[616380.0557406,9762148.8252045,0.0],[616380.0576025,9762148.8469854,0.0],[616380.0587205,9762148.8688172,0.0],[616380.0590934,9762148.8906744,0.0],[616380.0587063,9762148.9129461,0.0],[616380.0575454,9762148.935191,0.0],[616380.0556123,9762148.9573821,0.0],[616380.0529091,9762148.9794926,0.0],[616380.0494393,9762149.0014958,0.0],[616380.0452069,9762149.0233652,0.0],[616380.040217,9762149.0450743,0.0],[616380.0344758,9762149.0665968,0.0],[616380.0279901,9762149.0879069,0.0],[616380.0207678,9762149.1089786,0.0],[616380.0128176,9762149.1297867,0.0],[616380.0041491,9762149.1503059,0.0],[616379.9947728,9762149.1705116,0.0],[616379.9847,9762149.1903791,0.0],[616379.9739428,9762149.2098846,0.0],[616379.9625144,9762149.2290046,0.0],[616379.9504283,9762149.2477158,0.0],[616379.9376994,9762149.2659957,0.0],[616379.9243429,9762149.2838223,0.0],[616379.910375,9762149.3011739,0.0],[616379.8958125,9762149.3180296,0.0],[616379.8806731,9762149.3343692,0.0],[616379.864975,9762149.3501727,0.0],[616379.8487372,9762149.3654212,0.0],[616379.8319793,9762149.3800961,0.0],[616379.8147216,9762149.3941799,0.0],[616379.7969849,9762149.4076555,0.0],[616379.7787906,9762149.4205065,0.0],[616379.7601607,9762149.4327175,0.0],[616379.7411177,9762149.4442737,0.0],[616379.7216846,9762149.4551612,0.0],[616379.7018849,9762149.4653668,0.0],[616379.6817425,9762149.4748782,0.0],[616379.6612818,9762149.4836839,0.0],[616379.6405274,9762149.4917732,0.0],[616379.6195044,9762149.4991364,0.0],[616379.5982383,9762149.5057646,0.0],[616379.5767547,9762149.5116498,0.0],[616379.5550795,9762149.5167848,0.0],[616379.533239,9762149.5211635,0.0],[616379.5112595,9762149.5247806,0.0],[616379.4891675,9762149.5276317,0.0],[616379.4669899,9762149.5297134,0.0],[616379.4447533,9762149.5310231,0.0],[616379.4224846,9762149.5315593,0.0],[616379.4002107,9762149.5313213,0.0],[616379.3779586,9762149.5303094,0.0],[616379.355755,9762149.5285249,0.0],[616379.3336269,9762149.5259698,0.0],[616379.311601,9762149.5226473,0.0],[616379.2897038,9762149.5185614,0.0],[616379.2679618,9762149.5137171,0.0],[616379.2464013,9762149.5081201,0.0],[616379.2250483,9762149.5017772,0.0],[616379.2039286,9762149.4946961,0.0],[616379.1830678,9762149.4868854,0.0],[616379.162491,9762149.4783544,0.0],[616376.4521073,9762155.7076057,0.0],[616376.4720116,9762155.7166732,0.0],[616376.4915949,9762155.7264146,0.0],[616376.5108345,9762155.7368186,0.0],[616376.5297078,9762155.747873,0.0],[616376.5481929,9762155.759565,0.0],[616376.5662682,9762155.771881,0.0],[616376.5839128,9762155.7848065,0.0],[616376.6011061,9762155.7983267,0.0],[616376.617828,9762155.8124256,0.0],[616376.6340591,9762155.8270869,0.0],[616376.6497804,9762155.8422935,0.0],[616376.6649737,9762155.8580277,0.0],[616376.6796213,9762155.8742712,0.0],[616376.693706,9762155.8910051,0.0],[616376.7072116,9762155.9082098,0.0],[616376.7201222,9762155.9258653,0.0],[616376.7324228,9762155.9439511,0.0],[616376.7440992,9762155.9624461,0.0],[616376.7551376,9762155.9813288,0.0],[616376.7655253,9762156.0005771,0.0],[616376.7752501,9762156.0201687,0.0],[616376.7843008,9762156.0400807,0.0],[616376.7926667,9762156.0602899,0.0],[616376.8003381,9762156.0807729,0.0],[616376.8073062,9762156.1015056,0.0],[616376.8135627,9762156.1224641,0.0],[616376.8191005,9762156.1436239,0.0],[616376.823913,9762156.1649603,0.0],[616376.8279946,9762156.1864485,0.0],[616376.8313406,9762156.2080634,0.0],[616376.8339471,9762156.2297799,0.0],[616376.8358111,9762156.2515728,0.0],[616376.8369303,9762156.2734165,0.0],[616376.8373036,9762156.2952857,0.0],[616376.8369183,9762156.3175049,0.0],[616376.8357629,9762156.3396974,0.0],[616376.8338389,9762156.3618365,0.0],[616376.8311485,9762156.3838956,0.0],[616376.8276949,9762156.4058481,0.0],[616376.8234823,9762156.4276677,0.0],[616376.8185159,9762156.4493282,0.0],[616376.8128014,9762156.4708034,0.0],[616376.8063459,9762156.4920676,0.0],[616376.799157,9762156.5130953,0.0],[616376.7912435,9762156.533861,0.0],[616376.7826148,9762156.55434,0.0],[616376.7732813,9762156.5745074,0.0],[616376.7632543,9762156.5943392,0.0],[616376.7525457,9762156.6138114,0.0],[616376.7411685,9762156.6329007,0.0],[616376.7291363,9762156.6515841,0.0],[616376.7164636,9762156.669839,0.0],[616376.7031657,9762156.6876437,0.0],[616376.6892585,9762156.7049766,0.0],[616376.6747587,9762156.721817,0.0],[616376.6596839,9762156.7381446,0.0],[616376.644052,9762156.7539397,0.0],[616376.6278819,9762156.7691834,0.0],[616376.6111931,9762156.7838573,0.0],[616376.5940056,9762156.7979438,0.0],[616376.57634,9762156.811426,0.0],[616376.5582177,9762156.8242876,0.0],[616376.5396603,9762156.8365132,0.0],[616376.5206903,9762156.8480882,0.0],[616376.5013303,9762156.8589984,0.0],[616376.4816038,9762156.869231,0.0],[616376.4615344,9762156.8787735,0.0],[616376.4411462,9762156.8876145,0.0],[616376.4204638,9762156.8957433,0.0],[616376.3995119,9762156.9031502,0.0],[616376.3783159,9762156.9098263,0.0],[616376.3569012,9762156.9157635,0.0],[616376.3352935,9762156.9209547,0.0],[616376.3135189,9762156.9253937,0.0],[616376.2916034,9762156.9290752,0.0],[616376.2695735,9762156.9319946,0.0],[616376.2474555,9762156.9341486,0.0],[616376.2252763,9762156.9355344,0.0],[616376.2030623,9762156.9361505,0.0],[616376.1808403,9762156.935996,0.0],[616376.158637,9762156.9350713,0.0],[616376.1364791,9762156.9333774,0.0],[616376.1143933,9762156.9309162,0.0],[616375.0427062,9762165.2370861,0.0],[616375.0644842,9762165.2402771,0.0],[616375.0861397,9762165.2442139,0.0],[616375.1076473,9762165.2488921,0.0],[616375.1289816,9762165.254306,0.0],[616375.1501174,9762165.2604494,0.0],[616375.1710297,9762165.2673148,0.0],[616375.191694,9762165.2748943,0.0],[616375.2120859,9762165.2831789,0.0],[616375.2321812,9762165.2921588,0.0],[616375.2519563,9762165.3018235,0.0],[616375.2713879,9762165.3121615,0.0],[616375.2904531,9762165.3231607,0.0],[616375.3091293,9762165.334808,0.0],[616375.3273945,9762165.3470898,0.0],[616375.3452273,9762165.3599915,0.0],[616375.3626065,9762165.3734979,0.0],[616375.3795117,9762165.3875932,0.0],[616375.3959229,9762165.4022606,0.0],[616375.4118208,9762165.4174829,0.0],[616375.4271866,9762165.4332422,0.0],[616375.4420022,9762165.4495198,0.0],[616375.4562501,9762165.4662965,0.0],[616375.4699136,9762165.4835525,0.0],[616375.4829764,9762165.5012676,0.0],[616375.4954232,9762165.5194208,0.0],[616375.5072394,9762165.5379907,0.0],[616375.5184109,9762165.5569553,0.0],[616375.5289246,9762165.5762924,0.0],[616375.5387682,9762165.5959791,0.0],[616375.5479299,9762165.6159922,0.0],[616375.556399,9762165.6363081,0.0],[616375.5641655,9762165.6569028,0.0],[616375.5712203,9762165.6777521,0.0],[616375.5775549,9762165.6988313,0.0],[616375.583162,9762165.7201156,0.0],[616375.588035,9762165.7415799,0.0],[616375.592168,9762165.7631989,0.0],[616375.5955562,9762165.784947,0.0],[616375.5981957,9762165.8067987,0.0],[616375.6000832,9762165.8287281,0.0],[616375.6012166,9762165.8507094,0.0],[616375.6015946,9762165.8727166,0.0],[616375.6012201,9762165.8946242,0.0],[616375.6000969,9762165.9165061,0.0],[616375.5982264,9762165.9383368,0.0],[616375.5956108,9762165.9600909,0.0],[616375.592253,9762165.9817428,0.0],[616375.5881572,9762166.0032673,0.0],[616375.5833279,9762166.0246393,0.0],[616375.577771,9762166.0458336,0.0],[616375.5714928,9762166.0668256,0.0],[616375.5645007,9762166.0875908,0.0],[616375.5568029,9762166.1081048,0.0],[616375.5484084,9762166.1283437,0.0],[616375.539327,9762166.1482838,0.0],[616375.5295693,9762166.1679018,0.0],[616375.5191467,9762166.1871749,0.0],[616375.5080713,9762166.2060804,0.0],[616375.4963562,9762166.2245962,0.0],[616375.4840151,9762166.2427008,0.0],[616375.4710623,9762166.260373,0.0],[616375.457513,9762166.277592,0.0],[616375.443383,9762166.2943379,0.0],[616375.4286888,9762166.310591,0.0],[616375.4134477,9762166.3263323,0.0],[616375.3976774,9762166.3415434,0.0],[616375.3813964,9762166.3562066,0.0],[616375.3646236,9762166.3703046,0.0],[616375.3473788,9762166.3838211,0.0],[616375.329682,9762166.3967402,0.0],[616375.3115539,9762166.4090469,0.0],[616375.2930157,9762166.4207267,0.0],[616375.2740892,9762166.431766,0.0],[616375.2547963,9762166.4421519,0.0],[616375.2351598,9762166.4518722,0.0],[616375.2152024,9762166.4609156,0.0],[616375.1949475,9762166.4692716,0.0],[616375.1744189,9762166.4769303,0.0],[616375.1536405,9762166.4838828,0.0],[616375.1326365,9762166.490121,0.0],[616375.1114316,9762166.4956375,0.0],[616375.0900505,9762166.5004261,0.0],[616375.0685183,9762166.5044809,0.0],[616376.0341945,9762172.1626405,0.0],[616376.0562386,9762172.1592719,0.0],[616376.0783867,9762172.1566721,0.0],[616376.1006117,9762172.1548445,0.0],[616376.1228869,9762172.1537911,0.0],[616376.1451853,9762172.1535134,0.0],[616376.1674798,9762172.1540115,0.0],[616376.1897435,9762172.155285,0.0],[616376.2119494,9762172.1573323,0.0],[616376.2340706,9762172.1601508,0.0],[616376.2560804,9762172.1637373,0.0],[616376.2779521,9762172.1680873,0.0],[616376.2996593,9762172.1731956,0.0],[616376.3211755,9762172.1790559,0.0],[616376.3424749,9762172.1856613,0.0],[616376.3635316,9762172.1930036,0.0],[616376.3843201,9762172.2010741,0.0],[616376.4048152,9762172.2098629,0.0],[616376.4249922,9762172.2193594,0.0],[616376.4448266,9762172.2295521,0.0],[616376.4642943,9762172.2404287,0.0],[616376.4833719,9762172.251976,0.0],[616376.5020362,9762172.26418,0.0],[616376.5202647,9762172.2770259,0.0],[616376.5380352,9762172.2904982,0.0],[616376.5553262,9762172.3045806,0.0],[616376.5721169,9762172.319256,0.0],[616376.5883868,9762172.3345067,0.0],[616376.6041163,9762172.3503141,0.0],[616376.6192864,9762172.3666593,0.0],[616376.6338786,9762172.3835222,0.0],[616376.6478754,9762172.4008827,0.0],[616376.6612597,9762172.4187196,0.0],[616376.6740154,9762172.4370113,0.0],[616376.6861269,9762172.4557357,0.0],[616376.6975798,9762172.4748701,0.0],[616376.70836,9762172.4943914,0.0],[616376.7184545,9762172.5142759,0.0],[616376.7278512,9762172.5344996,0.0],[616376.7365386,9762172.5550379,0.0],[616376.7445062,9762172.575866,0.0],[616376.7517444,9762172.5969587,0.0],[616376.7582444,9762172.6182905,0.0],[616376.7639984,9762172.6398355,0.0],[616376.7689993,9762172.6615676,0.0],[616376.7732411,9762172.6834605,0.0],[616376.7767187,9762172.7054878,0.0],[616376.7794279,9762172.7276227,0.0],[616376.7813654,9762172.7498384,0.0],[616376.7825288,9762172.7721081,0.0],[616376.7829168,9762172.7944048,0.0],[616376.7825359,9762172.8164981,0.0],[616376.7813936,9762172.8385651,0.0],[616376.7794913,9762172.8605795,0.0],[616376.7768312,9762172.8825154,0.0],[616376.7734165,9762172.9043464,0.0],[616376.7692513,9762172.9260468,0.0],[616376.7643405,9762172.9475907,0.0],[616376.75869,9762172.9689526,0.0],[616376.7523064,9762172.9901069,0.0],[616376.7451974,9762173.0110286,0.0],[616376.7373714,9762173.0316928,0.0],[616376.7288377,9762173.052075,0.0],[616376.7196065,9762173.0721509,0.0],[616376.7096887,9762173.0918966,0.0],[616376.6990961,9762173.1112887,0.0],[616376.6878413,9762173.1303041,0.0],[616376.6759377,9762173.1489202,0.0],[616376.6633994,9762173.1671149,0.0],[616376.6502414,9762173.1848666,0.0],[616376.6364792,9762173.2021542,0.0],[616376.6221293,9762173.218957,0.0],[616376.6072087,9762173.2352552,0.0],[616376.5917351,9762173.2510294,0.0],[616376.575727,9762173.2662608,0.0],[616376.5592033,9762173.2809313,0.0],[616376.5421836,9762173.2950234,0.0],[616376.5246884,9762173.3085205,0.0],[616376.5067382,9762173.3214065,0.0],[616376.4883545,9762173.333666,0.0],[616376.4695591,9762173.3452845,0.0],[616379.6858158,9762178.754582,0.0],[616379.7050374,9762178.7435981,0.0],[616379.7246268,9762178.7332847,0.0],[616379.7445608,9762178.7236539,0.0],[616379.7648154,9762178.7147174,0.0],[616379.7853667,9762178.7064858,0.0],[616379.80619,9762178.6989688,0.0],[616379.8272605,9762178.6921756,0.0],[616379.848553,9762178.6861141,0.0],[616379.8700422,9762178.6807916,0.0],[616379.8917024,9762178.6762145,0.0],[616379.9135077,9762178.6723882,0.0],[616379.9354322,9762178.6693174,0.0],[616379.9574497,9762178.6670055,0.0],[616379.9795339,9762178.6654555,0.0],[616380.0016584,9762178.6646691,0.0],[616380.0237969,9762178.6646474,0.0],[616380.0459229,9762178.6653902,0.0],[616380.0680101,9762178.6668968,0.0],[616380.0900321,9762178.6691654,0.0],[616380.1119626,9762178.6721932,0.0],[616380.1337754,9762178.6759766,0.0],[616380.1554445,9762178.6805111,0.0],[616380.1769441,9762178.6857913,0.0],[616380.1982486,9762178.6918109,0.0],[616380.2193324,9762178.6985627,0.0],[616380.2401704,9762178.7060387,0.0],[616380.2607378,9762178.7142299,0.0],[616380.28101,9762178.7231266,0.0],[616380.3009628,9762178.7327182,0.0],[616380.3205725,9762178.7429931,0.0],[616380.3398156,9762178.7539392,0.0],[616380.3586692,9762178.7655433,0.0],[616380.3771107,9762178.7777917,0.0],[616380.3951182,9762178.7906698,0.0],[616380.4126702,9762178.804162,0.0],[616380.4297457,9762178.8182525,0.0],[616380.4463244,9762178.8329242,0.0],[616380.4623864,9762178.8481599,0.0],[616380.4779127,9762178.8639411,0.0],[616380.4928847,9762178.8802492,0.0],[616380.5072845,9762178.8970647,0.0],[616380.5210949,9762178.9143674,0.0],[616380.5342995,9762178.9321369,0.0],[616380.5468825,9762178.9503518,0.0],[616380.5588289,9762178.9689904,0.0],[616380.5701244,9762178.9880304,0.0],[616380.5807556,9762179.0074493,0.0],[616380.5907097,9762179.0272237,0.0],[616380.599975,9762179.0473301,0.0],[616380.6085403,9762179.0677446,0.0],[616380.6163954,9762179.0884427,0.0],[616380.623531,9762179.1093997,0.0],[616380.6299385,9762179.1305907,0.0],[616380.6356102,9762179.1519903,0.0],[616380.6405396,9762179.1735731,0.0],[616380.6447205,9762179.1953132,0.0],[616380.6481481,9762179.2171848,0.0],[616380.6508183,9762179.2391617,0.0],[616380.6527278,9762179.2612177,0.0],[616380.6538745,9762179.2833265,0.0],[616380.6542568,9762179.3054617,0.0],[616380.6538733,9762179.3276293,0.0],[616380.6527233,9762179.3497704,0.0],[616380.6508082,9762179.3718585,0.0],[616380.6481302,9762179.3938671,0.0],[616380.6446926,9762179.4157699,0.0],[616380.6404995,9762179.4375407,0.0],[616380.6355558,9762179.4591535,0.0],[616380.6298676,9762179.4805823,0.0],[616380.6234416,9762179.5018016,0.0],[616380.6162855,9762179.5227859,0.0],[616380.6084078,9762179.5435101,0.0],[616380.5998181,9762179.5639494,0.0],[616380.5905265,9762179.5840794,0.0],[616380.5805442,9762179.603876,0.0],[616380.5698832,9762179.6233155,0.0],[616380.5585562,9762179.6423746,0.0],[616387.6300069,9762184.012274,0.0],[616387.6420444,9762183.9935312,0.0],[616387.6547259,9762183.975218,0.0],[616387.6680361,9762183.9573565,0.0],[616387.681959,9762183.9399685,0.0],[616387.6964778,9762183.9230747,0.0],[616387.7115749,9762183.9066957,0.0],[616387.727232,9762183.8908512,0.0],[616387.7434303,9762183.8755605,0.0],[616387.7601502,9762183.8608418,0.0],[616387.7773715,9762183.8467131,0.0],[616387.7950734,9762183.8331914,0.0],[616387.8132344,9762183.820293,0.0],[616387.8318328,9762183.8080335,0.0],[616387.8508459,9762183.7964277,0.0],[616387.8702509,9762183.7854897,0.0],[616387.8900243,9762183.7752326,0.0],[616387.9101421,9762183.7656689,0.0],[616387.9305802,9762183.7568101,0.0],[616387.9513138,9762183.7486668,0.0],[616387.9723178,9762183.741249,0.0],[616387.9935669,9762183.7345656,0.0],[616388.0150355,9762183.7286247,0.0],[616388.0366975,9762183.7234334,0.0],[616388.0585269,9762183.7189981,0.0],[616388.0804972,9762183.715324,0.0],[616388.1025819,9762183.7124156,0.0],[616388.1247543,9762183.7102765,0.0],[616388.1469877,9762183.7089091,0.0],[616388.1692552,9762183.7083152,0.0],[616388.1915299,9762183.7084955,0.0],[616388.2137848,9762183.7094498,0.0],[616388.2359932,9762183.7111769,0.0],[616388.2581281,9762183.7136747,0.0],[616388.2801628,9762183.7169402,0.0],[616388.3020708,9762183.7209695,0.0],[616388.3238254,9762183.7257576,0.0],[616388.3454006,9762183.7312989,0.0],[616388.3667702,9762183.7375866,0.0],[616388.3879083,9762183.7446131,0.0],[616388.4087895,9762183.75237,0.0],[616388.4293886,9762183.7608478,0.0],[616388.4496805,9762183.7700363,0.0],[616388.4696409,9762183.7799245,0.0],[616388.4892457,9762183.7905003,0.0],[616388.508471,9762183.801751,0.0],[616388.5272938,9762183.813663,0.0],[616388.5456912,9762183.826222,0.0],[616388.5636411,9762183.8394127,0.0],[616388.5811218,9762183.8532192,0.0],[616388.5981121,9762183.8676249,0.0],[616388.6145915,9762183.8826122,0.0],[616388.6305402,9762183.8981633,0.0],[616388.6459388,9762183.9142591,0.0],[616388.6607687,9762183.9308804,0.0],[616388.6750121,9762183.9480069,0.0],[616388.6886517,9762183.9656181,0.0],[616388.7016711,9762183.9836927,0.0],[616388.7140544,9762184.0022088,0.0],[616388.7257869,9762184.021144,0.0],[616388.7368542,9762184.0404755,0.0],[616388.7472431,9762184.0601799,0.0],[616388.7569409,9762184.0802335,0.0],[616388.765936,9762184.100612,0.0],[616388.7742175,9762184.1212907,0.0],[616388.7817753,9762184.1422447,0.0],[616388.7886005,9762184.1634488,0.0],[616388.7946846,9762184.1848772,0.0],[616388.8000204,9762184.2065041,0.0],[616388.8046014,9762184.2283033,0.0],[616388.8084221,9762184.2502486,0.0],[616388.8114779,9762184.2723134,0.0],[616388.813765,9762184.2944711,0.0],[616388.8152807,9762184.3166949,0.0],[616388.8160233,9762184.3389579,0.0],[616388.8159917,9762184.3612332,0.0],[616388.815186,9762184.3834941,0.0],[616388.8136073,9762184.4057134,0.0],[616388.8112573,9762184.4278645,0.0],[616398.7709434,9762185.6598466,0.0],[616398.7740564,9762185.6378235,0.0],[616398.7779318,9762185.6159217,0.0],[616398.7825649,9762185.5941675,0.0],[616398.78795,9762185.5725872,0.0],[616398.7940806,9762185.5512067,0.0],[616398.8009495,9762185.5300519,0.0],[616398.8085483,9762185.5091481,0.0],[616398.8168679,9762185.4885206,0.0],[616398.8258982,9762185.4681942,0.0],[616398.8356284,9762185.4481934,0.0],[616398.8460467,9762185.4285422,0.0],[616398.8571406,9762185.4092644,0.0],[616398.8688968,9762185.3903832,0.0],[616398.8813011,9762185.3719212,0.0],[616398.8943385,9762185.3539008,0.0],[616398.9079933,9762185.3363436,0.0],[616398.9222492,9762185.3192709,0.0],[616398.9370889,9762185.302703,0.0],[616398.9524945,9762185.2866601,0.0],[616398.9684476,9762185.2711614,0.0],[616398.9849288,9762185.2562256,0.0],[616399.0019183,9762185.2418707,0.0],[616399.0193958,9762185.2281139,0.0],[616399.03734,9762185.2149719,0.0],[616399.0557295,9762185.2024604,0.0],[616399.074542,9762185.1905946,0.0],[616399.093755,9762185.1793887,0.0],[616399.1133452,9762185.1688562,0.0],[616399.1332891,9762185.1590098,0.0],[616399.1535626,9762185.1498614,0.0],[616399.1741413,9762185.141422,0.0],[616399.1950006,9762185.1337017,0.0],[616399.2161151,9762185.1267099,0.0],[616399.2374595,9762185.120455,0.0],[616399.2590081,9762185.1149444,0.0],[616399.280735,9762185.1101849,0.0],[616399.3026139,9762185.1061822,0.0],[616399.3246186,9762185.102941,0.0],[616399.3467224,9762185.1004654,0.0],[616399.3688989,9762185.0987582,0.0],[616399.3911212,9762185.0978215,0.0],[616399.4133626,9762185.0976566,0.0],[616399.4355964,9762185.0982634,0.0],[616399.4577957,9762185.0996414,0.0],[616399.4799339,9762185.1017889,0.0],[616399.5019842,9762185.1047033,0.0],[616399.5239201,9762185.108381,0.0],[616399.5457152,9762185.1128177,0.0],[616399.5673432,9762185.118008,0.0],[616399.588778,9762185.1239456,0.0],[616399.609994,9762185.1306234,0.0],[616399.6309654,9762185.1380334,0.0],[616399.6516671,9762185.1461666,0.0],[616399.6720741,9762185.1550133,0.0],[616399.6921619,9762185.1645627,0.0],[616399.7119062,9762185.1748034,0.0],[616399.7312832,9762185.1857231,0.0],[616399.7502697,9762185.1973085,0.0],[616399.7688427,9762185.2095458,0.0],[616399.78698,9762185.2224202,0.0],[616399.8046596,9762185.2359162,0.0],[616399.8218602,9762185.2500175,0.0],[616399.8385612,9762185.2647072,0.0],[616399.8547424,9762185.2799675,0.0],[616399.8703843,9762185.2957802,0.0],[616399.8854681,9762185.312126,0.0],[616399.8999757,9762185.3289854,0.0],[616399.9138895,9762185.3463381,0.0],[616399.9271928,9762185.3641631,0.0],[616399.9398696,9762185.382439,0.0],[616399.9519046,9762185.4011438,0.0],[616399.9632833,9762185.4202549,0.0],[616399.973992,9762185.4397493,0.0],[616399.9840178,9762185.4596036,0.0],[616399.9933486,9762185.4797938,0.0],[616400.0019733,9762185.5002957,0.0],[616400.0098813,9762185.5210844,0.0],[616400.0170633,9762185.542135,0.0],[616400.0235104,9762185.5634222,0.0],[616400.0292151,9762185.5849202,0.0],[616400.0341703,9762185.6066033,0.0],[616400.0383702,9762185.6284452,0.0],[616400.0418096,9762185.6504198,0.0],[616400.0444845,9762185.6725004,0.0],[616400.0463916,9762185.6946605,0.0],[616411.4907462,9762184.909558,0.0]]]]}},
{"type":"Feature","properties":{"name":null,"status":"VIGENTE","zona":10,"cod_ant":null,"cod_act":null,"ref":"SENESCYT","area_const":0.0,"area_terr":27307.25,"fecha_venc":"2 de marzo de 2122"},"geometry":{"type":"MultiPolygon","coordinates":[[[[614239.2787752,9763290.8956957,0.0],[614235.0320838,9763088.7920168,0.0],[614139.767788,9763095.9797136,0.0],[614106.1097231,9763090.624852,0.0],[614104.7250395,9763095.4109702,0.0],[614095.7059431,9763093.7939449,0.0],[614074.5321967,9763154.1358136,0.0],[614076.5237379,9763159.4033605,0.0],[614053.3811076,9763223.103556,0.0],[614239.2787752,9763290.8956957,0.0]]]]}},
{"type":"Feature","properties":{"name":"5L","status":"G.ADM AFIRMA QUE SÍ TIENE","zona":5,"cod_ant":"71B","cod_act":"5L","ref":"ESPOLTEL","area_const":183.97,"area_terr":1439.0,"fecha_venc":"PEDIR GADM"},"geometry":{"type":"MultiPolygon","coordinates":[[[[615842.5242721,9762596.7761631,0.0],[615849.7657279,9762572.6538369,0.0],[615849.7446544,9762572.6471121,0.0],[615849.7238256,9762572.6396641,0.0],[615849.7032662,9762572.6315018,0.0],[615849.6830007,9762572.6226348,0.0],[615849.6630533,9762572.6130737,0.0],[615849.6434477,9762572.60283,0.0],[615849.6242073,9762572.5919158,0.0],[615849.605355,9762572.5803441,0.0],[615849.5869133,9762572.5681287,0.0],[615849.5689041,9762572.5552842,0.0],[615849.5513488,9762572.5418258,0.0],[615849.5342685,9762572.5277697,0.0],[615849.5176834,9762572.5131325,0.0],[615849.5016134,9762572.4979316,0.0],[615849.4860774,9762572.4821852,0.0],[615849.4710942,9762572.4659121,0.0],[615849.4566814,9762572.4491316,0.0],[615849.4428563,9762572.4318637,0.0],[615849.4296353,9762572.4141291,0.0],[615849.4170343,9762572.3959487,0.0],[615849.4050681,9762572.3773443,0.0],[615849.3937511,9762572.358338,0.0],[615849.3830967,9762572.3389525,0.0],[615849.3731177,9762572.3192109,0.0],[615849.3638259,9762572.2991367,0.0],[615849.3552323,9762572.2787537,0.0],[615849.3473473,9762572.2580864,0.0],[615849.3401802,9762572.2371592,0.0],[615849.3337396,9762572.2159972,0.0],[615849.3280331,9762572.1946255,0.0],[615849.3230675,9762572.1730696,0.0],[615849.3188487,9762572.1513552,0.0],[615849.3153818,9762572.1295082,0.0],[615849.3126709,9762572.1075545,0.0],[615849.3107193,9762572.0855203,0.0],[615849.3095292,9762572.0634319,0.0],[615849.309102,9762572.0413157,0.0],[615849.3094384,9762572.0191978,0.0],[615849.3105378,9762571.9971047,0.0],[615799.0094622,9762568.6228953,0.0],[615799.0075876,9762568.6450692,0.0],[615799.0049443,9762568.6671646,0.0],[615799.0015355,9762568.6891549,0.0],[615798.9973654,9762568.7110137,0.0],[615798.9924389,9762568.7327145,0.0],[615798.986762,9762568.7542312,0.0],[615798.9803416,9762568.7755378,0.0],[615798.9731854,9762568.7966087,0.0],[615798.9653019,9762568.8174185,0.0],[615798.9567008,9762568.837942,0.0],[615798.9473924,9762568.8581546,0.0],[615798.9373878,9762568.8780318,0.0],[615798.9266993,9762568.8975498,0.0],[615798.9153396,9762568.9166849,0.0],[615798.9033224,9762568.9354141,0.0],[615798.8906623,9762568.9537148,0.0],[615798.8773744,9762568.971565,0.0],[615798.8634749,9762568.9889431,0.0],[615798.8489805,9762569.0058282,0.0],[615798.8339086,9762569.0221999,0.0],[615798.8182774,9762569.0380385,0.0],[615798.8021058,9762569.0533249,0.0],[615798.7854133,9762569.0680407,0.0],[615798.76822,9762569.0821681,0.0],[615798.7505465,9762569.0956901,0.0],[615798.7324143,9762569.1085904,0.0],[615798.7138452,9762569.1208534,0.0],[615798.6948615,9762569.1324644,0.0],[615798.6754862,9762569.1434094,0.0],[615798.6557426,9762569.1536751,0.0],[615798.6356545,9762569.1632492,0.0],[615798.6152461,9762569.1721202,0.0],[615798.5945421,9762569.1802773,0.0],[615798.5735673,9762569.1877107,0.0],[615798.5523472,9762569.1944114,0.0],[615798.5309072,9762569.2003715,0.0],[615798.5092733,9762569.2055836,0.0],[615798.4874714,9762569.2100416,0.0],[615798.4655279,9762569.21374,0.0],[615798.4434692,9762569.2166743,0.0],[615798.421322,9762569.2188411,0.0],[615798.3991129,9762569.2202377,0.0],[615798.3768687,9762569.2208625,0.0],[615798.3546162,9762569.2207147,0.0],[615798.3323822,9762569.2197944,0.0],[615798.3101937,9762569.2181028,0.0],[615798.2880772,9762569.2156419,0.0],[615798.2660595,9762569.2124147,0.0],[615796.1039405,9762582.3675853,0.0],[615796.1255915,9762582.3715267,0.0],[615796.1470943,9762582.376209,0.0],[615796.1684237,9762582.3816268,0.0],[615796.1895546,9762582.3877737,0.0],[615796.2104619,9762582.3946425,0.0],[615796.2311211,9762582.402225,0.0],[615796.2515078,9762582.4105123,0.0],[615796.2715979,9762582.4194946,0.0],[615796.2913679,9762582.4291614,0.0],[615796.3107942,9762582.4395012,0.0],[615796.3298542,9762582.4505019,0.0],[615796.3485252,9762582.4621505,0.0],[615796.3667853,9762582.4744332,0.0],[615796.384613,9762582.4873356,0.0],[615796.4019871,9762582.5008424,0.0],[615796.4188873,9762582.5149378,0.0],[615796.4352937,9762582.5296051,0.0],[615796.4511867,9762582.544827,0.0],[615796.4665479,9762582.5605856,0.0],[615796.4813589,9762582.5768623,0.0],[615796.4956024,9762582.5936378,0.0],[615796.5092615,9762582.6108925,0.0],[615796.5223202,9762582.628606,0.0],[615796.5347631,9762582.6467573,0.0],[615796.5465754,9762582.6653252,0.0],[615796.5577433,9762582.6842876,0.0],[615796.5682536,9762582.7036223,0.0],[615796.5780939,9762582.7233064,0.0],[615796.5872526,9762582.7433168,0.0],[615796.5957189,9762582.7636298,0.0],[615796.6034829,9762582.7842215,0.0],[615796.6105353,9762582.8050676,0.0],[615796.6168678,9762582.8261436,0.0],[615796.622473,9762582.8474245,0.0],[615796.6273443,9762582.8688853,0.0],[615796.6314759,9762582.8905007,0.0],[615796.634863,9762582.9122453,0.0],[615796.6375016,9762582.9340933,0.0],[615796.6393885,9762582.956019,0.0],[615796.6405215,9762582.9779965,0.0],[615796.6408993,9762583.0,0.0],[615796.6405178,9762583.0221112,0.0],[615796.6393736,9762583.044196,0.0],[615796.6374682,9762583.0662282,0.0],[615796.6348039,9762583.0881815,0.0],[615796.6313837,9762583.1100299,0.0],[615796.6272118,9762583.1317473,0.0],[615796.6222931,9762583.1533078,0.0],[615796.6166335,9762583.1746858,0.0],[615796.6102397,9762583.1958557,0.0],[615796.6031193,9762583.2167925,0.0],[615796.5952809,9762583.2374712,0.0],[615796.5867337,9762583.2578672,0.0],[615796.577488,9762583.2779561,0.0],[615796.5675546,9762583.2977141,0.0],[615796.5569456,9762583.3171176,0.0],[615796.5456734,9762583.3361435,0.0],[615796.5337515,9762583.3547693,0.0],[615796.5211942,9762583.3729726,0.0],[615796.5080163,9762583.3907319,0.0],[615796.4942335,9762583.4080259,0.0],[615796.4798623,9762583.4248342,0.0],[615796.4649198,9762583.4411366,0.0],[615796.4494237,9762583.4569138,0.0],[615796.4333926,9762583.472147,0.0],[615796.4168454,9762583.4868181,0.0],[615796.3998019,9762583.5009095,0.0],[615796.3822824,9762583.5144046,0.0],[615812.7177176,9762605.4955954,0.0],[615812.7359351,9762605.4825451,0.0],[615812.7545978,9762605.4701396,0.0],[615812.7736828,9762605.4583942,0.0],[615812.7931667,9762605.4473232,0.0],[615812.8130257,9762605.4369401,0.0],[615812.8332356,9762605.4272576,0.0],[615812.8537717,9762605.4182876,0.0],[615812.8746088,9762605.4100411,0.0],[615812.8957215,9762605.402528,0.0],[615812.9170839,9762605.3957577,0.0],[615812.93867,9762605.3897383,0.0],[615812.9604533,9762605.3844773,0.0],[615812.9824072,9762605.3799811,0.0],[615813.0045049,9762605.3762551,0.0],[615813.0267193,9762605.3733039,0.0],[615813.0490233,9762605.3711312,0.0],[615813.0713897,9762605.3697396,0.0],[615813.093791,9762605.3691308,0.0],[615813.1162,9762605.3693055,0.0],[615813.1385891,9762605.3702635,0.0],[615813.160931,9762605.3720037,0.0],[615813.1831985,9762605.3745238,0.0],[615813.2053642,9762605.377821,0.0],[615813.2274011,9762605.381891,0.0],[615813.2492822,9762605.386729,0.0],[615813.2709809,9762605.392329,0.0],[615813.2924705,9762605.3986842,0.0],[615813.3137247,9762605.4057867,0.0],[615813.3347177,9762605.413628,0.0],[615813.3554237,9762605.4221985,0.0],[615813.3758174,9762605.4314875,0.0],[615813.3958739,9762605.4414839,0.0],[615813.4155687,9762605.4521754,0.0],[615813.4348776,9762605.4635488,0.0],[615813.4537771,9762605.4755904,0.0],[615813.4722441,9762605.4882853,0.0],[615813.490256,9762605.5016181,0.0],[615813.5077907,9762605.5155724,0.0],[615813.5248269,9762605.5301312,0.0],[615813.5413437,9762605.5452768,0.0],[615813.5573208,9762605.5609905,0.0],[615813.5727389,9762605.5772531,0.0],[615813.587579,9762605.5940449,0.0],[615813.6018229,9762605.6113452,0.0],[615813.6154533,9762605.6291329,0.0],[615813.6284536,9762605.6473862,0.0],[615813.6408077,9762605.6660829,0.0],[615813.6525006,9762605.6852001,0.0],[615813.6635181,9762605.7047143,0.0],[615813.6738465,9762605.7246019,0.0],[615813.6834734,9762605.7448383,0.0],[615813.6923869,9762605.7653989,0.0],[615813.7005762,9762605.7862586,0.0],[615813.7080311,9762605.8073919,0.0],[615813.7147427,9762605.8287728,0.0],[615841.7252573,9762597.5712272,0.0],[615841.7193459,9762597.5498137,0.0],[615841.7141802,9762597.5282081,0.0],[615841.7097664,9762597.5064366,0.0],[615841.7061097,9762597.4845251,0.0],[615841.7032146,9762597.4625001,0.0],[615841.7010845,9762597.440388,0.0],[615841.6997221,9762597.4182153,0.0],[615841.6991289,9762597.3960088,0.0],[615841.6993056,9762597.373795,0.0],[615841.7002521,9762597.3516007,0.0],[615841.7019671,9762597.3294526,0.0],[615841.7044487,9762597.3073771,0.0],[615841.7076939,9762597.285401,0.0],[615841.7116988,9762597.2635505,0.0],[615841.7164584,9762597.2418519,0.0],[615841.7219673,9762597.2203313,0.0],[615841.7282186,9762597.1990146,0.0],[615841.7352049,9762597.1779273,0.0],[615841.7429179,9762597.1570948,0.0],[615841.7513481,9762597.1365421,0.0],[615841.7604856,9762597.1162939,0.0],[615841.7703194,9762597.0963745,0.0],[615841.7808375,9762597.076808,0.0],[615841.7920275,9762597.0576176,0.0],[615841.8038757,9762597.0388267,0.0],[615841.8163681,9762597.0204576,0.0],[615841.8294896,9762597.0025325,0.0],[615841.8432244,9762596.9850729,0.0],[615841.8575561,9762596.9680998,0.0],[615841.8724674,9762596.9516335,0.0],[615841.8879403,9762596.935694,0.0],[615841.9039564,9762596.9203002,0.0],[615841.9204964,9762596.9054707,0.0],[615841.9375403,9762596.8912234,0.0],[615841.9550678,9762596.8775753,0.0],[615841.9730577,9762596.8645428,0.0],[615841.9914885,9762596.8521416,0.0],[615842.0103379,9762596.8403866,0.0],[615842.0295835,9762596.8292919,0.0],[615842.049202,9762596.8188709,0.0],[615842.0691698,9762596.809136,0.0],[615842.089463,9762596.800099,0.0],[615842.1100573,9762596.7917707,0.0],[615842.1309278,9762596.7841611,0.0],[615842.1520494,9762596.7772794,0.0],[615842.1733969,9762596.7711338,0.0],[615842.1949445,9762596.7657318,0.0],[615842.2166664,9762596.7610797,0.0],[615842.2385365,9762596.7571832,0.0],[615842.2605285,9762596.754047,0.0],[615842.2826159,9762596.7516748,0.0],[615842.3047723,9762596.7500696,0.0],[615842.3269711,9762596.7492331,0.0],[615842.3491854,9762596.7491665,0.0],[615842.3713888,9762596.7498698,0.0],[615842.3935544,9762596.7513421,0.0],[615842.4156557,9762596.7535818,0.0],[615842.4376661,9762596.756586,0.0],[615842.4595591,9762596.7603513,0.0],[615842.4813085,9762596.764873,0.0],[615842.5028882,9762596.7701457,0.0],[615842.5242721,9762596.7761631,0.0]]]]}},
{"type":"Feature","properties":{"name":null,"status":null,"zona":1,"cod_ant":null,"cod_act":null,"ref":"CENTURYLINK","area_const":null,"area_terr":null,"fecha_venc":"27 de febrero de 2039"},"geometry":{"type":"MultiPolygon","coordinates":[[[[616496.5091993,9762611.6416796,0.0],[616509.6652063,9762602.691166,0.0],[616519.4734727,9762594.0524673,0.0],[616519.2183548,9762593.8079901,0.0],[616536.4180534,9762576.2034167,0.0],[616540.2629618,9762570.9801408,0.0],[616520.2855016,9762550.9991038,0.0],[616494.8251738,9762551.040305,0.0],[616483.8460705,9762551.8627222,0.0],[616484.1775403,9762553.6860734,0.0],[616486.5855141,9762558.0858251,0.0],[616475.3381153,9762563.1124047,0.0],[616422.8939407,9762614.9258559,0.0],[616451.0227693,9762647.7454676,0.0],[616482.9921049,9762626.5433134,0.0],[616491.8864998,9762612.4211931,0.0],[616493.3425019,9762613.8178868,0.0],[616496.5091993,9762611.6416796,0.0]]]]}},
{"type":"Feature","properties":{"name":"1F","status":"VIGENTE","zona":1,"cod_ant":null,"cod_act":"1F","ref":"BIOCONVERSION","area_const":2683.98,"area_terr":6000.92,"fecha_venc":"15 de noviembre de 2037"},"geometry":{"type":"MultiPolygon","coordinates":[[[[617139.6739971,9762872.6793079,0.0],[617141.73,9762876.54,0.0],[617144.75,9762882.7643398,0.0],[617151.4112023,9762900.3172354,0.0],[617154.59,9762912.16,0.0],[617156.12,9762921.48,0.0],[617156.7912023,9762930.4972354,0.0],[617156.8044376,9762931.4376222,0.0],[617156.9417266,9762945.9897347,0.0],[617155.985,9762956.505,0.0],[617188.9743939,9762956.5841155,0.0],[617187.3524797,9762872.4267072,0.0],[617186.2411048,9762811.7431915,0.0],[617181.298863,9762812.0704015,0.0],[617132.91751,9762830.91751,0.0],[617118.1804795,9762844.1341952,0.0],[617132.745,9762862.055,0.0],[617139.6739971,9762872.6793079,0.0]]]]}},
{"type":"Feature","properties":{"name":null,"status":"A LA FECHA 26-AGO-25, GADM INDICA QUE ESTA EN PROCESO DE FORMALIZACION","zona":2,"cod_ant":null,"cod_act":null,"ref":"CNT","area_const":null,"area_terr":100.0,"fecha_venc":"PEDIR GADM"},"geometry":{"type":"MultiPolygon","coordinates":[[[[616862.0650963,9762374.6672166,0.0],[616869.7371787,9762381.0811976,0.0],[616876.1511597,9762373.4091153,0.0],[616868.4790774,9762366.9951343,0.0],[616862.0650963,9762374.6672166,0.0]]]]}},
{"type":"Feature","properties":{"name":null,"status":"A LA FECHA 26-AGO-25, GADM INDICA QUE ESTA EN PROCESO DE FORMALIZACION","zona":1,"cod_ant":null,"cod_act":null,"ref":"SUBSECRETARIA DE CALIDAD","area_const":null,"area_terr":5979.12,"fecha_venc":"PEDIR GADM"},"geometry":{"type":"MultiPolygon","coordinates":[[[[616861.24,9763982.43,0.0],[616868.0525819,9763955.6386031,0.0],[616758.5200671,9763920.5417668,0.0],[616736.85,9763980.49,0.0],[616814.95,9764001.72,0.0],[616822.47,9763972.58,0.0],[616861.24,9763982.43,0.0]]]]}},
{"type":"Feature","properties":{"name":"8L","status":"VIGENTE","zona":8,"cod_ant":null,"cod_act":"8L","ref":"ACADEMIA BCBG","area_const":2725.48,"area_terr":101814.58,"fecha_venc":"16 de septiembre de 2105"},"geometry":{"type":"MultiPolygon","coordinates":[[[[614234.9729883,9763069.0933129,0.0],[614234.7422626,9763012.8629217,0.0],[614141.2479,9762979.165,0.0],[613788.8301,9762852.144,0.0],[613716.5318917,9763097.0700785,0.0],[614054.2619105,9763220.2315058,0.0],[614101.0732533,9763067.5929063,0.0],[614144.3632781,9763074.3761573,0.0],[614234.9729883,9763069.0933129,0.0]]]]}},
{"type":"Feature","properties":{"name":"1C","status":"VIGENTE","zona":1,"cod_ant":null,"cod_act":"1C","ref":"CUARTEL BCBG","area_const":505.45,"area_terr":1800.0,"fecha_venc":"21 de septiembre de 2066"},"geometry":{"type":"MultiPolygon","coordinates":[[[[616852.9286047,9764012.0477147,0.0],[616860.8931079,9763982.3418678,0.0],[616822.47,9763972.58,0.0],[616814.949728,9764001.7210541,0.0],[616852.9286047,9764012.0477147,0.0]]]]}},
{"type":"Feature","properties":{"name":"2E","status":"A LA FECHA 26-AGO-25, GADM INDICA QUE ESTA EN PROCESO DE FORMALIZACION","zona":2,"cod_ant":"111","cod_act":"2E","ref":"UPC (UNIDAD DE POLICIA COMUNITARIA)","area_const":816.0,"area_terr":636.5,"fecha_venc":"PEDIR GADM"},"geometry":{"type":"MultiPolygon","coordinates":[[[[616521.0656011,9762150.014816,0.0],[616531.7225011,9762125.26327,0.0],[616531.6915744,9762125.249322,0.0],[616531.6611434,9762125.2343234,0.0],[616531.6312437,9762125.2182918,0.0],[616531.6019103,9762125.2012459,0.0],[616531.5731778,9762125.1832058,0.0],[616531.5450797,9762125.1641926,0.0],[616531.517649,9762125.1442285,0.0],[616531.4909178,9762125.1233371,0.0],[616531.4649176,9762125.1015428,0.0],[616531.4396787,9762125.0788712,0.0],[616531.4152308,9762125.0553487,0.0],[616531.3916025,9762125.0310031,0.0],[616531.3688215,9762125.0058628,0.0],[616531.3469146,9762124.9799573,0.0],[616531.3259074,9762124.9533171,0.0],[616531.3058246,9762124.9259732,0.0],[616531.2866897,9762124.8979579,0.0],[616531.2685251,9762124.8693038,0.0],[616531.2513521,9762124.8400447,0.0],[616531.2351909,9762124.8102149,0.0],[616531.2200604,9762124.7798492,0.0],[616531.2059783,9762124.7489833,0.0],[616531.1929612,9762124.7176535,0.0],[616531.1810244,9762124.6858963,0.0],[616531.1701817,9762124.6537491,0.0],[616531.160446,9762124.6212495,0.0],[616531.1518286,9762124.5884357,0.0],[616531.1443397,9762124.5553461,0.0],[616531.137988,9762124.5220195,0.0],[616531.1327809,9762124.488495,0.0],[616531.1287247,9762124.4548119,0.0],[616531.1258239,9762124.4210097,0.0],[616531.1240821,9762124.3871279,0.0],[616531.1235013,9762124.3532064,0.0],[616531.1240656,9762124.3197713,0.0],[616531.1257578,9762124.2863743,0.0],[616531.128576,9762124.2530535,0.0],[616531.132517,9762124.2198466,0.0],[616531.1375763,9762124.1867917,0.0],[616531.1437482,9762124.1539264,0.0],[616531.1510255,9762124.121288,0.0],[616531.1594001,9762124.0889138,0.0],[616531.1688623,9762124.0568406,0.0],[616531.1794015,9762124.0251049,0.0],[616531.1910055,9762123.993743,0.0],[616531.2036613,9762123.9627905,0.0],[616515.2736721,9762117.1334159,0.0],[616515.2595653,9762117.1648045,0.0],[616515.2443769,9762117.1956843,0.0],[616515.2281254,9762117.226018,0.0],[616515.2108303,9762117.2557691,0.0],[616515.1925125,9762117.2849017,0.0],[616515.173194,9762117.3133805,0.0],[616515.1528983,9762117.3411714,0.0],[616515.1316497,9762117.3682407,0.0],[616515.109474,9762117.3945558,0.0],[616515.0863978,9762117.4200849,0.0],[616515.062449,9762117.4447973,0.0],[616515.0376565,9762117.4686631,0.0],[616515.0120501,9762117.4916536,0.0],[616514.9856609,9762117.513741,0.0],[616514.9585205,9762117.5348988,0.0],[616514.9306618,9762117.5551012,0.0],[616514.9021183,9762117.5743241,0.0],[616514.8729245,9762117.5925442,0.0],[616514.8431157,9762117.6097394,0.0],[616514.8127276,9762117.6258892,0.0],[616514.7817971,9762117.640974,0.0],[616514.7503614,9762117.6549756,0.0],[616514.7184584,9762117.6678771,0.0],[616514.6861267,9762117.6796629,0.0],[616514.6534052,9762117.6903189,0.0],[616514.6203334,9762117.6998322,0.0],[616514.5869511,9762117.7081913,0.0],[616514.5532988,9762117.7153861,0.0],[616514.5194168,9762117.7214079,0.0],[616514.4853462,9762117.7262496,0.0],[616514.451128,9762117.7299051,0.0],[616514.4168035,9762117.7323702,0.0],[616514.3824142,9762117.7336419,0.0],[616514.3480013,9762117.7337186,0.0],[616514.3136066,9762117.7326002,0.0],[616514.2792715,9762117.7302881,0.0],[616514.2450373,9762117.7267851,0.0],[616514.2109455,9762117.7220954,0.0],[616514.1770371,9762117.7162246,0.0],[616514.143353,9762117.7091798,0.0],[616514.1099338,9762117.7009696,0.0],[616514.0768199,9762117.6916039,0.0],[616514.0440512,9762117.6810938,0.0],[616514.0116673,9762117.6694522,0.0],[616513.9797071,9762117.656693,0.0],[616513.9482093,9762117.6428317,0.0],[616513.9172119,9762117.6278849,0.0],[616513.8867522,9762117.6118707,0.0],[616513.8568669,9762117.5948085,0.0],[616513.8275922,9762117.5767187,0.0],[616513.7989634,9762117.5576232,0.0],[616513.7710149,9762117.5375451,0.0],[616513.7437805,9762117.5165086,0.0],[616513.7172931,9762117.494539,0.0],[616513.6915845,9762117.4716629,0.0],[616513.6666859,9762117.4479078,0.0],[616513.6426272,9762117.4233024,0.0],[616513.6194374,9762117.3978763,0.0],[616513.5971446,9762117.3716603,0.0],[616513.5757756,9762117.344686,0.0],[616513.5553562,9762117.3169859,0.0],[616513.5359111,9762117.2885934,0.0],[616513.5174636,9762117.2595428,0.0],[616513.500036,9762117.2298691,0.0],[616513.4836495,9762117.1996081,0.0],[616513.4683236,9762117.1687963,0.0],[616513.454077,9762117.1374709,0.0],[616513.4409268,9762117.1056697,0.0],[616513.4288888,9762117.0734309,0.0],[616513.4179776,9762117.0407936,0.0],[616513.4082064,9762117.0077971,0.0],[616511.9017552,9762117.4255878,0.0],[616511.9101623,9762117.4580212,0.0],[616511.9174679,9762117.4907203,0.0],[616511.9236638,9762117.5236477,0.0],[616511.9287428,9762117.5567658,0.0],[616511.9326992,9762117.5900367,0.0],[616511.9355285,9762117.6234223,0.0],[616511.9372273,9762117.6568845,0.0],[616511.9377938,9762117.6903849,0.0],[616511.9371902,9762117.7249645,0.0],[616511.9353802,9762117.7595019,0.0],[616511.9323659,9762117.7939551,0.0],[616511.9281511,9762117.8282821,0.0],[616511.9227408,9762117.8624411,0.0],[616511.9161417,9762117.8963905,0.0],[616511.9083618,9762117.9300889,0.0],[616511.8994106,9762117.9634953,0.0],[616511.889299,9762117.9965689,0.0],[616511.8780393,9762118.0292695,0.0],[616511.8656452,9762118.0615572,0.0],[616511.8521318,9762118.0933927,0.0],[616511.8375157,9762118.1247372,0.0],[616511.8218145,9762118.1555524,0.0],[616511.8050475,9762118.185801,0.0],[616511.787235,9762118.215446,0.0],[616511.7683987,9762118.2444512,0.0],[616511.7485617,9762118.2727814,0.0],[616511.727748,9762118.3004021,0.0],[616511.7059831,9762118.3272796,0.0],[616511.6832934,9762118.353381,0.0],[616511.6597066,9762118.3786748,0.0],[616511.6352515,9762118.4031299,0.0],[616511.6099578,9762118.4267167,0.0],[616511.5838563,9762118.4494064,0.0],[616511.5569788,9762118.4711713,0.0],[616511.5293582,9762118.491985,0.0],[616511.501028,9762118.511822,0.0],[616511.4720227,9762118.5306582,0.0],[616511.4423777,9762118.5484707,0.0],[616511.4121292,9762118.5652378,0.0],[616511.3813139,9762118.580939,0.0],[616511.3499694,9762118.5955551,0.0],[616511.3181339,9762118.6090685,0.0],[616511.2858462,9762118.6214626,0.0],[616511.2531456,9762118.6327223,0.0],[616511.220072,9762118.6428339,0.0],[616511.1866656,9762118.6517851,0.0],[616511.1529672,9762118.659565,0.0],[616511.1190179,9762118.6661641,0.0],[616511.0848588,9762118.6715744,0.0],[616511.0505318,9762118.6757892,0.0],[616511.0160786,9762118.6788034,0.0],[616510.9815412,9762118.6806135,0.0],[616510.9469617,9762118.6812171,0.0],[616510.9123821,9762118.6806135,0.0],[616510.8778447,9762118.6788034,0.0],[616510.8433915,9762118.6757892,0.0],[616510.8090645,9762118.6715744,0.0],[616510.7749055,9762118.6661641,0.0],[616510.7409561,9762118.659565,0.0],[616510.7072577,9762118.6517851,0.0],[616510.6738513,9762118.6428339,0.0],[616510.6407777,9762118.6327223,0.0],[616510.6080771,9762118.6214626,0.0],[616510.5757894,9762118.6090685,0.0],[616510.5439539,9762118.5955551,0.0],[616510.5126094,9762118.580939,0.0],[616510.4817941,9762118.5652378,0.0],[616510.4515456,9762118.5484707,0.0],[616510.4219006,9762118.5306582,0.0],[616510.3928954,9762118.511822,0.0],[616510.3645651,9762118.491985,0.0],[616510.3369445,9762118.4711713,0.0],[616510.310067,9762118.4494064,0.0],[616510.2839656,9762118.4267167,0.0],[616510.2586718,9762118.4031299,0.0],[616510.2342167,9762118.3786748,0.0],[616510.2106299,9762118.353381,0.0],[616510.1879402,9762118.3272796,0.0],[616510.1661753,9762118.3004021,0.0],[616510.1453616,9762118.2727814,0.0],[616510.1255246,9762118.2444512,0.0],[616510.1066884,9762118.215446,0.0],[616510.0888759,9762118.185801,0.0],[616510.0721088,9762118.1555524,0.0],[616510.0564076,9762118.1247372,0.0],[616510.0417915,9762118.0933927,0.0],[616510.0282781,9762118.0615572,0.0],[616510.015884,9762118.0292695,0.0],[616510.0046243,9762117.9965689,0.0],[616509.9945127,9762117.9634953,0.0],[616509.9855615,9762117.9300889,0.0],[616509.9777816,9762117.8963905,0.0],[616509.9711825,9762117.8624411,0.0],[616509.9657722,9762117.8282821,0.0],[616509.9615574,9762117.7939551,0.0],[616509.9585431,9762117.7595019,0.0],[616509.9567331,9762117.7249645,0.0],[616509.9561295,9762117.6903849,0.0],[616509.9567335,9762117.6557953,0.0],[616509.9585446,9762117.6212478,0.0],[616509.9615606,9762117.5867846,0.0],[616509.9657779,9762117.5524477,0.0],[616509.9711913,9762117.518279,0.0],[616509.9777942,9762117.48432,0.0],[616509.9855786,9762117.4506123,0.0],[616509.994535,9762117.4171969,0.0],[616510.0046524,9762117.3841145,0.0],[616510.0159186,9762117.3514054,0.0],[616510.0283198,9762117.3191096,0.0],[616484.1577538,9762106.8633456,0.0],[616484.1443491,9762106.8949274,0.0],[616484.1298591,9762106.9260261,0.0],[616484.1143011,9762106.9566045,0.0],[616484.0976938,9762106.986626,0.0],[616484.0800571,9762107.0160544,0.0],[616484.0614121,9762107.0448547,0.0],[616484.0417812,9762107.0729922,0.0],[616484.0211879,9762107.1004331,0.0],[616483.9996569,9762107.1271447,0.0],[616483.9772141,9762107.1530948,0.0],[616483.9538863,9762107.1782524,0.0],[616483.9297015,9762107.2025872,0.0],[616483.9046886,9762107.2260702,0.0],[616483.8788778,9762107.2486731,0.0],[616483.8522999,9762107.2703689,0.0],[616483.8249869,9762107.2911315,0.0],[616483.7969713,9762107.3109361,0.0],[616483.7682869,9762107.3297588,0.0],[616483.7389681,9762107.3475772,0.0],[616483.7090499,9762107.3643699,0.0],[616483.6785683,9762107.3801167,0.0],[616483.6475598,9762107.3947987,0.0],[616483.6160616,9762107.4083984,0.0],[616483.5841114,9762107.4208995,0.0],[616483.5517476,9762107.4322869,0.0],[616483.5190089,9762107.442547,0.0],[616483.4859346,9762107.4516675,0.0],[616483.4525644,9762107.4596375,0.0],[616483.4189383,9762107.4664474,0.0],[616483.3850966,9762107.4720891,0.0],[616483.3510799,9762107.4765557,0.0],[616483.3169289,9762107.4798419,0.0],[616483.2826846,9762107.4819439,0.0],[616483.248388,9762107.482859,0.0],[616483.2140804,9762107.4825862,0.0],[616483.1798027,9762107.4811258,0.0],[616483.1455962,9762107.4784795,0.0],[616483.1115017,9762107.4746506,0.0],[616483.0775603,9762107.4696435,0.0],[616483.0438126,9762107.4634644,0.0],[616483.010299,9762107.4561206,0.0],[616482.9770598,9762107.4476209,0.0],[616482.9441348,9762107.4379756,0.0],[616482.9115634,9762107.4271961,0.0],[616482.8793848,9762107.4152955,0.0],[616482.8476374,9762107.4022879,0.0],[616472.8938437,9762130.5458655,0.0],[616472.9247862,9762130.5598062,0.0],[616472.9552331,9762130.5747985,0.0],[616472.9851488,9762130.5908246,0.0],[616473.014498,9762130.6078659,0.0],[616473.0432464,9762130.6259023,0.0],[616473.0713603,9762130.6449127,0.0],[616473.0988066,9762130.6648747,0.0],[616473.1255532,9762130.685765,0.0],[616473.1515687,9762130.707559,0.0],[616473.1768225,9762130.7302312,0.0],[616473.2012851,9762130.7537549,0.0],[616473.2249277,9762130.7781026,0.0],[616473.2477226,9762130.8032457,0.0],[616473.269643,9762130.8291547,0.0],[616473.2906633,9762130.8557992,0.0],[616473.3107588,9762130.883148,0.0],[616473.3299059,9762130.911169,0.0],[616473.3480821,9762130.9398292,0.0],[616473.3652661,9762130.9690951,0.0],[616473.3814378,9762130.9989323,0.0],[616473.3965781,9762131.0293059,0.0],[616473.4106694,9762131.0601802,0.0],[616473.423695,9762131.0915189,0.0],[616473.4356398,9762131.1232853,0.0],[616473.4464896,9762131.1554422,0.0],[616473.4562319,9762131.1879518,0.0],[616473.464855,9762131.2207759,0.0],[616473.472349,9762131.2538761,0.0],[616473.4787049,9762131.2872136,0.0],[616473.4839155,9762131.3207491,0.0],[616473.4879745,9762131.3544435,0.0],[616473.4908772,9762131.388257,0.0],[616473.4926202,9762131.4221502,0.0],[616473.4932014,9762131.4560831,0.0],[616473.4925974,9762131.4906728,0.0],[616473.4907863,9762131.5252203,0.0],[616473.4877703,9762131.5596834,0.0],[616473.483553,9762131.5940203,0.0],[616473.4781396,9762131.6281891,0.0],[616473.4715367,9762131.662148,0.0],[616473.4637523,9762131.6958558,0.0],[616473.4547959,9762131.7292712,0.0],[616473.4446785,9762131.7623536,0.0],[616473.4334123,9762131.7950626,0.0],[616473.4210111,9762131.8273585,0.0],[616519.7551269,9762150.5536043,0.0],[616519.768535,9762150.5220148,0.0],[616519.7830289,9762150.4909086,0.0],[616519.7985914,9762150.460323,0.0],[616519.8152037,9762150.4302946,0.0],[616519.8328459,9762150.4008595,0.0],[616519.8514969,9762150.372053,0.0],[616519.8711342,9762150.3439097,0.0],[616519.8917343,9762150.3164633,0.0],[616519.9132726,9762150.2897467,0.0],[616519.9357231,9762150.263792,0.0],[616519.9590589,9762150.2386303,0.0],[616519.9832521,9762150.2142918,0.0],[616520.0082736,9762150.1908057,0.0],[616520.0340934,9762150.1682002,0.0],[616520.0606805,9762150.1465024,0.0],[616520.0880031,9762150.1257383,0.0],[616520.1160283,9762150.1059328,0.0],[616520.1447226,9762150.0871097,0.0],[616520.1740515,9762150.0692915,0.0],[616520.2039799,9762150.0524997,0.0],[616520.2344718,9762150.0367544,0.0],[616520.2654906,9762150.0220744,0.0],[616520.2969993,9762150.0084774,0.0],[616520.3289598,9762149.9959797,0.0],[616520.361334,9762149.9845962,0.0],[616520.394083,9762149.9743407,0.0],[616520.4271675,9762149.9652254,0.0],[616520.4605478,9762149.9572613,0.0],[616520.4941839,9762149.9504579,0.0],[616520.5280354,9762149.9448234,0.0],[616520.5620617,9762149.9403646,0.0],[616520.596222,9762149.9370867,0.0],[616520.6304754,9762149.9349938,0.0],[616520.6647806,9762149.9340882,0.0],[616520.6990967,9762149.9343712,0.0],[616520.7333824,9762149.9358424,0.0],[616520.7675965,9762149.9385,0.0],[616520.8016981,9762149.9423409,0.0],[616520.8356463,9762149.9473603,0.0],[616520.8694002,9762149.9535523,0.0],[616520.9029195,9762149.9609096,0.0],[616520.9361639,9762149.9694231,0.0],[616520.9690936,9762149.9790828,0.0],[616521.001669,9762149.9898771,0.0],[616521.033851,9762150.0017929,0.0],[616521.0656011,9762150.014816,0.0]]]]}},
{"type":"Feature","properties":{"name":"13C","status":"VIGENTE","zona":13,"cod_ant":"30","cod_act":"13C","ref":"CORPORACION NACIONAL DE ARQUEOLOGIA ANTROPOLOGIA E HISTORIA","area_const":null,"area_terr":1850.71,"fecha_venc":"5 de enero de 2059"},"geometry":{"type":"MultiPolygon","coordinates":[[[[615127.8522014,9762844.2953509,0.0],[615125.7762253,9762837.3687836,0.0],[615135.688797,9762834.3326699,0.0],[615132.8695486,9762825.128139,0.0],[615126.7742809,9762827.017832,0.0],[615126.0615908,9762824.6166096,0.0],[615116.0257602,9762827.6221411,0.0],[615116.8617092,9762830.0539457,0.0],[615110.7664415,9762831.9436388,0.0],[615112.8424176,9762838.8702061,0.0],[615102.9298459,9762841.9063198,0.0],[615105.7490943,9762851.1108507,0.0],[615127.8522014,9762844.2953509,0.0]]]]}},
{"type":"Feature","properties":{"name":"8K","status":"VIGENTE","zona":8,"cod_ant":null,"cod_act":"8K","ref":"SISTEMA DE AGUA POTABLE PARA EL ABASTECIMIENTO DE LA ACADEMIA DE BOMBEROS DE GUAYAQUIL","area_const":null,"area_terr":110.11,"fecha_venc":"28 de agosto de 2069"},"geometry":{"type":"MultiPolygon","coordinates":[[[[614592.7015268,9762862.5871138,0.0],[614586.020213,9762852.4989997,0.0],[614578.4552356,9762857.5567776,0.0],[614585.1365494,9762867.6448917,0.0],[614592.7015268,9762862.5871138,0.0]]]]}},
{"type":"Feature","properties":{"name":"3C","status":"VENCIÓ","zona":3,"cod_ant":"43","cod_act":"3C","ref":"SOCIEDAD ECUATORIANA DE BIOTECNOLOGIA","area_const":null,"area_terr":40800.0,"fecha_venc":"26 de marzo de 2018"},"geometry":{"type":"MultiPolygon","coordinates":[[[[615967.6609844,9762521.9197634,0.0],[615955.4008851,9762301.8429324,0.0],[615916.4093319,9762302.0811236,0.0],[615914.0490248,9762267.8066108,0.0],[615870.3851467,9762267.3981455,0.0],[615868.4011536,9762235.4866088,0.0],[615897.2904728,9762235.0260795,0.0],[615895.9674433,9762209.6532321,0.0],[615827.9004698,9762209.4749218,0.0],[615769.9150917,9762264.6602495,0.0],[615743.789907,9762319.6754122,0.0],[615737.9951476,9762348.5776004,0.0],[615737.0193673,9762363.4720826,0.0],[615741.3838991,9762392.4553385,0.0],[615967.6609844,9762521.9197634,0.0]]]]}},
{"type":"Feature","properties":{"name":"1D","status":"VIGENTE","zona":1,"cod_ant":null,"cod_act":"1D","ref":"GOE (EDIFICACIONES VARIAS)","area_const":4290.59,"area_terr":74323.96,"fecha_venc":"28 de mayo de 2124"},"geometry":{"type":"MultiPolygon","coordinates":[[[[617050.2707826,9763918.6570434,71.484],[617096.6867289,9763768.030828,71.484],[617090.585036,9763765.0644723,71.484],[617036.7540384,9763738.5977635,71.484],[616996.6304863,9763718.3949626,71.484],[616981.3783752,9763718.8632293,71.484],[616939.3102314,9763703.9053766,71.484],[616922.6430148,9763700.5113049,71.484],[616915.5408332,9763697.0795949,71.484],[616893.8417117,9763697.5975324,71.484],[616840.4019091,9763722.0326423,71.484],[616797.1917594,9763813.5682898,71.484],[616758.5200671,9763920.5417668,71.484],[616868.0525819,9763955.6386031,71.484],[616852.9286047,9764012.0477147,71.484],[616993.565,9764021.497,71.484],[617025.4447274,9763999.2210531,71.484],[617050.2707826,9763918.6570434,71.484]]]]}},
{"type":"Feature","properties":{"name":null,"status":"A LA FECHA 26-AGO-25, GADM INDICA QUE ESTA EN PROCESO DE FORMALIZACION","zona":1,"cod_ant":null,"cod_act":null,"ref":"CNEL EP","area_const":null,"area_terr":null,"fecha_venc":"PEDIR GADM"},"geometry":{"type":"MultiPolygon","coordinates":[[[[617101.5109723,9763729.1280602,0.0],[617095.4457654,9763715.1490166,0.0],[617050.5775879,9763693.0844134,0.0],[617038.9529365,9763731.3580007,0.0],[617036.7540384,9763738.5977635,0.0],[617090.585036,9763765.0644723,0.0],[617090.5973227,9763765.0704455,0.0],[617092.8283549,9763757.7248831,0.0],[617101.5109723,9763729.1280602,0.0]]]]}},
{"type":"Feature","properties":{"name":null,"status":"A LA FECHA 26-AGO-25, GADM INDICA QUE ESTA EN PROCESO DE FORMALIZACION","zona":3,"cod_ant":null,"cod_act":null,"ref":"CONDUESPOL","area_const":110.35,"area_terr":2614.94,"fecha_venc":"PEDIR GADM"},"geometry":{"type":"MultiPolygon","coordinates":[[[[616298.2989592,9762231.913145,0.0],[616298.2989592,9762220.8383095,0.0],[616287.2331554,9762221.1430905,0.0],[616287.2257747,9762199.9237313,0.0],[616235.4997419,9762200.0156556,0.0],[616235.3894584,9762214.4167391,0.0],[616235.3144492,9762224.2116312,0.0],[616235.1443776,9762246.4199988,0.0],[616293.6382009,9762245.959766,0.0],[616293.3851016,9762237.2158954,0.0],[616294.6073945,9762232.6748926,0.0],[616298.2989592,9762231.913145,0.0]]]]}},
{"type":"Feature","properties":{"name":"5D","status":"G.ADM AFIRMA QUE SÍ TIENE","zona":5,"cod_ant":"63A","cod_act":"5D","ref":"INAMHI","area_const":86.85,"area_terr":78.5,"fecha_venc":"PEDIR GADM"},"geometry":{"type":"MultiPolygon","coordinates":[[[[615412.1295604,9762666.8624601,0.0],[615423.8683413,9762663.2442602,0.0],[615420.8007155,9762652.9313298,0.0],[615400.1442724,9762659.1898402,0.0],[615403.0561974,9762668.5482122,0.0],[615408.0440985,9762684.8331514,0.0],[615416.8176884,9762682.1686739,0.0],[615412.1295604,9762666.8624601,0.0]]]]}},
{"type":"Feature","properties":{"name":null,"status":"VIGENTE","zona":1,"cod_ant":null,"cod_act":null,"ref":"ZEDE","area_const":0.0,"area_terr":1522057.82,"fecha_venc":"20 de agosto de 2065"},"geometry":{"type":"MultiPolygon","coordinates":[[[[616546.4982716,9763333.8186331,0.0],[616703.8332166,9763333.8186331,0.0],[616703.8332166,9763279.2845851,0.0],[616546.4982716,9763279.2845851,0.0],[616546.4982716,9763333.8186331,0.0]]]]}}
]
}
