{
"type": "FeatureCollection",
"name": "fibra_optica1",
"crs": { "type": "name", "properties": { "name": "urn:ogc:def:crs:EPSG::32717" } },
"xy_coordinate_resolution": 1e-07,
"features": [
{"type":"Feature","properties":{"Color":"blue"},"geometry":{"type":"MultiLineString","coordinates":[[[615848.091683,9762052.9246917,3279.9137629],[615847.5145388,9762052.9252306,3279.9137629]]]}},
{"type":"Feature","properties":{"Color":"blue"},"geometry":{"type":"MultiLineString","coordinates":[[[614880.7109796,9763171.6225741,3115.3615576],[614880.7635031,9763170.8109851,3115.3615576]]]}},
{"type":"Feature","properties":{"Color":"blue"},"geometry":{"type":"MultiLineString","coordinates":[[[615567.8475531,9762133.8615224,-39.0],[615569.5572926,9762132.5007179,-39.0]]]}},
{"type":"Feature","properties":{"Color":"122"},"geometry":{"type":"MultiLineString","coordinates":[[[615579.1801624,9762280.189886,-89.2749221],[615567.6532461,9762276.2325346,-89.2749221],[615548.8823969,9762270.4553334,-89.2749221],[615533.0026084,9762265.9334103,-89.2749221],[615516.0250067,9762263.9043369,-89.2749221]]]}},
{"type":"Feature","properties":{"Color":"122"},"geometry":{"type":"MultiLineString","coordinates":[[[615623.9945486,9762295.1298362,-77.7581973],[615645.5028354,9762302.548534,-77.7581973],[615667.8813267,9762313.3427774,-77.7581973],[615684.7326256,9762323.3331002,-77.7581973],[615702.3008819,9762340.7859876,-77.7581973]]]}},
{"type":"Feature","properties":{"Color":"blue"},"geometry":{"type":"MultiLineString","coordinates":[[[614782.6212107,9762965.2969877,0.0],[614782.4194075,9762964.2259008,0.0]]]}},
{"type":"Feature","properties":{"Color":"122"},"geometry":{"type":"MultiLineString","coordinates":[[[615598.9029355,9762287.0672491,-89.2749221],[615623.0431457,9762294.8218873,-89.2749221]]]}},
{"type":"Feature","properties":{"Color":"122"},"geometry":{"type":"MultiLineString","coordinates":[[[615597.9515326,9762286.7593002,-89.2749221],[615579.1801624,9762280.189886,-89.2749221]]]}},
{"type":"Feature","properties":{"Color":"blue"},"geometry":{"type":"MultiLineString","coordinates":[[[615028.888044,9762744.6026151,0.0],[615028.4670114,9762744.7287707,0.0]]]}},
{"type":"Feature","properties":{"Color":"blue"},"geometry":{"type":"MultiLineString","coordinates":[[[615107.5107261,9762914.1650175,-236.0],[615094.4320267,9762929.703359,-236.0]]]}},
{"type":"Feature","properties":{"Color":"122"},"geometry":{"type":"MultiLineString","coordinates":[[[615915.3875075,9762093.7283951,0.0],[615948.7346262,9762126.9645999,0.0],[615948.8628016,9762163.6614527,0.0]]]}},
{"type":"Feature","properties":{"Color":"blue"},"geometry":{"type":"MultiLineString","coordinates":[[[615620.2042544,9762050.4059384,-123.5543609],[615622.2470884,9762052.0814392,-123.5543609],[615624.2332971,9762053.8236932,-123.5543609],[615626.1607002,9762055.6307879,-123.5543609],[615628.0271819,9762057.5007397,-123.5543609],[615629.8306935,9762059.431496,-123.5543609],[615631.5692553,9762061.4209374,-123.5543609],[615633.2409587,9762063.4668801,-123.5543609],[615634.843969,9762065.5670782,-123.5543609],[615636.3765263,9762067.7192264,-123.5543609],[615637.8369484,9762069.9209623,-123.5543609],[615639.2236323,9762072.1698691,-123.5543609]]]}},
{"type":"Feature","properties":{"Color":"blue"},"geometry":{"type":"MultiLineString","coordinates":[[[615596.6986693,9762043.8922807,-123.5543609],[615599.0461887,9762044.1487575,-123.5543609],[615601.3841375,9762044.4813577,-123.5543609],[615603.7100479,9762044.8897302,-123.5543609],[615606.0214649,9762045.3734439,-123.5543609],[615608.3159486,9762045.9319883,-123.5543609],[615610.5910772,9762046.5647737,-123.5543609],[615612.8444491,9762047.2711324,-123.5543609],[615615.0736858,9762048.0503186,-123.5543609],[615617.2764343,9762048.9015099,-123.5543609],[615619.4503695,9762049.8238078,-123.5543609],[615619.4902755,9762049.8541915,-123.5543609]]]}},
{"type":"Feature","properties":{"Color":"blue"},"geometry":{"type":"MultiLineString","coordinates":[[[615571.6160876,9762058.3952224,-137.710917],[615572.2395755,9762057.4636666,-137.710917],[615572.8952163,9762056.5544535,-137.710917],[615573.5822101,9762055.6686922,-137.710917],[615574.2997187,9762054.8074636,-137.710917],[615575.0468667,9762053.9718183,-137.710917],[615575.8227427,9762053.1627757,-137.710917],[615576.6264001,9762052.3813231,-137.710917],[615577.4568582,9762051.6284137,-137.710917],[615578.3131041,9762050.9049661,-137.710917],[615579.1940929,9762050.2118629,-137.710917],[615580.09875,9762049.5499498,-137.710917],[615581.0259716,9762048.9200343,-137.710917],[615581.9746264,9762048.3228849,-137.710917],[615582.9435571,9762047.7592302,-137.710917],[615583.9315816,9762047.2297578,-137.710917],[615584.9374944,9762046.7351137,-137.710917],[615585.9600683,9762046.2759013,-137.710917],[615586.9980557,9762045.852681,-137.710917],[615588.0501903,9762045.465969,-137.710917],[615589.1151884,9762045.1162372,-137.710917],[615590.1917508,9762044.8039123,-137.710917],[615591.2785639,9762044.5293752,-137.710917],[615592.3743019,9762044.292961,-137.710917],[615593.4776278,9762044.094958,-137.710917],[615594.5871957,9762043.9356078,-137.710917],[615595.7016518,9762043.8151049,-137.710917]]]}},
{"type":"Feature","properties":{"Color":"122"},"geometry":{"type":"MultiLineString","coordinates":[[[615040.4327079,9762740.7562796,0.0],[615044.0624367,9762753.1487538,0.0]]]}},
{"type":"Feature","properties":{"Color":"122"},"geometry":{"type":"MultiLineString","coordinates":[[[615040.1088277,9762739.8101815,0.0],[615039.5764624,9762729.0686731,0.0]]]}},
{"type":"Feature","properties":{"Color":"blue"},"geometry":{"type":"MultiLineString","coordinates":[[[615039.8022772,9762740.4584865,0.0],[615029.834125,9762744.2786851,0.0]]]}},
{"type":"Feature","properties":{"Color":"blue"},"geometry":{"type":"MultiLineString","coordinates":[[[615469.5878935,9763060.8081969,-0.0],[615454.1285215,9763041.773032,-0.0]]]}},
{"type":"Feature","properties":{"Color":"blue"},"geometry":{"type":"MultiLineString","coordinates":[[[615488.439161,9763046.1939212,-0.0],[615470.3085482,9763060.8904401,-0.0]]]}},
{"type":"Feature","properties":{"Color":"blue"},"geometry":{"type":"MultiLineString","coordinates":[[[615492.0567343,9763043.3905562,0.0],[615489.1997579,9763045.5446193,0.0]]]}},
{"type":"Feature","properties":{"Color":"blue"},"geometry":{"type":"MultiLineString","coordinates":[[[615453.2403486,9763041.2122444,201.0306724],[615433.7304994,9763032.3916354,201.0306724]]]}},
{"type":"Feature","properties":{"Color":"blue"},"geometry":{"type":"MultiLineString","coordinates":[[[615426.3065954,9763026.7350696,193.2942182],[615424.1387069,9763029.3647321,193.2942182]]]}},
{"type":"Feature","properties":{"Color":"blue"},"geometry":{"type":"MultiLineString","coordinates":[[[615427.0089944,9763026.6536099,193.2942182],[615433.0113474,9763031.7090599,193.2942182]]]}},
{"type":"Feature","properties":{"Color":"blue"},"geometry":{"type":"MultiLineString","coordinates":[[[614759.3187477,9762984.2418149,0.0],[614776.5196194,9763007.9749311,0.0]]]}},
{"type":"Feature","properties":{"Color":"blue"},"geometry":{"type":"MultiLineString","coordinates":[[[614777.2604698,9763008.6466012,-154.4258705],[614797.6197486,9763029.6723714,-154.4258705]]]}},
{"type":"Feature","properties":{"Color":"blue"},"geometry":{"type":"MultiLineString","coordinates":[[[614820.3205495,9763047.266307,0.0],[614815.7443943,9763044.1286176,0.0],[614811.2606264,9763040.8602669,0.0],[614806.8729754,9763037.4639735,0.0],[614802.5850908,9763033.9425623,0.0],[614798.4005394,9763030.2989625,0.0]]]}},
{"type":"Feature","properties":{"Color":"blue"},"geometry":{"type":"MultiLineString","coordinates":[[[614845.733221,9763061.5088742,0.0],[614840.6613901,9763059.0608737,0.0],[614835.6633852,9763056.4654695,0.0],[614830.7434892,9763053.7248857,0.0],[614825.9059181,9763050.8414708,0.0],[614821.1548172,9763047.8176957,0.0]]]}},
{"type":"Feature","properties":{"Color":"blue"},"geometry":{"type":"MultiLineString","coordinates":[[[614873.8463091,9763071.5709494,0.0],[614901.4143438,9763074.5579171,0.0]]]}},
{"type":"Feature","properties":{"Color":"blue"},"geometry":{"type":"MultiLineString","coordinates":[[[614846.6436695,9763061.9224967,0.0],[614859.6860714,9763066.8339815,0.0],[614872.8717509,9763071.3467178,0.0]]]}},
{"type":"Feature","properties":{"Color":"blue"},"geometry":{"type":"MultiLineString","coordinates":[[[614881.2811426,9763170.3072752,0.0],[614890.1424343,9763170.4114018,0.0]]]}},
{"type":"Feature","properties":{"Color":"blue"},"geometry":{"type":"MultiLineString","coordinates":[[[614950.5539403,9763067.6677764,0.0],[614932.5036749,9763073.3690597,0.0]]]}},
{"type":"Feature","properties":{"Color":"blue"},"geometry":{"type":"MultiLineString","coordinates":[[[614911.621983,9763075.3444832,0.0],[614931.5195934,9763073.5501929,0.0]]]}},
{"type":"Feature","properties":{"Color":"122"},"geometry":{"type":"MultiLineString","coordinates":[[[614893.9002048,9763112.5273606,0.0],[614873.1622302,9763113.7469673,0.0]]]}},
{"type":"Feature","properties":{"Color":"blue"},"geometry":{"type":"MultiLineString","coordinates":[[[614892.4631307,9763142.1651487,0.0],[614890.6828211,9763169.8296361,0.0]]]}},
{"type":"Feature","properties":{"Color":"blue"},"geometry":{"type":"MultiLineString","coordinates":[[[614894.3667097,9763113.0443382,0.0],[614892.5235715,9763141.1669532,0.0]]]}},
{"type":"Feature","properties":{"Color":"122"},"geometry":{"type":"MultiLineString","coordinates":[[[614897.8519225,9763092.8301628,0.0],[614894.4177299,9763112.0455227,0.0]]]}},
{"type":"Feature","properties":{"Color":"122"},"geometry":{"type":"MultiLineString","coordinates":[[[614901.8722668,9763075.0967181,0.0],[614898.0731007,9763091.8545619,0.0]]]}},
{"type":"Feature","properties":{"Color":"122"},"geometry":{"type":"MultiLineString","coordinates":[[[614911.16406,9763074.8056822,0.0],[614910.8945935,9763023.5564801,0.0]]]}},
{"type":"Feature","properties":{"Color":"122"},"geometry":{"type":"MultiLineString","coordinates":[[[614902.4110678,9763074.6387951,0.0],[614910.625259,9763075.2636052,0.0]]]}},
{"type":"Feature","properties":{"Color":"blue"},"geometry":{"type":"MultiLineString","coordinates":[[[614977.3826363,9763079.3332112,0.0],[614960.6284771,9763083.3448078,0.0]]]}},
{"type":"Feature","properties":{"Color":"blue"},"geometry":{"type":"MultiLineString","coordinates":[[[614951.139706,9763067.9985008,0.0],[614959.8773951,9763082.9914616,0.0]]]}},
{"type":"Feature","properties":{"Color":"blue"},"geometry":{"type":"MultiLineString","coordinates":[[[614718.0678442,9762870.5846871,0.0],[614724.636527,9762893.6362016,0.0]]]}},
{"type":"Feature","properties":{"Color":"blue"},"geometry":{"type":"MultiLineString","coordinates":[[[614711.4800521,9762846.3026589,0.0],[614717.7733578,9762869.6290314,0.0]]]}},
{"type":"Feature","properties":{"Color":"blue"},"geometry":{"type":"MultiLineString","coordinates":[[[614706.6968915,9762828.2092,0.0],[614711.224883,9762845.3357624,0.0]]]}},
{"type":"Feature","properties":{"Color":"blue"},"geometry":{"type":"MultiLineString","coordinates":[[[614731.3003859,9762917.5601336,0.0],[614724.9241049,9762894.5939588,0.0]]]}},
{"type":"Feature","properties":{"Color":"blue"},"geometry":{"type":"MultiLineString","coordinates":[[[614737.7364084,9762941.6591481,0.0],[614731.6544303,9762918.4953623,0.0]]]}},
{"type":"Feature","properties":{"Color":"blue"},"geometry":{"type":"MultiLineString","coordinates":[[[614738.0365261,9762942.6130503,0.0],[614747.1900051,9762963.4246902,0.0]]]}},
{"type":"Feature","properties":{"Color":"blue"},"geometry":{"type":"MultiLineString","coordinates":[[[614758.7736335,9762983.4637722,0.0],[614747.6428186,9762964.3162955,0.0]]]}},
{"type":"Feature","properties":{"Color":"122"},"geometry":{"type":"MultiLineString","coordinates":[[[614706.1055013,9762827.8215692,0.0],[614672.6018111,9762831.0980192,0.0]]]}},
{"type":"Feature","properties":{"Color":"122"},"geometry":{"type":"MultiLineString","coordinates":[[[614703.2121853,9762810.6256919,230.851741],[614706.5586649,9762827.2165399,230.851741]]]}},
{"type":"Feature","properties":{"Color":"blue"},"geometry":{"type":"MultiLineString","coordinates":[[[614782.2288576,9762965.8850984,0.0],[614759.4413417,9762983.5454166,0.0]]]}},
{"type":"Feature","properties":{"Color":"122"},"geometry":{"type":"MultiLineString","coordinates":[[[614782.8160807,9762645.02182,-39.0],[614797.8980151,9762640.5292719,-39.0]]]}},
{"type":"Feature","properties":{"Color":"122"},"geometry":{"type":"MultiLineString","coordinates":[[[614783.1878951,9762649.0245637,-39.0],[614782.476568,9762645.642087,-39.0]]]}},
{"type":"Feature","properties":{"Color":"122"},"geometry":{"type":"MultiLineString","coordinates":[[[614758.6584696,9762656.9215965,0.0],[614782.8483824,9762649.6448307,0.0]]]}},
{"type":"Feature","properties":{"Color":"blue"},"geometry":{"type":"MultiLineString","coordinates":[[[614733.2052486,9762664.9415579,-39.0],[614757.7100012,9762657.2410192,-39.0]]]}},
{"type":"Feature","properties":{"Color":"blue"},"geometry":{"type":"MultiLineString","coordinates":[[[614705.966061,9762662.2855157,-154.4258705],[614688.7382733,9762659.3930235,-154.4258705]]]}},
{"type":"Feature","properties":{"Color":"blue"},"geometry":{"type":"MultiLineString","coordinates":[[[614732.2055448,9762664.9659049,-154.4258705],[614706.9522691,9762662.451097,-154.4258705]]]}},
{"type":"Feature","properties":{"Color":"blue"},"geometry":{"type":"MultiLineString","coordinates":[[[615148.4252048,9762906.6632489,3.0006454],[615120.1603903,9762899.8288388,3.0006454]]]}},
{"type":"Feature","properties":{"Color":"blue"},"geometry":{"type":"MultiLineString","coordinates":[[[615173.5413004,9762922.9968259,-118.0],[615149.2636515,9762907.2082324,-118.0]]]}},
{"type":"Feature","properties":{"Color":"blue"},"geometry":{"type":"MultiLineString","coordinates":[[[615190.9193277,9762899.1153828,-118.0],[615174.1370853,9762922.9976812,-118.0]]]}},
{"type":"Feature","properties":{"Color":"blue"},"geometry":{"type":"MultiLineString","coordinates":[[[615208.1291592,9762874.4703927,-118.0],[615191.4207125,9762898.3440118,-118.0]]]}},
{"type":"Feature","properties":{"Color":"122"},"geometry":{"type":"MultiLineString","coordinates":[[[615230.2519818,9762846.9684125,0.0],[615233.0062569,9762836.5723852,0.0]]]}},
{"type":"Feature","properties":{"Color":"122"},"geometry":{"type":"MultiLineString","coordinates":[[[615229.9440329,9762847.9198154,0.0],[615229.3121888,9762850.1419963,0.0]]]}},
{"type":"Feature","properties":{"Color":"blue"},"geometry":{"type":"MultiLineString","coordinates":[[[615207.972393,9762873.7941156,-47.2],[615206.8502049,9762873.0847498,-47.2]]]}},
{"type":"Feature","properties":{"Color":"blue"},"geometry":{"type":"MultiLineString","coordinates":[[[615208.6741428,9762873.631946,-118.0],[615212.2370275,9762867.5776715,-118.0]]]}},
{"type":"Feature","properties":{"Color":"blue"},"geometry":{"type":"MultiLineString","coordinates":[[[615212.7820111,9762866.7392247,-118.0],[615224.8356059,9762846.5454291,-118.0]]]}},
{"type":"Feature","properties":{"Color":"blue"},"geometry":{"type":"MultiLineString","coordinates":[[[615229.5523828,9762847.4001879,0.0],[615225.4662356,9762846.2255757,0.0]]]}},
{"type":"Feature","properties":{"Color":"blue"},"geometry":{"type":"MultiLineString","coordinates":[[[615750.4009493,9761967.0685356,8.1801159],[615750.3658945,9761968.0372165,8.1801159]]]}},
{"type":"Feature","properties":{"Color":"blue"},"geometry":{"type":"MultiLineString","coordinates":[[[615756.0308722,9761980.221711,8.1801159],[615750.345142,9761969.0394237,8.1801159]]]}},
{"type":"Feature","properties":{"Color":"122"},"geometry":{"type":"MultiLineString","coordinates":[[[615733.3210852,9761960.8569085,-83.36299],[615733.7671243,9761975.854554,-83.36299]]]}},
{"type":"Feature","properties":{"Color":"122"},"geometry":{"type":"MultiLineString","coordinates":[[[615755.4340949,9761980.634261,-83.36299],[615734.2656998,9761976.3559744,-83.36299]]]}},
{"type":"Feature","properties":{"Color":"blue"},"geometry":{"type":"MultiLineString","coordinates":[[[616336.8345619,9762174.8409694,-78.5671899],[616345.364492,9762174.694133,-78.5671899]]]}},
{"type":"Feature","properties":{"Color":"blue"},"geometry":{"type":"MultiLineString","coordinates":[[[616345.8645567,9762204.6549124,-82.9754909],[616345.1523886,9762206.2955227,-82.9754909]]]}},
{"type":"Feature","properties":{"Color":"blue"},"geometry":{"type":"MultiLineString","coordinates":[[[616345.8645567,9762190.2008574,-82.9754909],[616345.8645567,9762203.6548231,-82.9754909]]]}},
{"type":"Feature","properties":{"Color":"blue"},"geometry":{"type":"MultiLineString","coordinates":[[[616345.8645567,9762175.187495,-82.9754909],[616345.8645567,9762189.2007681,-82.9754909]]]}},
{"type":"Feature","properties":{"Color":"blue"},"geometry":{"type":"MultiLineString","coordinates":[[[616320.8353064,9762174.8966793,-88.1587901],[616335.9246431,9762174.8531291,-88.1587901]]]}},
{"type":"Feature","properties":{"Color":"blue"},"geometry":{"type":"MultiLineString","coordinates":[[[616303.6942157,9762174.931691,-88.1587901],[616319.8352464,9762174.8988745,-88.1587901]]]}},
{"type":"Feature","properties":{"Color":"122"},"geometry":{"type":"MultiLineString","coordinates":[[[616315.4611066,9762161.9928988,-90.214133],[616317.5680676,9762161.9928988,-90.214133]]]}},
{"type":"Feature","properties":{"Color":"122"},"geometry":{"type":"MultiLineString","coordinates":[[[616288.7706116,9762161.978334,-109.85521],[616285.9811458,9762161.978334,-109.85521]]]}},
{"type":"Feature","properties":{"Color":"122"},"geometry":{"type":"MultiLineString","coordinates":[[[616289.7705056,9762161.9928988,-109.85521],[616314.4612127,9762161.978334,-109.85521]]]}},
{"type":"Feature","properties":{"Color":"blue"},"geometry":{"type":"MultiLineString","coordinates":[[[615640.7715635,9762106.5476432,-122.36299],[615639.2628755,9762072.6121664,-122.36299]]]}},
{"type":"Feature","properties":{"Color":"blue"},"geometry":{"type":"MultiLineString","coordinates":[[[615640.396033,9762107.4744532,-122.36299],[615628.0134908,9762139.2328538,-122.36299]]]}},
{"type":"Feature","properties":{"Color":"blue"},"geometry":{"type":"MultiLineString","coordinates":[[[615611.1021601,9762173.0873837,-122.36299],[615627.6379604,9762140.1596639,-122.36299]]]}},
{"type":"Feature","properties":{"Color":"blue"},"geometry":{"type":"MultiLineString","coordinates":[[[615605.0408206,9762209.9507382,-122.36299],[615610.8516864,9762174.0555071,-122.36299]]]}},
{"type":"Feature","properties":{"Color":"blue"},"geometry":{"type":"MultiLineString","coordinates":[[[615606.8436955,9762240.2140645,-122.36299],[615605.0772918,9762210.9503437,-122.36299]]]}},
{"type":"Feature","properties":{"Color":"blue"},"geometry":{"type":"MultiLineString","coordinates":[[[615618.4344067,9762267.928504,-122.36299],[615607.0259495,9762241.2026442,-122.36299]]]}},
{"type":"Feature","properties":{"Color":"blue"},"geometry":{"type":"MultiLineString","coordinates":[[[615604.8764628,9762265.686771,-81.4929362],[615598.5812085,9762286.4375732,-81.4929362]]]}},
{"type":"Feature","properties":{"Color":"blue"},"geometry":{"type":"MultiLineString","coordinates":[[[615618.2394879,9762268.6082147,-122.36299],[615605.4781246,9762265.392616,-122.36299]]]}},
{"type":"Feature","properties":{"Color":"blue"},"geometry":{"type":"MultiLineString","coordinates":[[[615571.4710565,9762059.5004064,-44.36299],[615561.783832,9762090.9544118,-44.36299]]]}},
{"type":"Feature","properties":{"Color":"blue"},"geometry":{"type":"MultiLineString","coordinates":[[[615561.6550595,9762091.9484388,-44.36299],[615559.2234848,9762123.9498507,-44.36299]]]}},
{"type":"Feature","properties":{"Color":"blue"},"geometry":{"type":"MultiLineString","coordinates":[[[615559.8260733,9762124.6317503,-83.36299],[615567.2076226,9762133.8924418,-83.36299]]]}},
{"type":"Feature","properties":{"Color":"122"},"geometry":{"type":"MultiLineString","coordinates":[[[615788.2763822,9761987.2619629,-83.36299],[615756.4162884,9761980.8228063,-83.36299]]]}},
{"type":"Feature","properties":{"Color":"blue"},"geometry":{"type":"MultiLineString","coordinates":[[[615828.58188,9761994.6557824,-83.36299],[615818.3480374,9761967.4405026,-83.36299]]]}},
{"type":"Feature","properties":{"Color":"blue"},"geometry":{"type":"MultiLineString","coordinates":[[[615838.1185762,9761991.1684923,-83.36299],[615839.410986,9761990.5982217,-83.36299]]]}},
{"type":"Feature","properties":{"Color":"blue"},"geometry":{"type":"MultiLineString","coordinates":[[[615829.3405487,9761994.8453983,-83.36299],[615837.2093163,9761991.6895161,-83.36299]]]}},
{"type":"Feature","properties":{"Color":"blue"},"geometry":{"type":"MultiLineString","coordinates":[[[615818.3860615,9761999.3055844,-83.36299],[615828.3757258,9761995.312395,-83.36299]]]}},
{"type":"Feature","properties":{"Color":"122"},"geometry":{"type":"MultiLineString","coordinates":[[[615796.0059315,9761979.1132868,-83.36299],[615788.9825168,9761987.2990295,-83.36299]]]}},
{"type":"Feature","properties":{"Color":"blue"},"geometry":{"type":"MultiLineString","coordinates":[[[615860.0348417,9762056.7225882,-70.85521],[615848.8914089,9762052.9037535,-70.85521]]]}},
{"type":"Feature","properties":{"Color":"blue"},"geometry":{"type":"MultiLineString","coordinates":[[[615868.1104623,9762048.5867964,-83.36299],[615860.5516942,9762056.6988617,-83.36299]]]}},
{"type":"Feature","properties":{"Color":"122"},"geometry":{"type":"MultiLineString","coordinates":[[[615817.6315165,9761999.3120993,-83.36299],[615796.6716782,9761979.1345376,-83.36299]]]}},
{"type":"Feature","properties":{"Color":"122"},"geometry":{"type":"MultiLineString","coordinates":[[[615833.7839867,9762014.8725722,-83.36299],[615818.3537828,9762000.0074087,-83.36299]]]}},
{"type":"Feature","properties":{"Color":"122"},"geometry":{"type":"MultiLineString","coordinates":[[[615850.5282189,9762031.0036454,-83.36299],[615834.5059803,9762015.568127,-83.36299]]]}},
{"type":"Feature","properties":{"Color":"122"},"geometry":{"type":"MultiLineString","coordinates":[[[615868.0750949,9762047.87299,-83.36299],[615851.2504852,9762031.6989548,-83.36299]]]}},
{"type":"Feature","properties":{"Color":"122"},"geometry":{"type":"MultiLineString","coordinates":[[[615891.6210048,9762070.6668675,-83.36299],[615868.7950641,9762048.5677025,-83.36299]]]}},
{"type":"Feature","properties":{"Color":"122"},"geometry":{"type":"MultiLineString","coordinates":[[[615914.7313987,9762093.0414287,-83.36299],[615892.3398479,9762071.3628226,-83.36299]]]}},
{"type":"Feature","properties":{"Color":"blue"},"geometry":{"type":"MultiLineString","coordinates":[[[615818.0459734,9761939.5373355,-83.36299],[615817.9935213,9761966.5849374,-83.36299]]]}},
{"type":"Feature","properties":{"Color":"blue"},"geometry":{"type":"MultiLineString","coordinates":[[[615818.1003694,9761911.4873749,-83.36299],[615818.0479132,9761938.5370694,-83.36299]]]}},
{"type":"Feature","properties":{"Color":"blue"},"geometry":{"type":"MultiLineString","coordinates":[[[615818.1545715,9761883.5374408,-83.36299],[615818.1021152,9761910.5871354,-83.36299]]]}},
{"type":"Feature","properties":{"Color":"blue"},"geometry":{"type":"MultiLineString","coordinates":[[[615818.2088705,9761855.5374935,-83.36299],[615818.1565112,9761882.5371747,-83.36299]]]}},
{"type":"Feature","properties":{"Color":"blue"},"geometry":{"type":"MultiLineString","coordinates":[[[615818.2631695,9761827.5375461,-83.36299],[615818.2108103,9761854.5372273,-83.36299]]]}},
{"type":"Feature","properties":{"Color":"blue"},"geometry":{"type":"MultiLineString","coordinates":[[[615014.5333933,9763017.5148183,0.0],[615026.1738021,9763003.2860677,0.0]]]}},
{"type":"Feature","properties":{"Color":"blue"},"geometry":{"type":"MultiLineString","coordinates":[[[615108.1402809,9762913.3880178,-236.0],[615119.4304053,9762899.9506953,-236.0]]]}},
{"type":"Feature","properties":{"Color":"blue"},"geometry":{"type":"MultiLineString","coordinates":[[[615077.6584742,9762949.4520321,-236.0],[615093.8089038,9762930.4854829,-236.0]]]}},
{"type":"Feature","properties":{"Color":"blue"},"geometry":{"type":"MultiLineString","coordinates":[[[615059.6002759,9762968.7178568,-236.0],[615077.0152463,9762950.234765,-236.0]]]}},
{"type":"Feature","properties":{"Color":"blue"},"geometry":{"type":"MultiLineString","coordinates":[[[615041.9906154,9762986.0427943,-236.0],[615058.8879633,9762969.4197197,-236.0]]]}},
{"type":"Feature","properties":{"Color":"blue"},"geometry":{"type":"MultiLineString","coordinates":[[[615026.8980975,9763002.596578,0.0],[615041.3025347,9762986.6978095,0.0]]]}},
{"type":"Feature","properties":{"Color":"blue"},"geometry":{"type":"MultiLineString","coordinates":[[[614994.08381,9763035.4123274,0.0],[614997.5898169,9763032.8054472,0.0],[615001.0141619,9763030.0921888,0.0],[615004.3536184,9763027.2751089,0.0],[615007.60504,9763024.3568617,0.0],[615010.7653631,9763021.3401969,0.0],[615013.8316101,9763018.2279567,0.0]]]}},
{"type":"Feature","properties":{"Color":"blue"},"geometry":{"type":"MultiLineString","coordinates":[[[614977.4156336,9763049.6991005,0.0],[614993.318292,9763036.0585137,0.0]]]}},
{"type":"Feature","properties":{"Color":"122"},"geometry":{"type":"MultiLineString","coordinates":[[[614688.1191387,9762659.8304858,-115.4258705],[614683.8440429,9762687.3556791,-115.4258705]]]}},
{"type":"Feature","properties":{"Color":"122"},"geometry":{"type":"MultiLineString","coordinates":[[[614680.8282111,9762640.2126429,-115.4258705],[614688.3524207,9762658.8580767,-115.4258705]]]}},
{"type":"Feature","properties":{"Color":"blue"},"geometry":{"type":"MultiLineString","coordinates":[[[617129.1984272,9763137.0355793,0.0],[617119.7109059,9763139.6820178,0.0]]]}},
{"type":"Feature","properties":{"Color":"blue"},"geometry":{"type":"MultiLineString","coordinates":[[[617132.6775685,9763149.470296,0.0],[617129.8016072,9763137.4045968,0.0]]]}},
{"type":"Feature","properties":{"Color":"blue"},"geometry":{"type":"MultiLineString","coordinates":[[[617135.565238,9763161.584605,0.0],[617132.911731,9763150.4424935,0.0]]]}}
]
}
