{
"type": "FeatureCollection",
"name": "fibra_optica2",
"crs": { "type": "name", "properties": { "name": "urn:ogc:def:crs:EPSG::32717" } },
"xy_coordinate_resolution": 1e-07,
"features": [
{"type":"Feature","properties":{"Color":"BYLAYER"},"geometry":{"type":"MultiLineString","coordinates":[[[615200.5384077,9762422.9443242,0.0],[615231.7204601,9762467.547033,0.0],[615214.6765749,9762482.4523788,0.0],[615181.415959,9762489.5151032,0.0],[615163.4217048,9762499.52414,0.0],[615152.1454578,9762504.5941992,0.0],[615143.1926967,9762519.3186407,0.0],[615120.343016,9762556.3531281,0.0],[615141.1622489,9762585.0856953,0.0],[615123.8409434,9762585.5772729,0.0],[615104.9324597,9762585.4280189,0.0],[615097.8173456,9762591.5113784,0.0],[615099.6619426,9762597.3660308,0.0],[615097.9065543,9762615.1977842,0.0],[615093.1397618,9762624.3905438,0.0],[615076.1708969,9762637.0243566,0.0],[615072.4120091,9762644.2123542,0.0],[615065.9829984,9762649.7511681,0.0],[615061.9310267,9762660.1452764,0.0],[615052.6056888,9762664.0323118,0.0],[615062.0438394,9762680.4694129,0.0],[615069.4313239,9762692.4631656,0.0],[615070.1392577,9762695.4759852,0.0]]]}},
{"type":"Feature","properties":{"Color":"BYLAYER"},"geometry":{"type":"MultiLineString","coordinates":[[[616246.3314069,9762156.6915972,0.0],[616150.9273258,9762138.9511216,0.0],[616095.5315147,9762138.9543301,0.0],[616064.0888218,9762164.9467545,0.0],[616035.3380049,9762168.1501447,0.0],[616023.6931732,9762177.5825859,0.0],[615989.631219,9762177.5825859,0.0],[615956.0558372,9762186.1857022,0.0],[615945.1651996,9762189.134228,0.0],[615940.3103086,9762189.1627487,0.0],[615921.5893395,9762185.367339,0.0],[615913.5463391,9762181.8297977,0.0],[615880.5056557,9762181.644402,0.0],[615861.418055,9762181.5673672,0.0],[615850.8665142,9762186.1284966,0.0],[615771.2897819,9762262.1401136,0.0],[615759.9127701,9762287.1579558,0.0],[615744.1870147,9762278.1455665,0.0],[615715.4907366,9762290.5773025,0.0],[615682.4176004,9762296.6692109,0.0],[615668.8835293,9762304.1808427,0.0],[615626.323431,9762288.0822761,0.0],[615598.1520088,9762279.1479643,0.0],[615560.8236481,9762266.3059426,0.0],[615541.1394485,9762260.6582483,0.0],[615518.0111481,9762257.3059426,0.0],[615487.2666733,9762256.6066956,0.0],[615467.6361481,9762257.3059426,0.0],[615432.5716513,9762267.8509926,0.0],[615371.1986481,9762297.3059426,0.0],[615222.4489603,9762402.380391,0.0],[615206.1179086,9762414.3698722,0.0],[615200.5384077,9762422.9443242,0.0],[615231.7204601,9762467.547033,0.0],[615214.6664023,9762482.1156309,0.0]]]}},
{"type":"Feature","properties":{"Color":"cyan"},"geometry":{"type":"MultiLineString","coordinates":[[[615956.0558372,9762186.1857022,-78.0],[615950.3544015,9762164.6392291,-78.0]]]}},
{"type":"Feature","properties":{"Color":"BYLAYER"},"geometry":{"type":"MultiLineString","coordinates":[[[615943.1101617,9762162.3779026,0.0],[615948.4004251,9762162.3981712,0.0],[615948.441881,9762164.6249029,0.0],[615950.4184067,9762164.6397086,0.0]]]}},
{"type":"Feature","properties":{"Color":"cyan"},"geometry":{"type":"MultiLineString","coordinates":[[[615938.7279093,9762159.9018878,-117.0],[615935.089171,9762159.8749943,-117.0],[615935.1244599,9762134.1649693,-117.0],[615935.0971112,9762120.618999,-117.0],[615935.852249,9762105.2277485,-117.0],[615921.3456388,9762088.9502025,-117.0],[615916.6274725,9762084.5010784,-117.0],[615799.2367883,9761973.2558813,-117.0],[615792.4824113,9761980.0569112,-117.0],[615773.607234,9761973.5883046,-117.0],[615737.6848633,9761973.3463896,-117.0]]]}},
{"type":"Feature","properties":{"Color":"BYLAYER"},"geometry":{"type":"MultiLineString","coordinates":[[[616321.5702182,9762157.0689397,0.0],[616246.3314069,9762156.6915972,0.0]]]}},
{"type":"Feature","properties":{"Color":"BYLAYER"},"geometry":{"type":"MultiLineString","coordinates":[[[616325.836629,9762140.1160802,0.0],[616321.5702182,9762157.0689397,0.0]]]}},
{"type":"Feature","properties":{"Color":"BYLAYER"},"geometry":{"type":"MultiLineString","coordinates":[[[616343.7611481,9762131.3059426,-39.0],[616325.836629,9762140.1160802,0.0]]]}},
{"type":"Feature","properties":{"Color":"BYLAYER"},"geometry":{"type":"MultiLineString","coordinates":[[[616343.7611481,9762131.3059426,-39.0],[616347.5741025,9762111.0261612,-39.0],[616347.7202348,9762094.0492305,-39.0],[616356.9223834,9762092.2102963,-39.0],[616373.8825576,9762067.5089203,-39.0],[616425.11524,9762087.8982825,-39.0],[616452.837703,9762098.3034643,-39.0],[616459.0215814,9762089.0915736,-39.0],[616451.1560094,9762063.5711742,-39.0],[616451.0260398,9762062.2425662,-39.0],[616467.6777298,9762025.1481207,-39.0]]]}},
{"type":"Feature","properties":{"Color":"cyan"},"geometry":{"type":"MultiLineString","coordinates":[[[616343.7611481,9762131.3059426,-78.0],[616347.5681531,9762110.6893122,-78.0],[616347.6578276,9762094.1329289,-78.0],[616356.9223834,9762092.2102963,-78.0]]]}}
]
}
