{
"type": "FeatureCollection",
"name": "infraestructura",
"crs": { "type": "name", "properties": { "name": "urn:ogc:def:crs:OGC:1.3:CRS84" } },
"xy_coordinate_resolution": 1e-07,
"features": [
{"type":"Feature","properties":{"id":null,"zonas":"Auditorios","referencia":"Auditorio del Rectorado"},"geometry":{"type":"MultiPolygon","coordinates":[[[[-79.9645029,-2.1471655],[-79.9643558,-2.1472039],[-79.9644623,-2.1474228],[-79.9645908,-2.1473667],[-79.9645029,-2.1471655]]]]}},
{"type":"Feature","properties":{"id":null,"zonas":"Auditorios","referencia":"Auditorio FIMCP"},"geometry":{"type":"MultiPolygon","coordinates":[[[[-79.9665598,-2.1440406],[-79.9664158,-2.1440842],[-79.966482,-2.1442562],[-79.9666239,-2.1442042],[-79.9665598,-2.1440406]]]]}},
{"type":"Feature","properties":{"id":null,"zonas":"Auditorios","referencia":"Auditorio FIMCM"},"geometry":{"type":"MultiPolygon","coordinates":[[[[-79.9628573,-2.1469768],[-79.9630308,-2.1469311],[-79.9629677,-2.1467581],[-79.9628046,-2.146809],[-79.9628573,-2.1469768]]]]}},
{"type":"Feature","properties":{"id":null,"zonas":"Auditorios","referencia":"Auditorio FIEC"},"geometry":{"type":"MultiPolygon","coordinates":[[[[-79.9678596,-2.1444181],[-79.9678345,-2.1441879],[-79.9678334,-2.1441873],[-79.9676905,-2.1442049],[-79.9676573,-2.144209],[-79.9676773,-2.1444333],[-79.9677052,-2.1444315],[-79.9678596,-2.1444181]]]]}},
{"type":"Feature","properties":{"id":null,"zonas":"Auditorios","referencia":"Auditorio FICT"},"geometry":{"type":"MultiPolygon","coordinates":[[[[-79.9658973,-2.1457713],[-79.9657524,-2.1457154],[-79.9657036,-2.1458394],[-79.9658512,-2.1458895],[-79.9658973,-2.1457713]]]]}},
{"type":"Feature","properties":{"id":null,"zonas":"Auditorios","referencia":"Auditorio FCSH"},"geometry":{"type":"MultiPolygon","coordinates":[[[[-79.9680091,-2.14742],[-79.9676879,-2.1475167],[-79.9677448,-2.147672],[-79.9680504,-2.1475847],[-79.9680091,-2.14742]]]]}},
{"type":"Feature","properties":{"id":null,"zonas":"Auditorios","referencia":"Auditorio FCNM"},"geometry":{"type":"MultiPolygon","coordinates":[[[[-79.9673338,-2.1459004],[-79.9669888,-2.1460106],[-79.9670674,-2.1462238],[-79.9674092,-2.1461115],[-79.9673338,-2.1459004]]]]}},
{"type":"Feature","properties":{"id":null,"zonas":"Auditorios","referencia":"Auditorio FADCOM"},"geometry":{"type":"MultiPolygon","coordinates":[[[[-79.96233,-2.1432343],[-79.9617756,-2.1436653],[-79.962081,-2.1439625],[-79.9625702,-2.1434762],[-79.96233,-2.1432343]]]]}},
{"type":"Feature","properties":{"id":null,"zonas":"Deportes","referencia":"Coliseo Antiguo"},"geometry":{"type":"MultiPolygon","coordinates":[[[[-79.9645111,-2.1449311],[-79.9642886,-2.1447423],[-79.9638885,-2.1451515],[-79.9641162,-2.1453674],[-79.9645111,-2.1449311]]]]}},
{"type":"Feature","properties":{"id":null,"zonas":"Deportes","referencia":"Coliseo Nuevo"},"geometry":{"type":"MultiPolygon","coordinates":[[[[-79.9674464,-2.1417281],[-79.9670357,-2.1417012],[-79.9669726,-2.1423696],[-79.9673952,-2.1423938],[-79.9674464,-2.1417281]]]]}},
{"type":"Feature","properties":{"id":null,"zonas":"Deportes","referencia":"Canchas deportivas"},"geometry":{"type":"MultiPolygon","coordinates":[[[[-79.9679093,-2.1433324],[-79.9680016,-2.1419371],[-79.9674734,-2.1419055],[-79.9673687,-2.1432953],[-79.9679093,-2.1433324]]]]}},
{"type":"Feature","properties":{"id":null,"zonas":"Deportes","referencia":"Estadio"},"geometry":{"type":"MultiPolygon","coordinates":[[[[-79.9584423,-2.1538899],[-79.9579607,-2.152458],[-79.9571837,-2.1526992],[-79.9576819,-2.1541499],[-79.9584423,-2.1538899]]]]}},
{"type":"Feature","properties":{"id":null,"zonas":"Deportes","referencia":"Canchas de Tenis"},"geometry":{"type":"MultiPolygon","coordinates":[[[[-79.9596331,-2.1535703],[-79.9588728,-2.1536146],[-79.9588919,-2.1545279],[-79.9591094,-2.1545181],[-79.9591138,-2.1542181],[-79.9596275,-2.1541945],[-79.9596331,-2.1535703]]]]}},
{"type":"Feature","properties":{"id":null,"zonas":"Deportes","referencia":"Piscina"},"geometry":{"type":"MultiPolygon","coordinates":[[[[-79.9586788,-2.1526403],[-79.9586532,-2.1521276],[-79.9583115,-2.1521368],[-79.9583401,-2.1526484],[-79.9586788,-2.1526403]]]]}},
{"type":"Feature","properties":{"id":null,"zonas":"Deportes","referencia":"Gimnasio"},"geometry":{"type":"MultiPolygon","coordinates":[[[[-79.9682008,-2.1437257],[-79.9679835,-2.1434713],[-79.9677928,-2.1436504],[-79.9680163,-2.1439048],[-79.9682008,-2.1437257]]]]}},
{"type":"Feature","properties":{"id":null,"zonas":"Deportes","referencia":"Gimnasio"},"geometry":{"type":"MultiPolygon","coordinates":[[[[-79.9595597,-2.1533692],[-79.9595537,-2.1530712],[-79.959214,-2.1530741],[-79.9592262,-2.1533773],[-79.9595597,-2.1533692]]]]}},
{"type":"Feature","properties":{"id":null,"zonas":"servicios","referencia":"Bar/Cafetería/Comedor"},"geometry":{"type":"MultiPolygon","coordinates":[[[[-79.9583064,-2.152313],[-79.9581549,-2.1523168],[-79.958158,-2.1524653],[-79.9583141,-2.1524638],[-79.9583064,-2.152313]]]]}},
{"type":"Feature","properties":{"id":null,"zonas":"servicios","referencia":"Bar/Cafetería/Comedor"},"geometry":{"type":"MultiPolygon","coordinates":[[[[-79.9614413,-2.143348],[-79.9612432,-2.1433955],[-79.9612982,-2.1435971],[-79.9615057,-2.1435473],[-79.9614413,-2.143348]]]]}},
{"type":"Feature","properties":{"id":null,"zonas":"servicios","referencia":"Bar/Cafetería/Comedor"},"geometry":{"type":"MultiPolygon","coordinates":[[[[-79.9630914,-2.1464753],[-79.9632781,-2.1465169],[-79.9632937,-2.1464443],[-79.9631073,-2.1464052],[-79.9630914,-2.1464753]]]]}},
{"type":"Feature","properties":{"id":null,"zonas":"servicios","referencia":"Banco"},"geometry":{"type":"MultiPolygon","coordinates":[[[[-79.9651631,-2.1463215],[-79.9651434,-2.1462586],[-79.965062,-2.146281],[-79.965081,-2.1463474],[-79.9651631,-2.1463215]]]]}},
{"type":"Feature","properties":{"id":null,"zonas":"servicios","referencia":"Bar/Comedor/Cafetería"},"geometry":{"type":"MultiPolygon","coordinates":[[[[-79.9674407,-2.1475337],[-79.9674672,-2.1473571],[-79.9669552,-2.1475162],[-79.9670087,-2.1476819],[-79.9674407,-2.1475337]]]]}},
{"type":"Feature","properties":{"id":null,"zonas":"servicios","referencia":"Bar/Cafetería/Comedor"},"geometry":{"type":"MultiPolygon","coordinates":[[[[-79.9669045,-2.146047],[-79.9668778,-2.1459599],[-79.9666664,-2.1460234],[-79.9666924,-2.1461117],[-79.9667937,-2.1461794],[-79.9669045,-2.146047]]]]}},
{"type":"Feature","properties":{"id":null,"zonas":"servicios","referencia":"Bar/Cafetería/Comedor"},"geometry":{"type":"MultiPolygon","coordinates":[[[[-79.9662428,-2.1447254],[-79.9660951,-2.1447699],[-79.9661439,-2.1449223],[-79.9662896,-2.1448755],[-79.9662428,-2.1447254]]]]}},
{"type":"Feature","properties":{"id":null,"zonas":"servicios","referencia":"Bar/Cafetería/Comedor"},"geometry":{"type":"MultiPolygon","coordinates":[[[[-79.9663201,-2.1449602],[-79.9663056,-2.1449069],[-79.9662571,-2.1449207],[-79.9662712,-2.1449726],[-79.9663201,-2.1449602]]]]}},
{"type":"Feature","properties":{"id":null,"zonas":"servicios","referencia":"Bar/Cafetería/Comedor"},"geometry":{"type":"MultiPolygon","coordinates":[[[[-79.9651882,-2.1455506],[-79.9650444,-2.1455909],[-79.9650737,-2.1456832],[-79.9652183,-2.145642],[-79.9651882,-2.1455506]]]]}},
{"type":"Feature","properties":{"id":null,"zonas":"servicios","referencia":"Biblioteca Central"},"geometry":{"type":"MultiPolygon","coordinates":[[[[-79.9663808,-2.1471971],[-79.9659447,-2.1472118],[-79.9659384,-2.1475494],[-79.9658903,-2.1475511],[-79.9658771,-2.1477841],[-79.9663909,-2.1477703],[-79.9663808,-2.1471971]]]]}},
{"type":"Feature","properties":{"id":null,"zonas":"servicios","referencia":"Dispensario Médico"},"geometry":{"type":"MultiPolygon","coordinates":[[[[-79.9672986,-2.1429032],[-79.9671993,-2.1428743],[-79.9670942,-2.1428745],[-79.96696,-2.1429104],[-79.9669613,-2.1430229],[-79.9670919,-2.1430591],[-79.9672977,-2.142995],[-79.9672986,-2.1429032]]]]}},
{"type":"Feature","properties":{"id":null,"zonas":"puentes","referencia":"Puente"},"geometry":{"type":"MultiPolygon","coordinates":[[[[-79.9477232,-2.1457562],[-79.9473773,-2.1454539],[-79.9472541,-2.1456099],[-79.9476038,-2.1459036],[-79.9477232,-2.1457562]]]]}},
{"type":"Feature","properties":{"id":null,"zonas":"Deportes","referencia":"Cancha"},"geometry":{"type":"MultiPolygon","coordinates":[[[[-79.9687364,-2.1470814],[-79.9685636,-2.1472215],[-79.9688026,-2.1475068],[-79.9689823,-2.1473742],[-79.9687364,-2.1470814]]]]}},
{"type":"Feature","properties":{"id":null,"zonas":"Deportes","referencia":"Cancha"},"geometry":{"type":"MultiPolygon","coordinates":[[[[-79.9635301,-2.1472393],[-79.9634462,-2.1469659],[-79.9632695,-2.1470199],[-79.9633425,-2.1472913],[-79.9635301,-2.1472393]]]]}}
]
}
