{
"type": "FeatureCollection",
"name": "infraestructura_acceso",
"crs": { "type": "name", "properties": { "name": "urn:ogc:def:crs:OGC:1.3:CRS84" } },
"xy_coordinate_resolution": 1e-07,
"features": [
{"type":"Feature","properties":{"id":null,"zonas":"acceso","acceso":"peatonal"},"geometry":{"type":"MultiLineString","coordinates":[[[-79.9575818,-2.1519949],[-79.9583451,-2.1527295],[-79.9588752,-2.153195],[-79.9588909,-2.1545049]]]}},
{"type":"Feature","properties":{"id":null,"zonas":"acceso","acceso":"peatonal"},"geometry":{"type":"MultiLineString","coordinates":[[[-79.9566864,-2.1528858],[-79.9569021,-2.1530433],[-79.9569017,-2.1530696]]]}},
{"type":"Feature","properties":{"id":null,"zonas":"acceso","acceso":"peatonal"},"geometry":{"type":"MultiLineString","coordinates":[[[-79.9644779,-2.1482835],[-79.9643042,-2.1478948],[-79.9641085,-2.147965]]]}},
{"type":"Feature","properties":{"id":null,"zonas":"acceso","acceso":"peatonal"},"geometry":{"type":"MultiLineString","coordinates":[[[-79.9646987,-2.1478231],[-79.9644137,-2.147906],[-79.9643042,-2.1478948]]]}},
{"type":"Feature","properties":{"id":null,"zonas":"acceso","acceso":"peatonal"},"geometry":{"type":"MultiLineString","coordinates":[[[-79.9661906,-2.1466228],[-79.9660019,-2.1466253],[-79.9659387,-2.1470279],[-79.9659674,-2.1471352],[-79.9658616,-2.1472995],[-79.9658213,-2.1474279],[-79.9658176,-2.1476802],[-79.9657547,-2.1476766]]]}},
{"type":"Feature","properties":{"id":null,"zonas":"acceso","acceso":"peatonal"},"geometry":{"type":"MultiLineString","coordinates":[[[-79.9659488,-2.1475132],[-79.9657889,-2.1475175]]]}},
{"type":"Feature","properties":{"id":null,"zonas":"acceso","acceso":"peatonal"},"geometry":{"type":"MultiLineString","coordinates":[[[-79.9649814,-2.1475715],[-79.9649145,-2.1473448]]]}},
{"type":"Feature","properties":{"id":null,"zonas":"acceso","acceso":"peatonal"},"geometry":{"type":"MultiLineString","coordinates":[[[-79.9649812,-2.1475707],[-79.9654764,-2.1467007],[-79.9654337,-2.1465451]]]}},
{"type":"Feature","properties":{"id":null,"zonas":"acceso","acceso":"peatonal"},"geometry":{"type":"MultiLineString","coordinates":[[[-79.9656554,-2.1476075],[-79.9652801,-2.1475141],[-79.965087,-2.1475729],[-79.965007,-2.1476788],[-79.9649812,-2.1475709]]]}},
{"type":"Feature","properties":{"id":null,"zonas":"acceso","acceso":"peatonal"},"geometry":{"type":"MultiLineString","coordinates":[[[-79.967627,-2.1472477],[-79.9674185,-2.1466998],[-79.9672498,-2.1467525],[-79.9672044,-2.1467436],[-79.9670724,-2.1467893],[-79.9669956,-2.1466072],[-79.9668435,-2.1466634],[-79.9666036,-2.1461103],[-79.9662417,-2.1462436],[-79.9660655,-2.1457952],[-79.9656287,-2.1456138],[-79.965085,-2.1457857],[-79.9650379,-2.1456617],[-79.9649627,-2.145688],[-79.9649444,-2.1456221],[-79.9646923,-2.1457094]]]}},
{"type":"Feature","properties":{"id":null,"zonas":"acceso","acceso":"peatonal"},"geometry":{"type":"MultiLineString","coordinates":[[[-79.9678421,-2.1464258],[-79.9675292,-2.1465355],[-79.9675064,-2.1466753],[-79.9674181,-2.1467003]]]}},
{"type":"Feature","properties":{"id":null,"zonas":"acceso","acceso":"peatonal"},"geometry":{"type":"MultiLineString","coordinates":[[[-79.9680111,-2.1465963],[-79.9675364,-2.1467595],[-79.9675066,-2.1466753]]]}},
{"type":"Feature","properties":{"id":null,"zonas":"acceso","acceso":"peatonal"},"geometry":{"type":"MultiLineString","coordinates":[[[-79.9654009,-2.1448329],[-79.9655406,-2.1449526],[-79.9656601,-2.1453509],[-79.9657405,-2.1453905],[-79.9658355,-2.1456992]]]}},
{"type":"Feature","properties":{"id":null,"zonas":"acceso","acceso":"peatonal"},"geometry":{"type":"MultiLineString","coordinates":[[[-79.9659485,-2.1443841],[-79.966088,-2.1447459],[-79.9660666,-2.1447532],[-79.9663019,-2.1454971],[-79.9661032,-2.1458925]]]}},
{"type":"Feature","properties":{"id":null,"zonas":"acceso","acceso":"peatonal"},"geometry":{"type":"MultiLineString","coordinates":[[[-79.9676271,-2.1472475],[-79.9671493,-2.1474122],[-79.9669601,-2.1468279],[-79.9670725,-2.1467892]]]}},
{"type":"Feature","properties":{"id":null,"zonas":"acceso","acceso":"peatonal"},"geometry":{"type":"MultiLineString","coordinates":[[[-79.967149,-2.1474121],[-79.9668951,-2.1475047],[-79.9663996,-2.147536]]]}},
{"type":"Feature","properties":{"id":null,"zonas":"acceso","acceso":"peatonal"},"geometry":{"type":"MultiLineString","coordinates":[[[-79.9661036,-2.1458891],[-79.9659662,-2.1461554],[-79.9653735,-2.146373],[-79.9654335,-2.146545]]]}},
{"type":"Feature","properties":{"id":null,"zonas":"acceso","acceso":"peatonal"},"geometry":{"type":"MultiLineString","coordinates":[[[-79.965374,-2.1463728],[-79.9651767,-2.1463624],[-79.9650146,-2.1464192]]]}},
{"type":"Feature","properties":{"id":null,"zonas":"acceso","acceso":"peatonal"},"geometry":{"type":"MultiLineString","coordinates":[[[-79.9666035,-2.1461117],[-79.9663845,-2.1455383],[-79.9663024,-2.1454978]]]}},
{"type":"Feature","properties":{"id":null,"zonas":"acceso","acceso":"peatonal"},"geometry":{"type":"MultiLineString","coordinates":[[[-79.9650154,-2.1464187],[-79.9647685,-2.1465043],[-79.9647291,-2.1465992],[-79.9639163,-2.1467288],[-79.9638423,-2.146421],[-79.9632562,-2.1465982]]]}},
{"type":"Feature","properties":{"id":null,"zonas":"acceso","acceso":"vehicular"},"geometry":{"type":"MultiLineString","coordinates":[[[-79.9676432,-2.1438214],[-79.9673843,-2.1441218],[-79.967218,-2.1444716],[-79.9670065,-2.1445295]]]}},
{"type":"Feature","properties":{"id":null,"zonas":"acceso","acceso":"vehicular"},"geometry":{"type":"MultiLineString","coordinates":[[[-79.9672178,-2.1444718],[-79.9672041,-2.1446591]]]}},
{"type":"Feature","properties":{"id":null,"zonas":"acceso","acceso":"vehicular"},"geometry":{"type":"MultiLineString","coordinates":[[[-79.9668547,-2.1431889],[-79.9669289,-2.1427459],[-79.9669819,-2.1417613]]]}},
{"type":"Feature","properties":{"id":null,"zonas":"acceso","acceso":"vehicular"},"geometry":{"type":"MultiLineString","coordinates":[[[-79.9673392,-2.1433414],[-79.9674425,-2.1417704]]]}},
{"type":"Feature","properties":{"id":null,"zonas":"acceso","acceso":"vehicular"},"geometry":{"type":"MultiLineString","coordinates":[[[-79.967378,-2.1427543],[-79.96693,-2.1427263]]]}},
{"type":"Feature","properties":{"id":null,"zonas":"acceso","acceso":"vehicular"},"geometry":{"type":"MultiLineString","coordinates":[[[-79.9677466,-2.1436463],[-79.9680156,-2.1433234],[-79.9680738,-2.1424531],[-79.9680076,-2.1422086],[-79.9678889,-2.1419465],[-79.9677736,-2.1418177],[-79.9676994,-2.141797],[-79.9674425,-2.1417706]]]}},
{"type":"Feature","properties":{"id":null,"zonas":"acceso","acceso":"vehicular"},"geometry":{"type":"MultiLineString","coordinates":[[[-79.9644206,-2.145384],[-79.9644616,-2.1455507],[-79.9645944,-2.1455569],[-79.9646886,-2.1458365],[-79.9647453,-2.1458779],[-79.9648648,-2.1462604]]]}},
{"type":"Feature","properties":{"id":null,"zonas":"acceso","acceso":"vehicular"},"geometry":{"type":"MultiLineString","coordinates":[[[-79.9640206,-2.1489887],[-79.9635806,-2.1483237],[-79.9631543,-2.1480707],[-79.9629674,-2.1479466],[-79.9626304,-2.1474769],[-79.9623484,-2.1470354],[-79.9622446,-2.1468366],[-79.9622647,-2.1467479],[-79.9622815,-2.1464912]]]}},
{"type":"Feature","properties":{"id":null,"zonas":"acceso","acceso":"vehicular"},"geometry":{"type":"MultiLineString","coordinates":[[[-79.9635801,-2.1483233],[-79.9635541,-2.1481307],[-79.9635359,-2.147889],[-79.9636006,-2.147736]]]}},
{"type":"Feature","properties":{"id":null,"zonas":"acceso","acceso":"vehicular"},"geometry":{"type":"MultiLineString","coordinates":[[[-79.9635801,-2.1483228],[-79.9633846,-2.1480423],[-79.9633576,-2.1479086],[-79.9634872,-2.1474533],[-79.9635642,-2.1473655],[-79.9636569,-2.1473022],[-79.9642905,-2.1471725],[-79.9644548,-2.1471252],[-79.9647022,-2.1470005],[-79.9648928,-2.1468872],[-79.9649496,-2.1468099],[-79.964982,-2.1467088]]]}},
{"type":"Feature","properties":{"id":null,"zonas":"acceso","acceso":"vehicular"},"geometry":{"type":"MultiLineString","coordinates":[[[-79.952822,-2.1520839],[-79.9528841,-2.1519793],[-79.9530126,-2.1518932],[-79.9534261,-2.1516403],[-79.953504,-2.151541],[-79.9535338,-2.1513723],[-79.9534631,-2.1512272],[-79.953312,-2.1511602],[-79.9530428,-2.1512058]]]}},
{"type":"Feature","properties":{"id":null,"zonas":"acceso","acceso":"vehicular"},"geometry":{"type":"MultiLineString","coordinates":[[[-79.9528841,-2.1519793],[-79.953501,-2.1520149],[-79.9537372,-2.1516282],[-79.9543786,-2.1516436]]]}},
{"type":"Feature","properties":{"id":null,"zonas":"acceso","acceso":"vehicular"},"geometry":{"type":"MultiLineString","coordinates":[[[-79.9537374,-2.1516282],[-79.953882,-2.1513914],[-79.9553807,-2.1513766]]]}}
]
}
