{
"type": "FeatureCollection",
"name": "lagunas",
"crs": { "type": "name", "properties": { "name": "urn:ogc:def:crs:EPSG::32717" } },
"xy_coordinate_resolution": 1e-07,
"features": [
{"type":"Feature","properties":{"Layer":"Laguna de Estabilización"},"geometry":{"type":"MultiPolygon","coordinates":[[[[616110.1151398,9762598.6141949,8.2540007],[616109.5951398,9762598.0641949,8.2540007],[616109.0751398,9762597.5241949,8.2540007],[616108.8751398,9762596.9541949,8.2540007],[616108.5151398,9762596.2441949,8.2540007],[616108.3151398,9762595.6841949,8.2540007],[616108.2851398,9762595.0441949,8.2540007],[616107.9351398,9762594.6541949,8.2540007],[616107.6551398,9762594.4241949,8.2540007],[616107.3051398,9762594.0341949,8.2540007],[616106.9551398,9762593.6441949,8.2540007],[616106.7651398,9762593.0841949,8.2540007],[616105.1464111,9762593.2736324,8.2540007],[616103.8976825,9762594.2530699,8.2540007],[616103.5751398,9762597.8141949,8.2540007],[616103.6651398,9762598.4641949,8.2540007],[616103.8651398,9762599.1041949,8.2540007],[616104.0551398,9762599.7441949,8.2540007],[616104.4251398,9762600.4541949,8.2540007],[616104.7851398,9762601.0941949,8.2540007],[616104.9751398,9762601.6541949,8.2540007],[616105.2751398,9762602.1141949,8.2540007],[616105.8051398,9762602.7441949,8.2540007],[616106.3251398,9762603.4541949,8.2540007],[616106.8451398,9762603.9141949,8.2540007],[616107.3551398,9762604.3041949,8.2540007],[616107.7051398,9762604.6941949,8.2540007],[616108.0451398,9762604.9241949,8.2540007],[616108.7151398,9762605.2241949,8.2540007],[616109.0551398,9762605.3741949,8.2540007],[616109.5451398,9762605.4341949,8.2540007],[616109.8751398,9762605.5041949,8.2540007],[616110.2051398,9762605.4841949,8.2540007],[616110.8451398,9762605.3041949,8.2540007],[616111.3351398,9762605.1241949,8.2540007],[616111.8051398,9762604.8641949,8.2540007],[616112.0551398,9762604.4441949,8.2540007],[616112.3651398,9762604.1041949,8.2540007],[616112.5151398,9762603.7741949,8.2540007],[616112.4951398,9762603.4541949,8.2540007],[616112.4851398,9762603.2941949,8.2540007],[616112.4851398,9762603.2141949,8.2540007],[616112.4751398,9762603.0541949,8.2540007],[616112.6351398,9762602.8841949,8.2540007],[616112.9551398,9762602.7941949,8.2540007],[616113.2751398,9762602.6141949,8.2540007],[616113.7551398,9762602.4341949,8.2540007],[616114.0751398,9762602.2641949,8.2540007],[616114.8751398,9762601.9941949,8.2540007],[616115.3551398,9762601.8141949,8.2540007],[616116.1051398,9762601.4541949,8.2540007],[616116.5851398,9762601.1941949,8.2540007],[616116.7351398,9762601.0241949,8.2540007],[616116.8851398,9762600.6941949,8.2540007],[616117.1851398,9762600.2041949,8.2540007],[616117.3251398,9762599.7141949,8.2540007],[616117.4751398,9762599.4641949,8.2540007],[616117.6251398,9762599.2941949,8.2540007],[616117.6051398,9762598.9741949,8.2540007],[616117.2651398,9762598.6641949,8.2540007],[616116.7651398,9762598.4341949,8.2540007],[616116.1051398,9762598.4641949,8.2540007],[616115.2951398,9762598.4941949,8.2540007],[616114.5351398,9762598.6941949,8.2540007],[616113.5751398,9762598.9741949,8.2540007],[616112.7651398,9762599.1641949,8.2540007],[616112.2751398,9762599.1841949,8.2540007],[616111.4451398,9762599.1341949,8.2540007],[616110.7851398,9762598.9141949,8.2540007],[616110.1151398,9762598.6141949,8.2540007]]]]}}
]
}
