{
"type": "FeatureCollection",
"name": "lin_sec_espol",
"crs": { "type": "name", "properties": { "name": "urn:ogc:def:crs:OGC:1.3:CRS84" } },
"xy_coordinate_resolution": 1e-07,
"features": [
{"type":"Feature","properties":{"Layer":"lin_espol"},"geometry":{"type":"MultiLineString","coordinates":[[[-79.964049,-2.149008,0.0],[-79.963923,-2.148824,0.0]],[[-79.963923,-2.148824,0.0],[-79.963908,-2.148802,0.0]],[[-79.963908,-2.148802,0.0],[-79.963881,-2.148757,0.0]],[[-79.963864,-2.148734,0.0],[-79.963759,-2.148574,0.0]],[[-79.963759,-2.148574,0.0],[-79.9637,-2.148483,0.0]],[[-79.9637,-2.148483,0.0],[-79.963639,-2.148395,0.0]],[[-79.96357,-2.148344,0.0],[-79.963515,-2.148295,0.0]],[[-79.963515,-2.148295,0.0],[-79.963486,-2.148271,0.0]],[[-79.963486,-2.148271,0.0],[-79.963459,-2.148249,0.0]],[[-79.963639,-2.148395,0.0],[-79.96362,-2.148375,0.0]],[[-79.96362,-2.148375,0.0],[-79.96357,-2.148344,0.0]],[[-79.963639,-2.148395,0.0],[-79.963545,-2.148251,0.0]],[[-79.963639,-2.148395,0.0],[-79.96358,-2.14822,0.0]],[[-79.963459,-2.148249,0.0],[-79.963429,-2.148226,0.0]],[[-79.963429,-2.148226,0.0],[-79.963401,-2.148209,0.0]],[[-79.963401,-2.148209,0.0],[-79.963377,-2.148194,0.0]],[[-79.963377,-2.148194,0.0],[-79.963351,-2.148179,0.0]],[[-79.963351,-2.148179,0.0],[-79.963322,-2.148164,0.0]],[[-79.963322,-2.148164,0.0],[-79.963296,-2.148152,0.0]],[[-79.963296,-2.148152,0.0],[-79.963268,-2.148138,0.0]],[[-79.963268,-2.148138,0.0],[-79.96324,-2.148124,0.0]],[[-79.96324,-2.148124,0.0],[-79.96321,-2.148108,0.0]],[[-79.96321,-2.148108,0.0],[-79.963183,-2.148092,0.0]],[[-79.963183,-2.148092,0.0],[-79.963154,-2.148074,0.0]],[[-79.963154,-2.148074,0.0],[-79.963126,-2.148057,0.0]],[[-79.963126,-2.148057,0.0],[-79.963099,-2.148038,0.0]],[[-79.963099,-2.148038,0.0],[-79.963073,-2.148018,0.0]],[[-79.963073,-2.148018,0.0],[-79.963048,-2.147996,0.0]],[[-79.963048,-2.147996,0.0],[-79.963025,-2.147972,0.0]],[[-79.963025,-2.147972,0.0],[-79.963003,-2.147945,0.0]],[[-79.963545,-2.148251,0.0],[-79.963511,-2.148204,0.0]],[[-79.963511,-2.148204,0.0],[-79.963494,-2.148182,0.0]],[[-79.963494,-2.148182,0.0],[-79.963475,-2.148158,0.0]],[[-79.963475,-2.148158,0.0],[-79.963459,-2.148134,0.0]],[[-79.963459,-2.148134,0.0],[-79.96344,-2.148111,0.0]],[[-79.96344,-2.148111,0.0],[-79.963425,-2.148087,0.0]],[[-79.963425,-2.148087,0.0],[-79.963411,-2.148059,0.0]],[[-79.963411,-2.148059,0.0],[-79.963402,-2.148033,0.0]],[[-79.963402,-2.148033,0.0],[-79.963392,-2.148003,0.0]],[[-79.963392,-2.148003,0.0],[-79.963385,-2.147951,0.0]],[[-79.96358,-2.14822,0.0],[-79.963557,-2.148113,0.0]],[[-79.963557,-2.148113,0.0],[-79.96355,-2.148047,0.0]],[[-79.96355,-2.148047,0.0],[-79.963547,-2.147964,0.0]],[[-79.963547,-2.147964,0.0],[-79.963556,-2.14789,0.0]],[[-79.963385,-2.147951,0.0],[-79.963385,-2.147879,0.0]],[[-79.963385,-2.147879,0.0],[-79.96339,-2.147785,0.0]],[[-79.96339,-2.147785,0.0],[-79.963407,-2.147708,0.0]],[[-79.963407,-2.147708,0.0],[-79.963426,-2.14763,0.0]],[[-79.963556,-2.14789,0.0],[-79.963577,-2.147811,0.0]],[[-79.963577,-2.147811,0.0],[-79.963598,-2.147752,0.0]],[[-79.963426,-2.14763,0.0],[-79.963451,-2.147549,0.0]],[[-79.963451,-2.147549,0.0],[-79.963487,-2.147471,0.0]],[[-79.963487,-2.147471,0.0],[-79.963501,-2.147447,0.0]],[[-79.963501,-2.147447,0.0],[-79.963518,-2.147424,0.0]],[[-79.963518,-2.147424,0.0],[-79.963536,-2.147399,0.0]],[[-79.963536,-2.147399,0.0],[-79.963557,-2.147379,0.0]],[[-79.963557,-2.147379,0.0],[-79.963592,-2.147346,0.0]],[[-79.963592,-2.147346,0.0],[-79.963647,-2.147303,0.0]],[[-79.963647,-2.147303,0.0],[-79.963705,-2.147276,0.0]],[[-79.963705,-2.147276,0.0],[-79.963776,-2.147261,0.0]],[[-79.963776,-2.147261,0.0],[-79.963876,-2.147249,0.0]],[[-79.963876,-2.147249,0.0],[-79.963918,-2.14724,0.0]],[[-79.963918,-2.14724,0.0],[-79.964161,-2.14719,0.0]],[[-79.964161,-2.14719,0.0],[-79.964234,-2.147175,0.0]],[[-79.964234,-2.147175,0.0],[-79.964332,-2.147154,0.0]],[[-79.964332,-2.147154,0.0],[-79.964418,-2.147133,0.0]],[[-79.964418,-2.147133,0.0],[-79.964496,-2.147104,0.0]],[[-79.964496,-2.147104,0.0],[-79.964576,-2.147064,0.0]],[[-79.964576,-2.147064,0.0],[-79.964694,-2.147,0.0]],[[-79.964694,-2.147,0.0],[-79.964813,-2.146935,0.0]],[[-79.964813,-2.146935,0.0],[-79.964893,-2.146884,0.0]],[[-79.964893,-2.146884,0.0],[-79.964931,-2.146848,0.0]],[[-79.964931,-2.146848,0.0],[-79.964945,-2.146829,0.0]],[[-79.964945,-2.146829,0.0],[-79.964966,-2.146786,0.0]],[[-79.964966,-2.146786,0.0],[-79.964977,-2.146761,0.0]],[[-79.964977,-2.146761,0.0],[-79.964993,-2.146721,0.0]],[[-79.963003,-2.147945,0.0],[-79.962982,-2.147918,0.0]],[[-79.962982,-2.147918,0.0],[-79.962922,-2.147828,0.0]],[[-79.962922,-2.147828,0.0],[-79.962882,-2.147768,0.0]],[[-79.962882,-2.147768,0.0],[-79.962701,-2.147498,0.0]],[[-79.962701,-2.147498,0.0],[-79.962546,-2.147273,0.0]],[[-79.962546,-2.147273,0.0],[-79.962308,-2.146918,0.0]],[[-79.962308,-2.146918,0.0],[-79.962293,-2.146893,0.0]],[[-79.962293,-2.146893,0.0],[-79.962283,-2.146867,0.0]],[[-79.962283,-2.146867,0.0],[-79.962275,-2.14684,0.0]],[[-79.962275,-2.14684,0.0],[-79.962267,-2.146809,0.0]],[[-79.962267,-2.146809,0.0],[-79.962269,-2.146768,0.0]],[[-79.962269,-2.146768,0.0],[-79.962277,-2.146719,0.0]],[[-79.962277,-2.146719,0.0],[-79.962292,-2.146675,0.0]],[[-79.962292,-2.146675,0.0],[-79.962299,-2.146651,0.0]],[[-79.962306,-2.146626,0.0],[-79.962312,-2.1466,0.0]],[[-79.962312,-2.1466,0.0],[-79.962315,-2.146577,0.0]],[[-79.962315,-2.146577,0.0],[-79.962317,-2.146553,0.0]],[[-79.962299,-2.146651,0.0],[-79.962306,-2.146626,0.0]],[[-79.962317,-2.146553,0.0],[-79.962315,-2.146509,0.0]],[[-79.968714,-2.145492,0.0],[-79.968583,-2.145576,0.0]],[[-79.968448,-2.14563,0.0],[-79.968583,-2.145576,0.0]],[[-79.968714,-2.145492,0.0],[-79.968867,-2.145393,0.0]],[[-79.968867,-2.145393,0.0],[-79.969015,-2.145299,0.0]],[[-79.969015,-2.145299,0.0],[-79.969211,-2.145174,0.0]],[[-79.969211,-2.145174,0.0],[-79.969371,-2.145074,0.0]],[[-79.969371,-2.145074,0.0],[-79.969458,-2.14502,0.0]],[[-79.969458,-2.14502,0.0],[-79.969503,-2.145001,0.0]],[[-79.969503,-2.145001,0.0],[-79.969577,-2.144972,0.0]],[[-79.969577,-2.144972,0.0],[-79.969734,-2.144911,0.0]],[[-79.969734,-2.144911,0.0],[-79.969784,-2.144891,0.0]],[[-79.969784,-2.144891,0.0],[-79.96982,-2.144873,0.0]],[[-79.96982,-2.144873,0.0],[-79.969862,-2.144848,0.0]],[[-79.969862,-2.144848,0.0],[-79.969888,-2.14483,0.0]],[[-79.969888,-2.14483,0.0],[-79.969935,-2.144788,0.0]],[[-79.969935,-2.144788,0.0],[-79.969974,-2.144748,0.0]],[[-79.969974,-2.144748,0.0],[-79.970006,-2.144706,0.0]],[[-79.970006,-2.144706,0.0],[-79.970107,-2.144566,0.0]],[[-79.970107,-2.144566,0.0],[-79.970237,-2.144375,0.0]],[[-79.970237,-2.144375,0.0],[-79.970358,-2.144199,0.0]],[[-79.970358,-2.144199,0.0],[-79.970444,-2.144079,0.0]],[[-79.970444,-2.144079,0.0],[-79.970493,-2.144016,0.0]],[[-79.970493,-2.144016,0.0],[-79.970557,-2.143937,0.0]],[[-79.970557,-2.143937,0.0],[-79.970589,-2.143901,0.0]],[[-79.970589,-2.143901,0.0],[-79.970649,-2.143838,0.0]],[[-79.970649,-2.143838,0.0],[-79.970711,-2.143783,0.0]],[[-79.970711,-2.143783,0.0],[-79.970772,-2.143733,0.0]],[[-79.970772,-2.143733,0.0],[-79.970834,-2.143687,0.0]],[[-79.970834,-2.143687,0.0],[-79.971068,-2.143529,0.0]],[[-79.971068,-2.143529,0.0],[-79.971285,-2.143382,0.0]],[[-79.971285,-2.143382,0.0],[-79.971327,-2.143355,0.0]],[[-79.971327,-2.143355,0.0],[-79.971387,-2.143321,0.0]],[[-79.971387,-2.143321,0.0],[-79.971432,-2.143302,0.0]],[[-79.971432,-2.143302,0.0],[-79.971484,-2.143283,0.0]],[[-79.971484,-2.143283,0.0],[-79.971557,-2.143258,0.0]],[[-79.971557,-2.143258,0.0],[-79.971627,-2.143239,0.0]],[[-79.971627,-2.143239,0.0],[-79.971699,-2.143221,0.0]],[[-79.971699,-2.143221,0.0],[-79.971753,-2.143209,0.0]],[[-79.971753,-2.143209,0.0],[-79.971828,-2.143192,0.0]],[[-79.971828,-2.143192,0.0],[-79.971924,-2.143174,0.0]],[[-79.971924,-2.143174,0.0],[-79.972007,-2.143159,0.0]],[[-79.972007,-2.143159,0.0],[-79.972084,-2.143147,0.0]],[[-79.972084,-2.143147,0.0],[-79.972161,-2.143138,0.0]],[[-79.972161,-2.143138,0.0],[-79.97229,-2.143127,0.0]],[[-79.97229,-2.143127,0.0],[-79.972485,-2.143113,0.0]],[[-79.972485,-2.143113,0.0],[-79.973371,-2.143046,0.0]],[[-79.973371,-2.143046,0.0],[-79.973518,-2.143036,0.0]],[[-79.973518,-2.143036,0.0],[-79.973568,-2.143033,0.0]],[[-79.973568,-2.143033,0.0],[-79.973617,-2.143033,0.0]],[[-79.973617,-2.143033,0.0],[-79.973679,-2.143037,0.0]],[[-79.973679,-2.143037,0.0],[-79.973749,-2.143047,0.0]],[[-79.973749,-2.143047,0.0],[-79.973952,-2.143085,0.0]],[[-79.957375,-2.15403,0.0],[-79.95782,-2.15421,0.0]],[[-79.95782,-2.15421,0.0],[-79.958237,-2.154372,0.0]],[[-79.958237,-2.154372,0.0],[-79.958514,-2.154486,0.0]],[[-79.958514,-2.154486,0.0],[-79.958694,-2.154549,0.0]],[[-79.958694,-2.154549,0.0],[-79.958881,-2.154614,0.0]],[[-79.95706,-2.153904,0.0],[-79.957375,-2.15403,0.0]],[[-79.956809,-2.153792,0.0],[-79.95706,-2.153904,0.0]],[[-79.956601,-2.153672,0.0],[-79.956809,-2.153792,0.0]],[[-79.956408,-2.153405,0.0],[-79.956495,-2.153549,0.0]],[[-79.956495,-2.153549,0.0],[-79.956601,-2.153672,0.0]],[[-79.956341,-2.153279,0.0],[-79.956408,-2.153405,0.0]],[[-79.956291,-2.153169,0.0],[-79.956341,-2.153279,0.0]],[[-79.96012,-2.152379,0.0],[-79.960186,-2.152382,0.0]],[[-79.960186,-2.152382,0.0],[-79.960249,-2.152378,0.0]],[[-79.960249,-2.152378,0.0],[-79.960322,-2.15236,0.0]],[[-79.959856,-2.15224,0.0],[-79.959886,-2.152279,0.0]],[[-79.959886,-2.152279,0.0],[-79.959941,-2.152317,0.0]],[[-79.959941,-2.152317,0.0],[-79.959996,-2.152344,0.0]],[[-79.959996,-2.152344,0.0],[-79.960054,-2.152367,0.0]],[[-79.960054,-2.152367,0.0],[-79.96012,-2.152379,0.0]],[[-79.959973,-2.151586,0.0],[-79.959936,-2.151643,0.0]],[[-79.959936,-2.151643,0.0],[-79.959894,-2.151706,0.0]],[[-79.959894,-2.151706,0.0],[-79.959846,-2.151774,0.0]],[[-79.959846,-2.151774,0.0],[-79.959806,-2.151841,0.0]],[[-79.959806,-2.151841,0.0],[-79.959789,-2.151903,0.0]],[[-79.959789,-2.151903,0.0],[-79.95978,-2.151956,0.0]],[[-79.95978,-2.151956,0.0],[-79.959782,-2.152002,0.0]],[[-79.959782,-2.152002,0.0],[-79.95979,-2.152056,0.0]],[[-79.95979,-2.152056,0.0],[-79.9598,-2.1521,0.0]],[[-79.9598,-2.1521,0.0],[-79.959816,-2.152152,0.0]],[[-79.959816,-2.152152,0.0],[-79.959835,-2.152202,0.0]],[[-79.959835,-2.152202,0.0],[-79.959856,-2.15224,0.0]],[[-79.96001,-2.150508,0.0],[-79.959998,-2.150588,0.0]],[[-79.959998,-2.150588,0.0],[-79.959985,-2.150679,0.0]],[[-79.959985,-2.150679,0.0],[-79.959974,-2.150755,0.0]],[[-79.959974,-2.150755,0.0],[-79.959963,-2.150843,0.0]],[[-79.959963,-2.150843,0.0],[-79.959956,-2.150925,0.0]],[[-79.959956,-2.150925,0.0],[-79.959954,-2.150992,0.0]],[[-79.959954,-2.150992,0.0],[-79.959967,-2.151057,0.0]],[[-79.959967,-2.151057,0.0],[-79.959999,-2.151157,0.0]],[[-79.959999,-2.151157,0.0],[-79.960016,-2.151209,0.0]],[[-79.960016,-2.151209,0.0],[-79.960035,-2.15127,0.0]],[[-79.960035,-2.15127,0.0],[-79.960047,-2.151332,0.0]],[[-79.960047,-2.151332,0.0],[-79.960049,-2.151407,0.0]],[[-79.960049,-2.151407,0.0],[-79.960039,-2.151464,0.0]],[[-79.960039,-2.151464,0.0],[-79.960008,-2.151531,0.0]],[[-79.960008,-2.151531,0.0],[-79.959973,-2.151586,0.0]],[[-79.960024,-2.150425,0.0],[-79.960018,-2.150469,0.0]],[[-79.960018,-2.150469,0.0],[-79.96001,-2.150508,0.0]],[[-79.950082,-2.149479,0.0],[-79.950012,-2.149548,0.0]],[[-79.950012,-2.149548,0.0],[-79.949981,-2.149579,0.0]],[[-79.949981,-2.149579,0.0],[-79.949926,-2.149631,0.0]],[[-79.950193,-2.149386,0.0],[-79.950126,-2.149438,0.0]],[[-79.950126,-2.149438,0.0],[-79.950082,-2.149479,0.0]],[[-79.950334,-2.149315,0.0],[-79.950264,-2.149349,0.0]],[[-79.950264,-2.149349,0.0],[-79.950193,-2.149386,0.0]],[[-79.950334,-2.149109,0.0],[-79.950382,-2.149174,0.0]],[[-79.950382,-2.149174,0.0],[-79.950435,-2.149245,0.0]],[[-79.950524,-2.149193,0.0],[-79.950435,-2.149245,0.0]],[[-79.950435,-2.149245,0.0],[-79.950402,-2.149264,0.0]],[[-79.950402,-2.149264,0.0],[-79.950386,-2.149277,0.0]],[[-79.950386,-2.149277,0.0],[-79.950352,-2.149304,0.0]],[[-79.950352,-2.149304,0.0],[-79.950334,-2.149315,0.0]],[[-79.950221,-2.148954,0.0],[-79.950255,-2.149002,0.0]],[[-79.950255,-2.149002,0.0],[-79.95029,-2.149049,0.0]],[[-79.95029,-2.149049,0.0],[-79.950334,-2.149109,0.0]],[[-79.950194,-2.148917,0.0],[-79.950221,-2.148954,0.0]],[[-79.950181,-2.14889,0.0],[-79.950194,-2.148917,0.0]],[[-79.950685,-2.149116,0.0],[-79.950524,-2.149193,0.0]],[[-79.951102,-2.148441,0.0],[-79.951047,-2.148576,0.0]],[[-79.951047,-2.148576,0.0],[-79.950991,-2.148716,0.0]],[[-79.950991,-2.148716,0.0],[-79.950911,-2.14886,0.0]],[[-79.950911,-2.14886,0.0],[-79.950859,-2.14894,0.0]],[[-79.950859,-2.14894,0.0],[-79.950787,-2.149028,0.0]],[[-79.950787,-2.149028,0.0],[-79.950685,-2.149116,0.0]],[[-79.952275,-2.147949,0.0],[-79.952168,-2.147951,0.0]],[[-79.952168,-2.147951,0.0],[-79.952071,-2.148002,0.0]],[[-79.952071,-2.148002,0.0],[-79.952006,-2.14807,0.0]],[[-79.952006,-2.14807,0.0],[-79.951922,-2.148192,0.0]],[[-79.951922,-2.148192,0.0],[-79.951881,-2.148245,0.0]],[[-79.951881,-2.148245,0.0],[-79.951816,-2.14827,0.0]],[[-79.951816,-2.14827,0.0],[-79.951659,-2.148272,0.0]],[[-79.952578,-2.147928,0.0],[-79.952474,-2.147943,0.0]],[[-79.952474,-2.147943,0.0],[-79.952275,-2.147949,0.0]],[[-79.951659,-2.148272,0.0],[-79.95147,-2.148275,0.0]],[[-79.95147,-2.148275,0.0],[-79.951324,-2.148277,0.0]],[[-79.951324,-2.148277,0.0],[-79.951214,-2.148287,0.0]],[[-79.951214,-2.148287,0.0],[-79.951149,-2.148338,0.0]],[[-79.951149,-2.148338,0.0],[-79.951102,-2.148441,0.0]]]}},
{"type":"Feature","properties":{"Layer":"lin_espol"},"geometry":{"type":"MultiLineString","coordinates":[[[-79.963947,-2.148808,0.0],[-79.964074,-2.148991,0.0]],[[-79.964024,-2.149026,0.0],[-79.963989,-2.148974,0.0]],[[-79.963989,-2.148974,0.0],[-79.963945,-2.148911,0.0]],[[-79.963933,-2.148786,0.0],[-79.963947,-2.148808,0.0]],[[-79.963783,-2.148558,0.0],[-79.963888,-2.148717,0.0]],[[-79.963888,-2.148717,0.0],[-79.963905,-2.148741,0.0]],[[-79.963905,-2.148741,0.0],[-79.963933,-2.148786,0.0]],[[-79.963945,-2.148911,0.0],[-79.963899,-2.14884,0.0]],[[-79.963899,-2.14884,0.0],[-79.963884,-2.148817,0.0]],[[-79.963884,-2.148817,0.0],[-79.963857,-2.148773,0.0]],[[-79.963857,-2.148773,0.0],[-79.96384,-2.14875,0.0]],[[-79.96384,-2.14875,0.0],[-79.963735,-2.14859,0.0]],[[-79.963609,-2.148212,0.0],[-79.963667,-2.148385,0.0]],[[-79.963667,-2.148385,0.0],[-79.963723,-2.148467,0.0]],[[-79.963723,-2.148467,0.0],[-79.963783,-2.148558,0.0]],[[-79.963735,-2.14859,0.0],[-79.963676,-2.148499,0.0]],[[-79.963676,-2.148499,0.0],[-79.963615,-2.148411,0.0]],[[-79.963615,-2.148411,0.0],[-79.963602,-2.148397,0.0]],[[-79.963602,-2.148397,0.0],[-79.963435,-2.148266,0.0]],[[-79.96305,-2.14795,0.0],[-79.963062,-2.147963,0.0]],[[-79.963062,-2.147963,0.0],[-79.963062,-2.148051,0.0]],[[-79.963062,-2.148051,0.0],[-79.963052,-2.148044,0.0]],[[-79.963052,-2.148044,0.0],[-79.963025,-2.148019,0.0]],[[-79.963025,-2.148019,0.0],[-79.963001,-2.147994,0.0]],[[-79.963001,-2.147994,0.0],[-79.962977,-2.147966,0.0]],[[-79.962977,-2.147966,0.0],[-79.962955,-2.147937,0.0]],[[-79.963107,-2.148084,0.0],[-79.96308,-2.148065,0.0]],[[-79.96308,-2.148065,0.0],[-79.963062,-2.148051,0.0]],[[-79.963062,-2.148051,0.0],[-79.963062,-2.147963,0.0]],[[-79.963062,-2.147963,0.0],[-79.963071,-2.147972,0.0]],[[-79.963071,-2.147972,0.0],[-79.963093,-2.147993,0.0]],[[-79.963093,-2.147993,0.0],[-79.963118,-2.148011,0.0]],[[-79.963118,-2.148011,0.0],[-79.963144,-2.148029,0.0]],[[-79.963144,-2.148029,0.0],[-79.963171,-2.148046,0.0]],[[-79.963171,-2.148046,0.0],[-79.9632,-2.148064,0.0]],[[-79.9632,-2.148064,0.0],[-79.963226,-2.148079,0.0]],[[-79.963226,-2.148079,0.0],[-79.963255,-2.148095,0.0]],[[-79.963255,-2.148095,0.0],[-79.963282,-2.148109,0.0]],[[-79.963282,-2.148109,0.0],[-79.963311,-2.148123,0.0]],[[-79.963311,-2.148123,0.0],[-79.963336,-2.148135,0.0]],[[-79.963336,-2.148135,0.0],[-79.963366,-2.14815,0.0]],[[-79.963366,-2.14815,0.0],[-79.963394,-2.148166,0.0]],[[-79.963394,-2.148166,0.0],[-79.963418,-2.14818,0.0]],[[-79.963418,-2.14818,0.0],[-79.963447,-2.148198,0.0]],[[-79.963447,-2.148198,0.0],[-79.963479,-2.148223,0.0]],[[-79.963479,-2.148223,0.0],[-79.963504,-2.148244,0.0]],[[-79.963504,-2.148244,0.0],[-79.963488,-2.148221,0.0]],[[-79.963488,-2.148221,0.0],[-79.963471,-2.1482,0.0]],[[-79.963471,-2.1482,0.0],[-79.963452,-2.148175,0.0]],[[-79.963452,-2.148175,0.0],[-79.963436,-2.148151,0.0]],[[-79.963436,-2.148151,0.0],[-79.963417,-2.148128,0.0]],[[-79.963417,-2.148128,0.0],[-79.9634,-2.148102,0.0]],[[-79.9634,-2.148102,0.0],[-79.963384,-2.14807,0.0]],[[-79.963384,-2.14807,0.0],[-79.963375,-2.148042,0.0]],[[-79.963375,-2.148042,0.0],[-79.963364,-2.14801,0.0]],[[-79.963364,-2.14801,0.0],[-79.963356,-2.147953,0.0]],[[-79.963413,-2.147949,0.0],[-79.96342,-2.147997,0.0]],[[-79.96342,-2.147997,0.0],[-79.963429,-2.148024,0.0]],[[-79.963429,-2.148024,0.0],[-79.963437,-2.148048,0.0]],[[-79.963437,-2.148048,0.0],[-79.963449,-2.148073,0.0]],[[-79.963449,-2.148073,0.0],[-79.963463,-2.148094,0.0]],[[-79.963463,-2.148094,0.0],[-79.963482,-2.148117,0.0]],[[-79.963482,-2.148117,0.0],[-79.963498,-2.148142,0.0]],[[-79.963498,-2.148142,0.0],[-79.963516,-2.148164,0.0]],[[-79.963516,-2.148164,0.0],[-79.963533,-2.148187,0.0]],[[-79.963533,-2.148187,0.0],[-79.963546,-2.148203,0.0]],[[-79.963546,-2.148203,0.0],[-79.963527,-2.148118,0.0]],[[-79.963527,-2.148118,0.0],[-79.96352,-2.148049,0.0]],[[-79.96352,-2.148049,0.0],[-79.963517,-2.147963,0.0]],[[-79.963517,-2.147963,0.0],[-79.963526,-2.147885,0.0]],[[-79.963585,-2.147896,0.0],[-79.963577,-2.147966,0.0]],[[-79.963577,-2.147966,0.0],[-79.96358,-2.148045,0.0]],[[-79.96358,-2.148045,0.0],[-79.963591,-2.148107,0.0]],[[-79.963591,-2.148107,0.0],[-79.963609,-2.148212,0.0]],[[-79.963435,-2.148266,0.0],[-79.963383,-2.148231,0.0]],[[-79.963383,-2.148231,0.0],[-79.963352,-2.148216,0.0]],[[-79.963352,-2.148216,0.0],[-79.96333,-2.148204,0.0]],[[-79.96333,-2.148204,0.0],[-79.963307,-2.148194,0.0]],[[-79.963307,-2.148194,0.0],[-79.963282,-2.148182,0.0]],[[-79.963282,-2.148182,0.0],[-79.963253,-2.148168,0.0]],[[-79.963253,-2.148168,0.0],[-79.963225,-2.148154,0.0]],[[-79.963225,-2.148154,0.0],[-79.963194,-2.148137,0.0]],[[-79.963194,-2.148137,0.0],[-79.963166,-2.148121,0.0]],[[-79.963166,-2.148121,0.0],[-79.963137,-2.148103,0.0]],[[-79.963137,-2.148103,0.0],[-79.963107,-2.148084,0.0]],[[-79.963356,-2.147953,0.0],[-79.963356,-2.147878,0.0]],[[-79.963356,-2.147878,0.0],[-79.963362,-2.147781,0.0]],[[-79.963362,-2.147781,0.0],[-79.963379,-2.147702,0.0]],[[-79.963379,-2.147702,0.0],[-79.963398,-2.147622,0.0]],[[-79.963453,-2.147637,0.0],[-79.963435,-2.147715,0.0]],[[-79.963435,-2.147715,0.0],[-79.963418,-2.147789,0.0]],[[-79.963418,-2.147789,0.0],[-79.963413,-2.14788,0.0]],[[-79.963413,-2.14788,0.0],[-79.963413,-2.147949,0.0]],[[-79.963526,-2.147885,0.0],[-79.963548,-2.147802,0.0]],[[-79.963548,-2.147802,0.0],[-79.963569,-2.147742,0.0]],[[-79.963569,-2.147742,0.0],[-79.963626,-2.147762,0.0]],[[-79.963626,-2.147762,0.0],[-79.963605,-2.14782,0.0]],[[-79.963605,-2.14782,0.0],[-79.963585,-2.147896,0.0]],[[-79.963398,-2.147622,0.0],[-79.963425,-2.147539,0.0]],[[-79.963425,-2.147539,0.0],[-79.963462,-2.147458,0.0]],[[-79.963462,-2.147458,0.0],[-79.963477,-2.147431,0.0]],[[-79.963477,-2.147431,0.0],[-79.963495,-2.147407,0.0]],[[-79.963495,-2.147407,0.0],[-79.963515,-2.14738,0.0]],[[-79.963515,-2.14738,0.0],[-79.963538,-2.147358,0.0]],[[-79.963541,-2.147441,0.0],[-79.963525,-2.147463,0.0]],[[-79.963525,-2.147463,0.0],[-79.963513,-2.147484,0.0]],[[-79.963513,-2.147484,0.0],[-79.963478,-2.14756,0.0]],[[-79.963478,-2.14756,0.0],[-79.963453,-2.147637,0.0]],[[-79.963538,-2.147358,0.0],[-79.963573,-2.147324,0.0]],[[-79.963573,-2.147324,0.0],[-79.963632,-2.147279,0.0]],[[-79.963662,-2.147328,0.0],[-79.96361,-2.147368,0.0]],[[-79.96361,-2.147368,0.0],[-79.963577,-2.1474,0.0]],[[-79.963577,-2.1474,0.0],[-79.963558,-2.147418,0.0]],[[-79.963558,-2.147418,0.0],[-79.963541,-2.147441,0.0]],[[-79.963632,-2.147279,0.0],[-79.963696,-2.147249,0.0]],[[-79.963696,-2.147249,0.0],[-79.963771,-2.147232,0.0]],[[-79.963771,-2.147232,0.0],[-79.963872,-2.147221,0.0]],[[-79.963872,-2.147221,0.0],[-79.963912,-2.147212,0.0]],[[-79.963912,-2.147212,0.0],[-79.964155,-2.147162,0.0]],[[-79.964155,-2.147162,0.0],[-79.964228,-2.147147,0.0]],[[-79.96424,-2.147203,0.0],[-79.964166,-2.147218,0.0]],[[-79.964166,-2.147218,0.0],[-79.963924,-2.147268,0.0]],[[-79.963924,-2.147268,0.0],[-79.963881,-2.147277,0.0]],[[-79.963881,-2.147277,0.0],[-79.96378,-2.147289,0.0]],[[-79.96378,-2.147289,0.0],[-79.963714,-2.147303,0.0]],[[-79.963714,-2.147303,0.0],[-79.963662,-2.147328,0.0]],[[-79.964228,-2.147147,0.0],[-79.964326,-2.147126,0.0]],[[-79.964326,-2.147126,0.0],[-79.964409,-2.147106,0.0]],[[-79.964339,-2.147182,0.0],[-79.96424,-2.147203,0.0]],[[-79.964426,-2.147161,0.0],[-79.964339,-2.147182,0.0]],[[-79.964409,-2.147106,0.0],[-79.964484,-2.147078,0.0]],[[-79.964484,-2.147078,0.0],[-79.964563,-2.147038,0.0]],[[-79.964507,-2.14713,0.0],[-79.964426,-2.147161,0.0]],[[-79.964563,-2.147038,0.0],[-79.964681,-2.146975,0.0]],[[-79.964681,-2.146975,0.0],[-79.964798,-2.146911,0.0]],[[-79.964798,-2.146911,0.0],[-79.964875,-2.146861,0.0]],[[-79.964875,-2.146861,0.0],[-79.964901,-2.146837,0.0]],[[-79.964901,-2.146837,0.0],[-79.964974,-2.146837,0.0]],[[-79.964974,-2.146837,0.0],[-79.964969,-2.146844,0.0]],[[-79.964969,-2.146844,0.0],[-79.964953,-2.146867,0.0]],[[-79.964953,-2.146867,0.0],[-79.964911,-2.146906,0.0]],[[-79.964911,-2.146906,0.0],[-79.964827,-2.14696,0.0]],[[-79.964827,-2.14696,0.0],[-79.964708,-2.147026,0.0]],[[-79.964708,-2.147026,0.0],[-79.964589,-2.147089,0.0]],[[-79.964589,-2.147089,0.0],[-79.964507,-2.14713,0.0]],[[-79.96494,-2.146774,0.0],[-79.964946,-2.146748,0.0]],[[-79.964946,-2.146748,0.0],[-79.964945,-2.146732,0.0]],[[-79.964945,-2.146732,0.0],[-79.965056,-2.146706,0.0]],[[-79.965056,-2.146706,0.0],[-79.96501,-2.146774,0.0]],[[-79.96501,-2.146774,0.0],[-79.964997,-2.146803,0.0]],[[-79.964997,-2.146803,0.0],[-79.964974,-2.146837,0.0]],[[-79.964974,-2.146837,0.0],[-79.964901,-2.146837,0.0]],[[-79.964901,-2.146837,0.0],[-79.96491,-2.146829,0.0]],[[-79.96491,-2.146829,0.0],[-79.96492,-2.146814,0.0]],[[-79.96492,-2.146814,0.0],[-79.96494,-2.146774,0.0]],[[-79.962854,-2.147787,0.0],[-79.96283,-2.147751,0.0]],[[-79.96283,-2.147751,0.0],[-79.96291,-2.147751,0.0]],[[-79.96291,-2.147751,0.0],[-79.962949,-2.14781,0.0]],[[-79.962949,-2.14781,0.0],[-79.963008,-2.147898,0.0]],[[-79.963008,-2.147898,0.0],[-79.963028,-2.147924,0.0]],[[-79.963028,-2.147924,0.0],[-79.96305,-2.14795,0.0]],[[-79.962955,-2.147937,0.0],[-79.962894,-2.147847,0.0]],[[-79.962894,-2.147847,0.0],[-79.962854,-2.147787,0.0]],[[-79.96283,-2.147751,0.0],[-79.962673,-2.147517,0.0]],[[-79.962673,-2.147517,0.0],[-79.962519,-2.147292,0.0]],[[-79.962728,-2.14748,0.0],[-79.96291,-2.147751,0.0]],[[-79.96291,-2.147751,0.0],[-79.96283,-2.147751,0.0]],[[-79.962519,-2.147292,0.0],[-79.96228,-2.146936,0.0]],[[-79.962336,-2.146901,0.0],[-79.962573,-2.147254,0.0]],[[-79.962573,-2.147254,0.0],[-79.962728,-2.14748,0.0]],[[-79.96228,-2.146936,0.0],[-79.962263,-2.146907,0.0]],[[-79.962314,-2.146856,0.0],[-79.962323,-2.146879,0.0]],[[-79.962323,-2.146879,0.0],[-79.962336,-2.146901,0.0]],[[-79.962263,-2.146907,0.0],[-79.962252,-2.146877,0.0]],[[-79.962252,-2.146877,0.0],[-79.962244,-2.146849,0.0]],[[-79.962307,-2.146831,0.0],[-79.962314,-2.146856,0.0]],[[-79.962244,-2.146849,0.0],[-79.962234,-2.146812,0.0]],[[-79.962234,-2.146812,0.0],[-79.962237,-2.146764,0.0]],[[-79.962302,-2.146772,0.0],[-79.9623,-2.146805,0.0]],[[-79.9623,-2.146805,0.0],[-79.962307,-2.146831,0.0]],[[-79.962237,-2.146764,0.0],[-79.962245,-2.146712,0.0]],[[-79.962245,-2.146712,0.0],[-79.96226,-2.146665,0.0]],[[-79.96226,-2.146665,0.0],[-79.962268,-2.146641,0.0]],[[-79.96234,-2.146635,0.0],[-79.962331,-2.14666,0.0]],[[-79.962331,-2.14666,0.0],[-79.962323,-2.146685,0.0]],[[-79.962323,-2.146685,0.0],[-79.962309,-2.146727,0.0]],[[-79.962309,-2.146727,0.0],[-79.962302,-2.146772,0.0]],[[-79.962268,-2.146641,0.0],[-79.962274,-2.146618,0.0]],[[-79.962274,-2.146618,0.0],[-79.96228,-2.146594,0.0]],[[-79.96228,-2.146594,0.0],[-79.962283,-2.146573,0.0]],[[-79.962283,-2.146573,0.0],[-79.962285,-2.146551,0.0]],[[-79.962353,-2.146553,0.0],[-79.962351,-2.14658,0.0]],[[-79.962351,-2.14658,0.0],[-79.962347,-2.146607,0.0]],[[-79.962347,-2.146607,0.0],[-79.96234,-2.146635,0.0]],[[-79.962285,-2.146551,0.0],[-79.962275,-2.146522,0.0]],[[-79.962275,-2.146522,0.0],[-79.962355,-2.146495,0.0]],[[-79.962355,-2.146495,0.0],[-79.962352,-2.146506,0.0]],[[-79.962352,-2.146506,0.0],[-79.962353,-2.146553,0.0]],[[-79.968732,-2.145521,0.0],[-79.968501,-2.145669,0.0]],[[-79.968501,-2.145669,0.0],[-79.968466,-2.145717,0.0]],[[-79.96848,-2.145564,0.0],[-79.968503,-2.145569,0.0]],[[-79.968503,-2.145569,0.0],[-79.968522,-2.145566,0.0]],[[-79.968522,-2.145566,0.0],[-79.968551,-2.145552,0.0]],[[-79.968551,-2.145552,0.0],[-79.968694,-2.14546,0.0]],[[-79.968431,-2.145539,0.0],[-79.96848,-2.145564,0.0]],[[-79.969229,-2.145203,0.0],[-79.969034,-2.145329,0.0]],[[-79.969034,-2.145329,0.0],[-79.968885,-2.145422,0.0]],[[-79.968885,-2.145422,0.0],[-79.968732,-2.145521,0.0]],[[-79.968694,-2.14546,0.0],[-79.968847,-2.145361,0.0]],[[-79.968847,-2.145361,0.0],[-79.968995,-2.145267,0.0]],[[-79.968995,-2.145267,0.0],[-79.969191,-2.145142,0.0]],[[-79.969389,-2.145103,0.0],[-79.969229,-2.145203,0.0]],[[-79.969191,-2.145142,0.0],[-79.969352,-2.145042,0.0]],[[-79.96973,-2.144872,0.0],[-79.969769,-2.144857,0.0]],[[-79.969769,-2.144857,0.0],[-79.969802,-2.14484,0.0]],[[-79.969798,-2.144923,0.0],[-79.969747,-2.144943,0.0]],[[-79.969747,-2.144943,0.0],[-79.96973,-2.144949,0.0]],[[-79.96973,-2.144949,0.0],[-79.96973,-2.144872,0.0]],[[-79.969564,-2.144937,0.0],[-79.969721,-2.144876,0.0]],[[-79.969721,-2.144876,0.0],[-79.96973,-2.144872,0.0]],[[-79.96973,-2.144872,0.0],[-79.96973,-2.144949,0.0]],[[-79.96973,-2.144949,0.0],[-79.96959,-2.145004,0.0]],[[-79.96959,-2.145004,0.0],[-79.969515,-2.145033,0.0]],[[-79.969515,-2.145033,0.0],[-79.969474,-2.14505,0.0]],[[-79.969474,-2.14505,0.0],[-79.969389,-2.145103,0.0]],[[-79.969352,-2.145042,0.0],[-79.969441,-2.144986,0.0]],[[-79.969441,-2.144986,0.0],[-79.969489,-2.144966,0.0]],[[-79.969489,-2.144966,0.0],[-79.969564,-2.144937,0.0]],[[-79.969802,-2.14484,0.0],[-79.969841,-2.144816,0.0]],[[-79.969841,-2.144816,0.0],[-79.969865,-2.1448,0.0]],[[-79.969865,-2.1448,0.0],[-79.969909,-2.144761,0.0]],[[-79.969909,-2.144761,0.0],[-79.969945,-2.144723,0.0]],[[-79.969945,-2.144723,0.0],[-79.969976,-2.144684,0.0]],[[-79.969976,-2.144684,0.0],[-79.970077,-2.144544,0.0]],[[-79.970077,-2.144544,0.0],[-79.970206,-2.144354,0.0]],[[-79.970206,-2.144354,0.0],[-79.970327,-2.144177,0.0]],[[-79.970327,-2.144177,0.0],[-79.970414,-2.144056,0.0]],[[-79.970414,-2.144056,0.0],[-79.970463,-2.143993,0.0]],[[-79.970463,-2.143993,0.0],[-79.970529,-2.143913,0.0]],[[-79.970529,-2.143913,0.0],[-79.970561,-2.143875,0.0]],[[-79.970561,-2.143875,0.0],[-79.970623,-2.143811,0.0]],[[-79.970623,-2.143811,0.0],[-79.970686,-2.143754,0.0]],[[-79.970686,-2.143754,0.0],[-79.970749,-2.143703,0.0]],[[-79.970749,-2.143703,0.0],[-79.970812,-2.143656,0.0]],[[-79.970812,-2.143656,0.0],[-79.971047,-2.143498,0.0]],[[-79.971047,-2.143498,0.0],[-79.971265,-2.14335,0.0]],[[-79.971265,-2.14335,0.0],[-79.971308,-2.143323,0.0]],[[-79.971308,-2.143323,0.0],[-79.97137,-2.143287,0.0]],[[-79.97137,-2.143287,0.0],[-79.971418,-2.143267,0.0]],[[-79.971418,-2.143267,0.0],[-79.971472,-2.143248,0.0]],[[-79.971472,-2.143248,0.0],[-79.971546,-2.143222,0.0]],[[-79.971546,-2.143222,0.0],[-79.971617,-2.143202,0.0]],[[-79.971617,-2.143202,0.0],[-79.97169,-2.143185,0.0]],[[-79.97169,-2.143185,0.0],[-79.971745,-2.143172,0.0]],[[-79.971745,-2.143172,0.0],[-79.97182,-2.143155,0.0]],[[-79.97182,-2.143155,0.0],[-79.971917,-2.143137,0.0]],[[-79.971917,-2.143137,0.0],[-79.972,-2.143121,0.0]],[[-79.972,-2.143121,0.0],[-79.972079,-2.143109,0.0]],[[-79.972079,-2.143109,0.0],[-79.972157,-2.1431,0.0]],[[-79.972157,-2.1431,0.0],[-79.972287,-2.143089,0.0]],[[-79.972287,-2.143089,0.0],[-79.972482,-2.143075,0.0]],[[-79.972482,-2.143075,0.0],[-79.973368,-2.143009,0.0]],[[-79.973368,-2.143009,0.0],[-79.973516,-2.142998,0.0]],[[-79.97352,-2.14307,0.0],[-79.973373,-2.143081,0.0]],[[-79.973373,-2.143081,0.0],[-79.972487,-2.143147,0.0]],[[-79.972487,-2.143147,0.0],[-79.972292,-2.143161,0.0]],[[-79.972292,-2.143161,0.0],[-79.972164,-2.143172,0.0]],[[-79.972164,-2.143172,0.0],[-79.972088,-2.143181,0.0]],[[-79.972088,-2.143181,0.0],[-79.972012,-2.143193,0.0]],[[-79.972012,-2.143193,0.0],[-79.97193,-2.143208,0.0]],[[-79.97193,-2.143208,0.0],[-79.971835,-2.143226,0.0]],[[-79.971835,-2.143226,0.0],[-79.971761,-2.143242,0.0]],[[-79.971761,-2.143242,0.0],[-79.971707,-2.143255,0.0]],[[-79.971707,-2.143255,0.0],[-79.971635,-2.143272,0.0]],[[-79.971635,-2.143272,0.0],[-79.971567,-2.143292,0.0]],[[-79.971567,-2.143292,0.0],[-79.971496,-2.143316,0.0]],[[-79.971496,-2.143316,0.0],[-79.971444,-2.143335,0.0]],[[-79.971444,-2.143335,0.0],[-79.971402,-2.143352,0.0]],[[-79.971402,-2.143352,0.0],[-79.971345,-2.143385,0.0]],[[-79.971345,-2.143385,0.0],[-79.971304,-2.143411,0.0]],[[-79.971304,-2.143411,0.0],[-79.971087,-2.143558,0.0]],[[-79.971087,-2.143558,0.0],[-79.970854,-2.143715,0.0]],[[-79.970854,-2.143715,0.0],[-79.970793,-2.143761,0.0]],[[-79.970793,-2.143761,0.0],[-79.970733,-2.143809,0.0]],[[-79.970733,-2.143809,0.0],[-79.970673,-2.143863,0.0]],[[-79.970673,-2.143863,0.0],[-79.970614,-2.143924,0.0]],[[-79.970614,-2.143924,0.0],[-79.970584,-2.14396,0.0]],[[-79.970584,-2.14396,0.0],[-79.970519,-2.144038,0.0]],[[-79.970519,-2.144038,0.0],[-79.970472,-2.144099,0.0]],[[-79.970472,-2.144099,0.0],[-79.970386,-2.144219,0.0]],[[-79.970386,-2.144219,0.0],[-79.970265,-2.144395,0.0]],[[-79.970265,-2.144395,0.0],[-79.970135,-2.144586,0.0]],[[-79.970135,-2.144586,0.0],[-79.970034,-2.144727,0.0]],[[-79.970034,-2.144727,0.0],[-79.969999,-2.144771,0.0]],[[-79.969999,-2.144771,0.0],[-79.969958,-2.144813,0.0]],[[-79.969958,-2.144813,0.0],[-79.969909,-2.144857,0.0]],[[-79.969909,-2.144857,0.0],[-79.96988,-2.144877,0.0]],[[-79.96988,-2.144877,0.0],[-79.969837,-2.144903,0.0]],[[-79.969837,-2.144903,0.0],[-79.969798,-2.144923,0.0]],[[-79.973516,-2.142998,0.0],[-79.973567,-2.142995,0.0]],[[-79.973567,-2.142995,0.0],[-79.973618,-2.142996,0.0]],[[-79.973618,-2.142996,0.0],[-79.973683,-2.143,0.0]],[[-79.973683,-2.143,0.0],[-79.973755,-2.14301,0.0]],[[-79.973755,-2.14301,0.0],[-79.973958,-2.143048,0.0]],[[-79.973945,-2.143119,0.0],[-79.973744,-2.143082,0.0]],[[-79.973744,-2.143082,0.0],[-79.973676,-2.143072,0.0]],[[-79.973676,-2.143072,0.0],[-79.973616,-2.143068,0.0]],[[-79.973616,-2.143068,0.0],[-79.973569,-2.143068,0.0]],[[-79.973569,-2.143068,0.0],[-79.97352,-2.14307,0.0]],[[-79.973958,-2.143048,0.0],[-79.973945,-2.143119,0.0]],[[-79.957387,-2.154,0.0],[-79.957832,-2.15418,0.0]],[[-79.957832,-2.15418,0.0],[-79.95795,-2.154226,0.0]],[[-79.95795,-2.154226,0.0],[-79.95795,-2.154295,0.0]],[[-79.95795,-2.154295,0.0],[-79.957808,-2.15424,0.0]],[[-79.957808,-2.15424,0.0],[-79.957363,-2.15406,0.0]],[[-79.95795,-2.154295,0.0],[-79.95795,-2.154226,0.0]],[[-79.95795,-2.154226,0.0],[-79.958249,-2.154342,0.0]],[[-79.958249,-2.154342,0.0],[-79.958525,-2.154456,0.0]],[[-79.958525,-2.154456,0.0],[-79.958704,-2.154519,0.0]],[[-79.958704,-2.154519,0.0],[-79.958828,-2.154561,0.0]],[[-79.958828,-2.154561,0.0],[-79.958631,-2.154561,0.0]],[[-79.958631,-2.154561,0.0],[-79.958502,-2.154516,0.0]],[[-79.958502,-2.154516,0.0],[-79.958225,-2.154402,0.0]],[[-79.958225,-2.154402,0.0],[-79.95795,-2.154295,0.0]],[[-79.958683,-2.154579,0.0],[-79.958631,-2.154561,0.0]],[[-79.958631,-2.154561,0.0],[-79.958828,-2.154561,0.0]],[[-79.958828,-2.154561,0.0],[-79.958891,-2.154584,0.0]],[[-79.958891,-2.154584,0.0],[-79.95887,-2.154644,0.0]],[[-79.95887,-2.154644,0.0],[-79.958683,-2.154579,0.0]],[[-79.957363,-2.15406,0.0],[-79.957048,-2.153933,0.0]],[[-79.957072,-2.153874,0.0],[-79.957387,-2.154,0.0]],[[-79.957048,-2.153933,0.0],[-79.956794,-2.153821,0.0]],[[-79.956821,-2.153764,0.0],[-79.957072,-2.153874,0.0]],[[-79.956794,-2.153821,0.0],[-79.956581,-2.153697,0.0]],[[-79.95662,-2.153651,0.0],[-79.956821,-2.153764,0.0]],[[-79.956581,-2.153697,0.0],[-79.956469,-2.153568,0.0]],[[-79.956469,-2.153568,0.0],[-79.95638,-2.153421,0.0]],[[-79.956436,-2.153389,0.0],[-79.956521,-2.15353,0.0]],[[-79.956521,-2.15353,0.0],[-79.95662,-2.153651,0.0]],[[-79.95638,-2.153421,0.0],[-79.956308,-2.153297,0.0]],[[-79.956308,-2.153297,0.0],[-79.956278,-2.153254,0.0]],[[-79.95637,-2.153265,0.0],[-79.956436,-2.153389,0.0]],[[-79.956278,-2.153254,0.0],[-79.95626,-2.153239,0.0]],[[-79.95626,-2.153239,0.0],[-79.956248,-2.153234,0.0]],[[-79.956248,-2.153234,0.0],[-79.956189,-2.153237,0.0]],[[-79.956316,-2.153148,0.0],[-79.95637,-2.153265,0.0]],[[-79.960123,-2.152347,0.0],[-79.960186,-2.15235,0.0]],[[-79.960186,-2.15235,0.0],[-79.960244,-2.152347,0.0]],[[-79.960244,-2.152347,0.0],[-79.960314,-2.15233,0.0]],[[-79.960314,-2.15233,0.0],[-79.960329,-2.152391,0.0]],[[-79.960329,-2.152391,0.0],[-79.960253,-2.152409,0.0]],[[-79.960253,-2.152409,0.0],[-79.960186,-2.152414,0.0]],[[-79.960186,-2.152414,0.0],[-79.960116,-2.15241,0.0]],[[-79.959908,-2.152256,0.0],[-79.959957,-2.152289,0.0]],[[-79.959957,-2.152289,0.0],[-79.960008,-2.152315,0.0]],[[-79.960008,-2.152315,0.0],[-79.960062,-2.152336,0.0]],[[-79.960045,-2.152397,0.0],[-79.959983,-2.152373,0.0]],[[-79.959983,-2.152373,0.0],[-79.959925,-2.152344,0.0]],[[-79.959925,-2.152344,0.0],[-79.959864,-2.152302,0.0]],[[-79.959864,-2.152302,0.0],[-79.95983,-2.152258,0.0]],[[-79.960062,-2.152336,0.0],[-79.960123,-2.152347,0.0]],[[-79.960116,-2.15241,0.0],[-79.960045,-2.152397,0.0]],[[-79.95991,-2.151626,0.0],[-79.959946,-2.151569,0.0]],[[-79.959946,-2.151569,0.0],[-79.959981,-2.151516,0.0]],[[-79.959962,-2.151661,0.0],[-79.95992,-2.151724,0.0]],[[-79.95992,-2.151724,0.0],[-79.959872,-2.151791,0.0]],[[-79.959872,-2.151791,0.0],[-79.959835,-2.151853,0.0]],[[-79.959835,-2.151853,0.0],[-79.959819,-2.15191,0.0]],[[-79.959819,-2.15191,0.0],[-79.959812,-2.151958,0.0]],[[-79.959812,-2.151958,0.0],[-79.959813,-2.151999,0.0]],[[-79.959813,-2.151999,0.0],[-79.959821,-2.15205,0.0]],[[-79.959821,-2.15205,0.0],[-79.959831,-2.152092,0.0]],[[-79.959831,-2.152092,0.0],[-79.959846,-2.152142,0.0]],[[-79.959846,-2.152142,0.0],[-79.959864,-2.152188,0.0]],[[-79.959864,-2.152188,0.0],[-79.959883,-2.152223,0.0]],[[-79.959883,-2.152223,0.0],[-79.959908,-2.152256,0.0]],[[-79.95983,-2.152258,0.0],[-79.959807,-2.152215,0.0]],[[-79.959807,-2.152215,0.0],[-79.959786,-2.152163,0.0]],[[-79.959786,-2.152163,0.0],[-79.95977,-2.152109,0.0]],[[-79.95977,-2.152109,0.0],[-79.959759,-2.152062,0.0]],[[-79.959759,-2.152062,0.0],[-79.95975,-2.152006,0.0]],[[-79.95975,-2.152006,0.0],[-79.959749,-2.151954,0.0]],[[-79.959749,-2.151954,0.0],[-79.959758,-2.151896,0.0]],[[-79.959758,-2.151896,0.0],[-79.959777,-2.151828,0.0]],[[-79.959777,-2.151828,0.0],[-79.959819,-2.151756,0.0]],[[-79.959819,-2.151756,0.0],[-79.959868,-2.151688,0.0]],[[-79.959868,-2.151688,0.0],[-79.95991,-2.151626,0.0]],[[-79.960042,-2.150514,0.0],[-79.960029,-2.150593,0.0]],[[-79.960029,-2.150593,0.0],[-79.960016,-2.150683,0.0]],[[-79.960016,-2.150683,0.0],[-79.960006,-2.150759,0.0]],[[-79.960006,-2.150759,0.0],[-79.959994,-2.150847,0.0]],[[-79.959994,-2.150847,0.0],[-79.959987,-2.150927,0.0]],[[-79.959987,-2.150927,0.0],[-79.959986,-2.150989,0.0]],[[-79.959986,-2.150989,0.0],[-79.959997,-2.151049,0.0]],[[-79.959997,-2.151049,0.0],[-79.960029,-2.151147,0.0]],[[-79.960029,-2.151147,0.0],[-79.960046,-2.151199,0.0]],[[-79.960046,-2.151199,0.0],[-79.960066,-2.151263,0.0]],[[-79.960066,-2.151263,0.0],[-79.960078,-2.151328,0.0]],[[-79.960078,-2.151328,0.0],[-79.960079,-2.151331,0.0]],[[-79.960079,-2.151331,0.0],[-79.960015,-2.151331,0.0]],[[-79.960015,-2.151331,0.0],[-79.960005,-2.151278,0.0]],[[-79.960005,-2.151278,0.0],[-79.959986,-2.151218,0.0]],[[-79.959986,-2.151218,0.0],[-79.959969,-2.151167,0.0]],[[-79.959969,-2.151167,0.0],[-79.959936,-2.151065,0.0]],[[-79.959936,-2.151065,0.0],[-79.959923,-2.150995,0.0]],[[-79.959923,-2.150995,0.0],[-79.959924,-2.150923,0.0]],[[-79.959924,-2.150923,0.0],[-79.959932,-2.15084,0.0]],[[-79.959932,-2.15084,0.0],[-79.959943,-2.150751,0.0]],[[-79.959943,-2.150751,0.0],[-79.959954,-2.150674,0.0]],[[-79.959954,-2.150674,0.0],[-79.959967,-2.150584,0.0]],[[-79.959967,-2.150584,0.0],[-79.959979,-2.150503,0.0]],[[-79.959981,-2.151516,0.0],[-79.960009,-2.151454,0.0]],[[-79.960009,-2.151454,0.0],[-79.960018,-2.151405,0.0]],[[-79.960018,-2.151405,0.0],[-79.960016,-2.151335,0.0]],[[-79.960016,-2.151335,0.0],[-79.960015,-2.151331,0.0]],[[-79.960015,-2.151331,0.0],[-79.960079,-2.151331,0.0]],[[-79.960079,-2.151331,0.0],[-79.960081,-2.15141,0.0]],[[-79.960081,-2.15141,0.0],[-79.960069,-2.151474,0.0]],[[-79.960069,-2.151474,0.0],[-79.960036,-2.151547,0.0]],[[-79.960036,-2.151547,0.0],[-79.959999,-2.151603,0.0]],[[-79.959999,-2.151603,0.0],[-79.959962,-2.151661,0.0]],[[-79.959976,-2.150461,0.0],[-79.959951,-2.150407,0.0]],[[-79.960124,-2.150452,0.0],[-79.960047,-2.150481,0.0]],[[-79.960047,-2.150481,0.0],[-79.960042,-2.150514,0.0]],[[-79.959979,-2.150503,0.0],[-79.959976,-2.150461,0.0]],[[-79.950155,-2.149437,0.0],[-79.949987,-2.149599,0.0]],[[-79.949987,-2.149599,0.0],[-79.949944,-2.149643,0.0]],[[-79.949965,-2.149567,0.0],[-79.949999,-2.149535,0.0]],[[-79.949999,-2.149535,0.0],[-79.95007,-2.149465,0.0]],[[-79.949944,-2.149643,0.0],[-79.949925,-2.149662,0.0]],[[-79.949955,-2.149569,0.0],[-79.949964,-2.149569,0.0]],[[-79.949964,-2.149569,0.0],[-79.949965,-2.149567,0.0]],[[-79.950193,-2.149412,0.0],[-79.950155,-2.149437,0.0]],[[-79.95007,-2.149465,0.0],[-79.950115,-2.149423,0.0]],[[-79.950115,-2.149423,0.0],[-79.950183,-2.149371,0.0]],[[-79.950344,-2.149331,0.0],[-79.950282,-2.149361,0.0]],[[-79.950282,-2.149361,0.0],[-79.950285,-2.149364,0.0]],[[-79.950285,-2.149364,0.0],[-79.950239,-2.149385,0.0]],[[-79.950239,-2.149385,0.0],[-79.950193,-2.149412,0.0]],[[-79.950183,-2.149371,0.0],[-79.950256,-2.149332,0.0]],[[-79.950256,-2.149332,0.0],[-79.950325,-2.149299,0.0]],[[-79.950368,-2.14923,0.0],[-79.950374,-2.149208,0.0]],[[-79.950374,-2.149208,0.0],[-79.950374,-2.149197,0.0]],[[-79.950374,-2.149197,0.0],[-79.950365,-2.149187,0.0]],[[-79.950365,-2.149187,0.0],[-79.950317,-2.149122,0.0]],[[-79.950348,-2.149098,0.0],[-79.950395,-2.149163,0.0]],[[-79.950395,-2.149163,0.0],[-79.950405,-2.149176,0.0]],[[-79.950405,-2.149176,0.0],[-79.950432,-2.149191,0.0]],[[-79.950432,-2.149191,0.0],[-79.950458,-2.149187,0.0]],[[-79.950458,-2.149187,0.0],[-79.950619,-2.149106,0.0]],[[-79.950539,-2.149224,0.0],[-79.950452,-2.149275,0.0]],[[-79.950452,-2.149275,0.0],[-79.950361,-2.149322,0.0]],[[-79.950361,-2.149322,0.0],[-79.950344,-2.149331,0.0]],[[-79.950325,-2.149299,0.0],[-79.95035,-2.149279,0.0]],[[-79.95035,-2.149279,0.0],[-79.950363,-2.149256,0.0]],[[-79.950363,-2.149256,0.0],[-79.950368,-2.14923,0.0]],[[-79.950317,-2.149122,0.0],[-79.950273,-2.149062,0.0]],[[-79.950273,-2.149062,0.0],[-79.950238,-2.149014,0.0]],[[-79.950238,-2.149014,0.0],[-79.950208,-2.148971,0.0]],[[-79.950271,-2.14899,0.0],[-79.950305,-2.149038,0.0]],[[-79.950305,-2.149038,0.0],[-79.950348,-2.149098,0.0]],[[-79.950208,-2.148971,0.0],[-79.950196,-2.148955,0.0]],[[-79.950196,-2.148955,0.0],[-79.950185,-2.148941,0.0]],[[-79.950208,-2.148903,0.0],[-79.950225,-2.148929,0.0]],[[-79.950225,-2.148929,0.0],[-79.950271,-2.14899,0.0]],[[-79.950192,-2.148865,0.0],[-79.950204,-2.148897,0.0]],[[-79.950204,-2.148897,0.0],[-79.950208,-2.148903,0.0]],[[-79.950187,-2.148838,0.0],[-79.950192,-2.148865,0.0]],[[-79.950619,-2.149106,0.0],[-79.950703,-2.149053,0.0]],[[-79.950705,-2.149144,0.0],[-79.950539,-2.149224,0.0]],[[-79.951133,-2.148455,0.0],[-79.951078,-2.148589,0.0]],[[-79.951078,-2.148589,0.0],[-79.951022,-2.14873,0.0]],[[-79.951022,-2.14873,0.0],[-79.950983,-2.148801,0.0]],[[-79.950983,-2.148801,0.0],[-79.950983,-2.148644,0.0]],[[-79.950983,-2.148644,0.0],[-79.950978,-2.148644,0.0]],[[-79.950978,-2.148644,0.0],[-79.951011,-2.148561,0.0]],[[-79.951011,-2.148561,0.0],[-79.951067,-2.148426,0.0]],[[-79.950806,-2.148953,0.0],[-79.950841,-2.148898,0.0]],[[-79.950841,-2.148898,0.0],[-79.95091,-2.148791,0.0]],[[-79.95091,-2.148791,0.0],[-79.950928,-2.148767,0.0]],[[-79.950928,-2.148767,0.0],[-79.950963,-2.148676,0.0]],[[-79.950963,-2.148676,0.0],[-79.950976,-2.148644,0.0]],[[-79.950976,-2.148644,0.0],[-79.950983,-2.148644,0.0]],[[-79.950983,-2.148644,0.0],[-79.950983,-2.148801,0.0]],[[-79.950983,-2.148801,0.0],[-79.95094,-2.148877,0.0]],[[-79.95094,-2.148877,0.0],[-79.950885,-2.148962,0.0]],[[-79.950703,-2.149053,0.0],[-79.95077,-2.148993,0.0]],[[-79.95077,-2.148993,0.0],[-79.950806,-2.148953,0.0]],[[-79.950885,-2.148962,0.0],[-79.950856,-2.149014,0.0]],[[-79.950856,-2.149014,0.0],[-79.950778,-2.149092,0.0]],[[-79.950778,-2.149092,0.0],[-79.950705,-2.149144,0.0]],[[-79.952064,-2.147961,0.0],[-79.952085,-2.147941,0.0]],[[-79.952085,-2.147941,0.0],[-79.952131,-2.147918,0.0]],[[-79.952131,-2.147918,0.0],[-79.952159,-2.147914,0.0]],[[-79.952159,-2.147914,0.0],[-79.952228,-2.147913,0.0]],[[-79.952276,-2.147983,0.0],[-79.952177,-2.147985,0.0]],[[-79.952177,-2.147985,0.0],[-79.952144,-2.147989,0.0]],[[-79.952144,-2.147989,0.0],[-79.952121,-2.148001,0.0]],[[-79.952121,-2.148001,0.0],[-79.952102,-2.148016,0.0]],[[-79.952102,-2.148016,0.0],[-79.952092,-2.148029,0.0]],[[-79.952092,-2.148029,0.0],[-79.952032,-2.148091,0.0]],[[-79.952032,-2.148091,0.0],[-79.95201,-2.148127,0.0]],[[-79.95201,-2.148127,0.0],[-79.951921,-2.148127,0.0]],[[-79.951921,-2.148127,0.0],[-79.951976,-2.148046,0.0]],[[-79.951976,-2.148046,0.0],[-79.952064,-2.147961,0.0]],[[-79.951739,-2.148232,0.0],[-79.951811,-2.14823,0.0]],[[-79.951811,-2.14823,0.0],[-79.951844,-2.14822,0.0]],[[-79.951844,-2.14822,0.0],[-79.951868,-2.148202,0.0]],[[-79.951868,-2.148202,0.0],[-79.951868,-2.148201,0.0]],[[-79.951868,-2.148201,0.0],[-79.951871,-2.148198,0.0]],[[-79.951871,-2.148198,0.0],[-79.951892,-2.148169,0.0]],[[-79.951892,-2.148169,0.0],[-79.951921,-2.148127,0.0]],[[-79.951921,-2.148127,0.0],[-79.95201,-2.148127,0.0]],[[-79.95201,-2.148127,0.0],[-79.951953,-2.148216,0.0]],[[-79.951953,-2.148216,0.0],[-79.951928,-2.148254,0.0]],[[-79.951928,-2.148254,0.0],[-79.951894,-2.148282,0.0]],[[-79.951894,-2.148282,0.0],[-79.951861,-2.148298,0.0]],[[-79.951861,-2.148298,0.0],[-79.951798,-2.148309,0.0]],[[-79.951798,-2.148309,0.0],[-79.951659,-2.148311,0.0]],[[-79.952228,-2.147913,0.0],[-79.952298,-2.147913,0.0]],[[-79.952298,-2.147913,0.0],[-79.952471,-2.147909,0.0]],[[-79.952471,-2.147909,0.0],[-79.952571,-2.147891,0.0]],[[-79.952585,-2.147964,0.0],[-79.952477,-2.147977,0.0]],[[-79.952477,-2.147977,0.0],[-79.952276,-2.147983,0.0]],[[-79.952571,-2.147891,0.0],[-79.952585,-2.147964,0.0]],[[-79.9512,-2.14825,0.0],[-79.951255,-2.148239,0.0]],[[-79.951255,-2.148239,0.0],[-79.951356,-2.148236,0.0]],[[-79.951356,-2.148236,0.0],[-79.951469,-2.148234,0.0]],[[-79.951469,-2.148234,0.0],[-79.951658,-2.148233,0.0]],[[-79.951658,-2.148233,0.0],[-79.951739,-2.148232,0.0]],[[-79.951659,-2.148311,0.0],[-79.951466,-2.148314,0.0]],[[-79.951466,-2.148314,0.0],[-79.951326,-2.148318,0.0]],[[-79.951326,-2.148318,0.0],[-79.951227,-2.14832,0.0]],[[-79.951227,-2.14832,0.0],[-79.951177,-2.14836,0.0]],[[-79.951067,-2.148426,0.0],[-79.951119,-2.148314,0.0]],[[-79.951119,-2.148314,0.0],[-79.95115,-2.148281,0.0]],[[-79.95115,-2.148281,0.0],[-79.9512,-2.14825,0.0]],[[-79.951177,-2.14836,0.0],[-79.951133,-2.148455,0.0]]]}},
{"type":"Feature","properties":{"Layer":"VIAS_SEC"},"geometry":{"type":"MultiLineString","coordinates":[[[-79.9588699,-2.1546439,0.0],[-79.9590796,-2.1546412,0.0],[-79.9592482,-2.1545975,0.0],[-79.9594514,-2.154495,0.0],[-79.9596439,-2.1543742,0.0],[-79.9598234,-2.1542291,0.0],[-79.9599712,-2.1540577,0.0],[-79.9600796,-2.1539249,0.0],[-79.9600945,-2.1538999,0.0],[-79.9601143,-2.1538486,0.0],[-79.9601188,-2.1538003,0.0],[-79.9600957,-2.1537119,0.0],[-79.9600846,-2.1536838,0.0],[-79.9599393,-2.1534389,0.0],[-79.9599021,-2.15341,0.0],[-79.9597629,-2.1533381,0.0],[-79.959738,-2.1533897,0.0]]]}},
{"type":"Feature","properties":{"Layer":"VIAS_SEC"},"geometry":{"type":"MultiLineString","coordinates":[[[-79.9588909,-2.1545841,0.0],[-79.9589359,-2.15459,0.0],[-79.9589675,-2.154593,0.0],[-79.9591097,-2.1545832,0.0],[-79.9592245,-2.1545507,0.0],[-79.9593585,-2.1544847,0.0],[-79.9596031,-2.1543355,0.0],[-79.9596958,-2.1542689,0.0],[-79.9597993,-2.1541732,0.0],[-79.959857,-2.1541077,0.0],[-79.9599982,-2.1539408,0.0],[-79.9600436,-2.1538847,0.0],[-79.9600548,-2.1538581,0.0],[-79.9600649,-2.153796,0.0],[-79.9600508,-2.1537477,0.0],[-79.9598832,-2.1534533,0.0],[-79.9598244,-2.15342,0.0],[-79.9597719,-2.1534053,0.0],[-79.9597383,-2.1533891,0.0]]]}},
{"type":"Feature","properties":{"Layer":"VIAS_SEC"},"geometry":{"type":"MultiLineString","coordinates":[[[-79.9588806,-2.1546138,0.0],[-79.9589666,-2.1546186,0.0],[-79.9590801,-2.1546138,0.0],[-79.9592412,-2.1545731,0.0],[-79.9595822,-2.1543873,0.0],[-79.9597416,-2.1542691,0.0],[-79.9598362,-2.1541752,0.0],[-79.959895,-2.1541078,0.0],[-79.9600481,-2.1539219,0.0],[-79.960076,-2.153885,0.0],[-79.9600864,-2.1538532,0.0],[-79.9600932,-2.1537866,0.0],[-79.9600733,-2.1537268,0.0],[-79.9600376,-2.1536639,0.0],[-79.9599562,-2.1535227,0.0],[-79.9599109,-2.1534482,0.0],[-79.9598406,-2.1534028,0.0],[-79.9597506,-2.1533646,0.0]]]}}
]
}
