{
"type": "FeatureCollection",
"name": "lin_vias",
"crs": { "type": "name", "properties": { "name": "urn:ogc:def:crs:OGC:1.3:CRS84" } },
"xy_coordinate_resolution": 1e-07,
"features": [
{"type":"Feature","properties":{"via":"PRINCIPAL","longitud":10.15},"geometry":{"type":"MultiLineString","coordinates":[[[-79.959874,-2.150218],[-79.959772,-2.15016],[-79.959582,-2.150041],[-79.959477,-2.149937],[-79.959419,-2.149869],[-79.959297,-2.1497],[-79.959237,-2.149593]],[[-79.958981,-2.150427],[-79.959021,-2.150345],[-79.959121,-2.150147],[-79.959155,-2.150032],[-79.959182,-2.149911],[-79.959196,-2.149755],[-79.959196,-2.149602]],[[-79.959874,-2.150218],[-79.95994,-2.150262]],[[-79.959185,-2.149477],[-79.959152,-2.149357],[-79.959139,-2.149311]],[[-79.959185,-2.149477],[-79.959237,-2.149593]],[[-79.959185,-2.149477],[-79.959196,-2.149602]],[[-79.964797,-2.144922],[-79.964892,-2.144793]],[[-79.964797,-2.144922],[-79.964664,-2.145136],[-79.96459,-2.145221],[-79.964409,-2.145347],[-79.96428,-2.145398],[-79.96418,-2.145426],[-79.964017,-2.145445],[-79.963838,-2.145429],[-79.963579,-2.145326],[-79.963285,-2.145096],[-79.963041,-2.144896],[-79.962695,-2.144613],[-79.962531,-2.144479],[-79.96164,-2.143772],[-79.96154,-2.143725],[-79.961472,-2.14371],[-79.961369,-2.143716],[-79.961272,-2.143749],[-79.961214,-2.143784],[-79.961141,-2.143863],[-79.96103,-2.144005],[-79.960446,-2.14477],[-79.960396,-2.144856],[-79.960344,-2.144979],[-79.960313,-2.145104],[-79.960305,-2.145205],[-79.960334,-2.145805],[-79.96032,-2.145926],[-79.960288,-2.14604],[-79.960232,-2.146171],[-79.960178,-2.14626],[-79.960112,-2.146336],[-79.96006,-2.146383],[-79.959109,-2.147142],[-79.958999,-2.147249],[-79.95895,-2.147306],[-79.958889,-2.1474],[-79.958824,-2.147534],[-79.958784,-2.147678],[-79.958769,-2.147801],[-79.958764,-2.147884],[-79.958797,-2.148093],[-79.959139,-2.149311]],[[-79.958981,-2.150427],[-79.958952,-2.150486]],[[-79.947038,-2.142341],[-79.947068,-2.142499]],[[-79.947068,-2.142499],[-79.947103,-2.142679],[-79.947093,-2.142803],[-79.946978,-2.143174],[-79.946885,-2.143441],[-79.946803,-2.143704],[-79.946711,-2.143969],[-79.946654,-2.144158],[-79.946631,-2.144319],[-79.946631,-2.144483],[-79.946646,-2.14459],[-79.946685,-2.144731],[-79.946769,-2.144918],[-79.946836,-2.145014],[-79.946915,-2.145108],[-79.94714,-2.145305],[-79.947708,-2.145783],[-79.947961,-2.145995],[-79.948375,-2.14623],[-79.949036,-2.146584],[-79.949238,-2.146702],[-79.94933,-2.146775],[-79.949407,-2.146857],[-79.949506,-2.146979],[-79.949698,-2.147229],[-79.949804,-2.147372],[-79.94987,-2.14749],[-79.949918,-2.147618],[-79.949975,-2.147872],[-79.950027,-2.148142],[-79.95013,-2.148682],[-79.950152,-2.148828],[-79.950152,-2.148949],[-79.950126,-2.149117],[-79.950105,-2.14919],[-79.950061,-2.149303],[-79.949943,-2.149514],[-79.949879,-2.149663],[-79.949855,-2.149742],[-79.949835,-2.149825],[-79.949823,-2.149924],[-79.949818,-2.150003],[-79.949824,-2.150127],[-79.94984,-2.150248],[-79.949868,-2.150365],[-79.949929,-2.150519],[-79.950008,-2.150657],[-79.95011,-2.150786],[-79.950198,-2.150872],[-79.950258,-2.150924],[-79.950361,-2.150992],[-79.950428,-2.151031],[-79.950715,-2.151168],[-79.951396,-2.151493],[-79.952179,-2.151872],[-79.952409,-2.151987],[-79.953086,-2.152258],[-79.953552,-2.152445],[-79.954485,-2.152822],[-79.954885,-2.152984],[-79.955084,-2.15306],[-79.955226,-2.15312],[-79.955377,-2.153189],[-79.95552,-2.153223],[-79.955586,-2.153234],[-79.955689,-2.153244],[-79.955754,-2.153239],[-79.955823,-2.15323],[-79.955907,-2.153214],[-79.956,-2.153184],[-79.956114,-2.153127],[-79.956193,-2.153074],[-79.956282,-2.152998],[-79.95653,-2.152765],[-79.956861,-2.15245],[-79.957282,-2.152049],[-79.957567,-2.151778],[-79.95815,-2.151223],[-79.958877,-2.150535],[-79.959053,-2.150419],[-79.959253,-2.150326],[-79.959415,-2.150281],[-79.959552,-2.150251],[-79.959762,-2.150242],[-79.95987,-2.150251],[-79.96001,-2.150273],[-79.960242,-2.150336],[-79.961512,-2.15071],[-79.96165,-2.150733],[-79.961786,-2.150731],[-79.961885,-2.150715],[-79.962021,-2.150673],[-79.962132,-2.150621],[-79.962239,-2.150543],[-79.962397,-2.150402],[-79.96282,-2.150016],[-79.963214,-2.149656],[-79.96338,-2.14952],[-79.963436,-2.149475],[-79.963557,-2.149394],[-79.964463,-2.148758],[-79.96508,-2.148326],[-79.965217,-2.148239],[-79.965399,-2.148138],[-79.965553,-2.148066],[-79.965793,-2.147981],[-79.966006,-2.14793],[-79.966114,-2.147908],[-79.966293,-2.147884],[-79.966512,-2.147876],[-79.966696,-2.147883],[-79.96691,-2.147908],[-79.96712,-2.147945],[-79.967305,-2.147965],[-79.967376,-2.147968],[-79.967478,-2.147968],[-79.967583,-2.14796],[-79.967695,-2.147932],[-79.96778,-2.147901],[-79.967902,-2.147833],[-79.967957,-2.147789],[-79.968031,-2.147721],[-79.968096,-2.147639],[-79.968169,-2.14752],[-79.968259,-2.147326],[-79.968319,-2.147167],[-79.968364,-2.147029],[-79.968398,-2.146889],[-79.968425,-2.146712],[-79.968437,-2.146545],[-79.968437,-2.146365],[-79.968419,-2.14619],[-79.968384,-2.145975],[-79.968315,-2.145663],[-79.968278,-2.145494],[-79.968233,-2.145286],[-79.968198,-2.145089],[-79.96814,-2.144803],[-79.968095,-2.144583],[-79.968035,-2.144372],[-79.967964,-2.144202],[-79.967874,-2.144041],[-79.967746,-2.143866],[-79.967577,-2.143697],[-79.96755,-2.143672],[-79.967522,-2.143652],[-79.967495,-2.143631],[-79.967466,-2.14361],[-79.967417,-2.143574],[-79.967318,-2.143513],[-79.967288,-2.143496],[-79.967258,-2.143479],[-79.967159,-2.143433],[-79.967129,-2.14342],[-79.967097,-2.143407],[-79.967064,-2.143394],[-79.966998,-2.143372],[-79.966963,-2.143363],[-79.966931,-2.143355],[-79.96683,-2.14333],[-79.966729,-2.143314],[-79.96666,-2.143306],[-79.966593,-2.143301],[-79.966559,-2.143301],[-79.966522,-2.143302],[-79.966473,-2.143307],[-79.966411,-2.143314],[-79.96634,-2.143331],[-79.966269,-2.143354],[-79.966207,-2.143379],[-79.966147,-2.143412],[-79.966053,-2.143477],[-79.965971,-2.143556],[-79.965631,-2.143948],[-79.965193,-2.14447],[-79.96501,-2.144684],[-79.964892,-2.144793],[-79.96496,-2.14464]],[[-79.946992,-2.142151],[-79.947038,-2.142341]],[[-79.946895,-2.142175],[-79.946929,-2.142348],[-79.946962,-2.142502],[-79.946997,-2.14267],[-79.946987,-2.142793],[-79.946872,-2.143165],[-79.946779,-2.143432],[-79.946697,-2.143694],[-79.946605,-2.14396],[-79.946548,-2.144149],[-79.946525,-2.144333],[-79.946531,-2.144497],[-79.946551,-2.144637],[-79.94659,-2.144778],[-79.946674,-2.144964],[-79.946757,-2.145084],[-79.946836,-2.145178],[-79.947086,-2.145399],[-79.947655,-2.145877],[-79.947907,-2.146089],[-79.948322,-2.146324],[-79.948983,-2.146678],[-79.949134,-2.146761],[-79.949235,-2.146827],[-79.949312,-2.146909],[-79.949412,-2.147031],[-79.949572,-2.147239],[-79.949635,-2.147322],[-79.94971,-2.147423],[-79.949762,-2.14751],[-79.949812,-2.147633],[-79.949874,-2.147885],[-79.949926,-2.148155],[-79.950026,-2.148678],[-79.950049,-2.148825],[-79.950049,-2.148946],[-79.950023,-2.14909],[-79.950001,-2.149163],[-79.949957,-2.149275],[-79.949839,-2.149486],[-79.94978,-2.149636],[-79.949745,-2.149766],[-79.949726,-2.14985],[-79.949716,-2.149952],[-79.949713,-2.150027],[-79.949721,-2.150152],[-79.949737,-2.150272],[-79.949771,-2.15041],[-79.949838,-2.150565],[-79.949888,-2.15066],[-79.949965,-2.150772],[-79.950086,-2.150915],[-79.950182,-2.150997],[-79.950247,-2.151039],[-79.95035,-2.151107],[-79.950417,-2.151147],[-79.950704,-2.151283],[-79.951384,-2.151608],[-79.952168,-2.151987],[-79.952398,-2.152102],[-79.953075,-2.152374],[-79.953541,-2.152561],[-79.954473,-2.152938],[-79.954876,-2.153097],[-79.955073,-2.153176],[-79.955224,-2.153236],[-79.955375,-2.153295],[-79.955518,-2.15333],[-79.955584,-2.15334],[-79.955687,-2.15335],[-79.955762,-2.153346],[-79.955836,-2.15334],[-79.955906,-2.153326],[-79.95598,-2.153306],[-79.956073,-2.153272],[-79.956187,-2.153204],[-79.956266,-2.153152],[-79.956355,-2.153075],[-79.956603,-2.152842],[-79.956934,-2.152528],[-79.957355,-2.152126],[-79.95764,-2.151855],[-79.958173,-2.151338],[-79.958889,-2.150672],[-79.959058,-2.150542],[-79.959248,-2.150435],[-79.959411,-2.15039],[-79.959554,-2.15036],[-79.959729,-2.150351],[-79.959837,-2.15036],[-79.959978,-2.150382],[-79.960209,-2.150445],[-79.961479,-2.150819],[-79.961617,-2.150842],[-79.961754,-2.15084],[-79.961859,-2.150833],[-79.962055,-2.150779],[-79.962166,-2.150728],[-79.962273,-2.15065],[-79.962431,-2.150509],[-79.962864,-2.150123],[-79.963258,-2.149772],[-79.963419,-2.149632],[-79.963477,-2.149588],[-79.96362,-2.149485],[-79.964526,-2.148849],[-79.965143,-2.148417],[-79.96528,-2.14833],[-79.965462,-2.148229],[-79.965616,-2.148158],[-79.965856,-2.14808],[-79.966069,-2.148028],[-79.966177,-2.148007],[-79.966308,-2.147995],[-79.966527,-2.147987],[-79.966711,-2.147994],[-79.966924,-2.148018],[-79.967134,-2.148056],[-79.96732,-2.148075],[-79.967391,-2.148079],[-79.967493,-2.148079],[-79.967597,-2.14807],[-79.96771,-2.148043],[-79.967795,-2.148011],[-79.967917,-2.147954],[-79.967986,-2.147907],[-79.968062,-2.147844],[-79.968177,-2.147708],[-79.968234,-2.147631],[-79.968265,-2.147571],[-79.968355,-2.147377],[-79.968415,-2.147218],[-79.96846,-2.147081],[-79.968494,-2.146941],[-79.968521,-2.146764],[-79.968533,-2.146596],[-79.968544,-2.146361],[-79.968527,-2.146186],[-79.96849,-2.145972],[-79.968423,-2.145656],[-79.968393,-2.14549],[-79.968347,-2.145283],[-79.968327,-2.145178],[-79.968294,-2.145011],[-79.968248,-2.144786],[-79.968203,-2.144566],[-79.968143,-2.144356],[-79.968072,-2.144186],[-79.967982,-2.144024],[-79.967864,-2.143833],[-79.967644,-2.143612],[-79.967562,-2.143546],[-79.967484,-2.143489],[-79.967384,-2.143427],[-79.967355,-2.143411],[-79.967324,-2.143394],[-79.967226,-2.143348],[-79.967197,-2.143335],[-79.967165,-2.143322],[-79.967066,-2.143287],[-79.967032,-2.143278],[-79.966999,-2.14327],[-79.966898,-2.143245],[-79.966734,-2.143202],[-79.966558,-2.143189],[-79.966429,-2.1432],[-79.966263,-2.143238],[-79.966155,-2.14328],[-79.965998,-2.14338],[-79.965969,-2.143402],[-79.96589,-2.143482],[-79.965544,-2.143878],[-79.965157,-2.144342],[-79.965115,-2.144404],[-79.96496,-2.14464]]]}},
{"type":"Feature","properties":{"via":"SECUNDARIA","longitud":2.48},"geometry":{"type":"MultiLineString","coordinates":[[[-79.964049,-2.149008],[-79.963923,-2.148824],[-79.963908,-2.148802],[-79.963881,-2.148757]],[[-79.963864,-2.148734],[-79.963759,-2.148574],[-79.9637,-2.148483],[-79.963639,-2.148395],[-79.96362,-2.148375],[-79.96357,-2.148344],[-79.963515,-2.148295],[-79.963486,-2.148271],[-79.963459,-2.148249],[-79.963429,-2.148226],[-79.963401,-2.148209],[-79.963377,-2.148194],[-79.963351,-2.148179],[-79.963322,-2.148164],[-79.963296,-2.148152],[-79.963268,-2.148138],[-79.96324,-2.148124],[-79.96321,-2.148108],[-79.963183,-2.148092],[-79.963154,-2.148074],[-79.963126,-2.148057],[-79.963099,-2.148038],[-79.963073,-2.148018],[-79.963048,-2.147996],[-79.963025,-2.147972],[-79.963003,-2.147945],[-79.962982,-2.147918],[-79.962922,-2.147828],[-79.962882,-2.147768],[-79.962701,-2.147498],[-79.962546,-2.147273],[-79.962308,-2.146918],[-79.962293,-2.146893],[-79.962283,-2.146867],[-79.962275,-2.14684],[-79.962267,-2.146809],[-79.962269,-2.146768],[-79.962277,-2.146719],[-79.962292,-2.146675],[-79.962299,-2.146651],[-79.962306,-2.146626],[-79.962312,-2.1466],[-79.962315,-2.146577],[-79.962317,-2.146553],[-79.962315,-2.146509]],[[-79.963639,-2.148395],[-79.963545,-2.148251],[-79.963511,-2.148204],[-79.963494,-2.148182],[-79.963475,-2.148158],[-79.963459,-2.148134],[-79.96344,-2.148111],[-79.963425,-2.148087],[-79.963411,-2.148059],[-79.963402,-2.148033],[-79.963392,-2.148003],[-79.963385,-2.147951],[-79.963385,-2.147879],[-79.96339,-2.147785],[-79.963407,-2.147708],[-79.963426,-2.14763],[-79.963451,-2.147549],[-79.963487,-2.147471],[-79.963501,-2.147447],[-79.963518,-2.147424],[-79.963536,-2.147399],[-79.963557,-2.147379],[-79.963592,-2.147346],[-79.963647,-2.147303],[-79.963705,-2.147276],[-79.963776,-2.147261],[-79.963876,-2.147249],[-79.963918,-2.14724],[-79.964161,-2.14719],[-79.964234,-2.147175],[-79.964332,-2.147154],[-79.964418,-2.147133],[-79.964496,-2.147104],[-79.964576,-2.147064],[-79.964694,-2.147],[-79.964813,-2.146935],[-79.964893,-2.146884],[-79.964931,-2.146848],[-79.964945,-2.146829],[-79.964966,-2.146786],[-79.964977,-2.146761],[-79.964993,-2.146721]],[[-79.963639,-2.148395],[-79.96358,-2.14822],[-79.963557,-2.148113],[-79.96355,-2.148047],[-79.963547,-2.147964],[-79.963556,-2.14789],[-79.963577,-2.147811],[-79.963598,-2.147752]],[[-79.968714,-2.145492],[-79.968583,-2.145576]],[[-79.968448,-2.14563],[-79.968583,-2.145576]],[[-79.968714,-2.145492],[-79.968867,-2.145393],[-79.969015,-2.145299],[-79.969211,-2.145174],[-79.969371,-2.145074],[-79.969458,-2.14502],[-79.969503,-2.145001],[-79.969577,-2.144972],[-79.969734,-2.144911],[-79.969784,-2.144891],[-79.96982,-2.144873],[-79.969862,-2.144848],[-79.969888,-2.14483],[-79.969935,-2.144788],[-79.969974,-2.144748],[-79.970006,-2.144706],[-79.970107,-2.144566],[-79.970237,-2.144375],[-79.970358,-2.144199],[-79.970444,-2.144079],[-79.970493,-2.144016],[-79.970557,-2.143937],[-79.970589,-2.143901],[-79.970649,-2.143838],[-79.970711,-2.143783],[-79.970772,-2.143733],[-79.970834,-2.143687],[-79.971068,-2.143529],[-79.971285,-2.143382],[-79.971327,-2.143355],[-79.971387,-2.143321],[-79.971432,-2.143302],[-79.971484,-2.143283],[-79.971557,-2.143258],[-79.971627,-2.143239],[-79.971699,-2.143221],[-79.971753,-2.143209],[-79.971828,-2.143192],[-79.971924,-2.143174],[-79.972007,-2.143159],[-79.972084,-2.143147],[-79.972161,-2.143138],[-79.97229,-2.143127],[-79.972485,-2.143113],[-79.973371,-2.143046],[-79.973518,-2.143036],[-79.973568,-2.143033],[-79.973617,-2.143033],[-79.973679,-2.143037],[-79.973749,-2.143047],[-79.973952,-2.143085]],[[-79.956291,-2.153169],[-79.956341,-2.153279],[-79.956408,-2.153405],[-79.956495,-2.153549],[-79.956601,-2.153672],[-79.956809,-2.153792],[-79.95706,-2.153904],[-79.957375,-2.15403],[-79.95782,-2.15421],[-79.958237,-2.154372],[-79.958514,-2.154486],[-79.958694,-2.154549],[-79.958881,-2.154614]],[[-79.960024,-2.150425],[-79.960018,-2.150469],[-79.96001,-2.150508],[-79.959998,-2.150588],[-79.959985,-2.150679],[-79.959974,-2.150755],[-79.959963,-2.150843],[-79.959956,-2.150925],[-79.959954,-2.150992],[-79.959967,-2.151057],[-79.959999,-2.151157],[-79.960016,-2.151209],[-79.960035,-2.15127],[-79.960047,-2.151332],[-79.960049,-2.151407],[-79.960039,-2.151464],[-79.960008,-2.151531],[-79.959973,-2.151586],[-79.959936,-2.151643],[-79.959894,-2.151706],[-79.959846,-2.151774],[-79.959806,-2.151841],[-79.959789,-2.151903],[-79.95978,-2.151956],[-79.959782,-2.152002],[-79.95979,-2.152056],[-79.9598,-2.1521],[-79.959816,-2.152152],[-79.959835,-2.152202],[-79.959856,-2.15224],[-79.959886,-2.152279],[-79.959941,-2.152317],[-79.959996,-2.152344],[-79.960054,-2.152367],[-79.96012,-2.152379],[-79.960186,-2.152382],[-79.960249,-2.152378],[-79.960322,-2.15236]],[[-79.950181,-2.14889],[-79.950194,-2.148917],[-79.950221,-2.148954],[-79.950255,-2.149002],[-79.95029,-2.149049],[-79.950334,-2.149109],[-79.950382,-2.149174],[-79.950435,-2.149245],[-79.950402,-2.149264],[-79.950386,-2.149277],[-79.950352,-2.149304],[-79.950334,-2.149315],[-79.950264,-2.149349],[-79.950193,-2.149386],[-79.950126,-2.149438],[-79.950082,-2.149479],[-79.950012,-2.149548],[-79.949981,-2.149579],[-79.949926,-2.149631]],[[-79.952275,-2.147949],[-79.952168,-2.147951]],[[-79.952168,-2.147951],[-79.952071,-2.148002],[-79.952006,-2.14807],[-79.951922,-2.148192],[-79.951881,-2.148245],[-79.951816,-2.14827],[-79.951659,-2.148272],[-79.95147,-2.148275],[-79.951324,-2.148277],[-79.951214,-2.148287],[-79.951149,-2.148338],[-79.951102,-2.148441],[-79.951047,-2.148576],[-79.950991,-2.148716],[-79.950911,-2.14886],[-79.950859,-2.14894],[-79.950787,-2.149028],[-79.950685,-2.149116],[-79.950524,-2.149193],[-79.950435,-2.149245]],[[-79.952578,-2.147928],[-79.952474,-2.147943],[-79.952275,-2.147949]]]}},
{"type":"Feature","properties":{"via":"SECUNDARIA","longitud":0.24},"geometry":{"type":"MultiLineString","coordinates":[[[-79.9588806,-2.1546138],[-79.9589666,-2.1546186],[-79.9590801,-2.1546138],[-79.9592412,-2.1545731],[-79.9595822,-2.1543873],[-79.9597416,-2.1542691],[-79.9598362,-2.1541752],[-79.959895,-2.1541078],[-79.9600481,-2.1539219],[-79.960076,-2.153885],[-79.9600864,-2.1538532],[-79.9600932,-2.1537866],[-79.9600733,-2.1537268],[-79.9600376,-2.1536639],[-79.9599562,-2.1535227],[-79.9599109,-2.1534482],[-79.9598406,-2.1534028],[-79.9597506,-2.1533646]]]}}
]
}
