{
"type": "FeatureCollection",
"name": "puntos_control",
"crs": { "type": "name", "properties": { "name": "urn:ogc:def:crs:EPSG::32717" } },
"xy_coordinate_resolution": 1e-07,
"features": [
{"type":"Feature","properties":{"Layer":"PLACA 8","X_COORD":614806.614,"Y_COORD":9763234.861,"Z_COORD":77.501},"geometry":{"type":"MultiPolygon","coordinates":[[[[614819.114,9763234.861,77.501],[614819.0664337,9763233.7715532,77.501],[614818.9240969,9763232.6903978,77.501],[614818.6880728,9763231.6257619,77.501],[614818.3601578,9763230.5857482,77.501],[614817.9428473,9763229.5782717,77.501],[614817.4393175,9763228.611,77.501],[614816.8534006,9763227.6912945,77.501],[614816.1895555,9763226.8261549,77.501],[614815.4528348,9763226.0221652,77.501],[614814.6488451,9763225.2854445,77.501],[614813.7837055,9763224.6215994,77.501],[614812.864,9763224.0356825,77.501],[614811.8967283,9763223.5321527,77.501],[614810.8892518,9763223.1148422,77.501],[614809.8492381,9763222.7869272,77.501],[614808.7846022,9763222.5509031,77.501],[614807.7034468,9763222.4085663,77.501],[614806.614,9763222.361,77.501],[614805.5245532,9763222.4085663,77.501],[614804.4433978,9763222.5509031,77.501],[614803.3787619,9763222.7869272,77.501],[614802.3387482,9763223.1148422,77.501],[614801.3312717,9763223.5321527,77.501],[614800.364,9763224.0356825,77.501],[614799.4442945,9763224.6215994,77.501],[614798.5791549,9763225.2854445,77.501],[614797.7751652,9763226.0221652,77.501],[614797.0384445,9763226.8261549,77.501],[614796.3745994,9763227.6912945,77.501],[614795.7886825,9763228.611,77.501],[614795.2851527,9763229.5782717,77.501],[614794.8678422,9763230.5857482,77.501],[614794.5399272,9763231.6257619,77.501],[614794.3039031,9763232.6903978,77.501],[614794.1615663,9763233.7715532,77.501],[614794.114,9763234.861,77.501],[614794.1615663,9763235.9504468,77.501],[614794.3039031,9763237.0316022,77.501],[614794.5399272,9763238.0962381,77.501],[614794.8678422,9763239.1362518,77.501],[614795.2851527,9763240.1437283,77.501],[614795.7886825,9763241.111,77.501],[614796.3745994,9763242.0307055,77.501],[614797.0384445,9763242.8958451,77.501],[614797.7751652,9763243.6998348,77.501],[614798.5791549,9763244.4365555,77.501],[614799.4442945,9763245.1004006,77.501],[614800.364,9763245.6863175,77.501],[614801.3312717,9763246.1898473,77.501],[614802.3387482,9763246.6071578,77.501],[614803.3787619,9763246.9350728,77.501],[614804.4433978,9763247.1710969,77.501],[614805.5245532,9763247.3134337,77.501],[614806.614,9763247.361,77.501],[614807.7034468,9763247.3134337,77.501],[614808.7846022,9763247.1710969,77.501],[614809.8492381,9763246.9350728,77.501],[614810.8892518,9763246.6071578,77.501],[614811.8967283,9763246.1898473,77.501],[614812.864,9763245.6863175,77.501],[614813.7837055,9763245.1004006,77.501],[614814.6488451,9763244.4365555,77.501],[614815.4528348,9763243.6998348,77.501],[614816.1895555,9763242.8958451,77.501],[614816.8534006,9763242.0307055,77.501],[614817.4393175,9763241.111,77.501],[614817.9428473,9763240.1437283,77.501],[614818.3601578,9763239.1362518,77.501],[614818.6880728,9763238.0962381,77.501],[614818.9240969,9763237.0316022,77.501],[614819.0664337,9763235.9504468,77.501],[614819.114,9763234.861,77.501]]]]}},
{"type":"Feature","properties":{"Layer":"PLACA 9","X_COORD":615362.501,"Y_COORD":9763409.886,"Z_COORD":63.24},"geometry":{"type":"MultiPolygon","coordinates":[[[[615375.001,9763409.886,63.24],[615374.9534337,9763408.7965532,63.24],[615374.8110969,9763407.7153978,63.24],[615374.5750728,9763406.6507619,63.24],[615374.2471578,9763405.6107482,63.24],[615373.8298473,9763404.6032717,63.24],[615373.3263175,9763403.636,63.24],[615372.7404006,9763402.7162945,63.24],[615372.0765555,9763401.8511549,63.24],[615371.3398348,9763401.0471652,63.24],[615370.5358451,9763400.3104445,63.24],[615369.6707055,9763399.6465994,63.24],[615368.751,9763399.0606825,63.24],[615367.7837283,9763398.5571527,63.24],[615366.7762518,9763398.1398422,63.24],[615365.7362381,9763397.8119272,63.24],[615364.6716022,9763397.5759031,63.24],[615363.5904468,9763397.4335663,63.24],[615362.501,9763397.386,63.24],[615361.4115532,9763397.4335663,63.24],[615360.3303978,9763397.5759031,63.24],[615359.2657619,9763397.8119272,63.24],[615358.2257482,9763398.1398422,63.24],[615357.2182717,9763398.5571527,63.24],[615356.251,9763399.0606825,63.24],[615355.3312945,9763399.6465994,63.24],[615354.4661549,9763400.3104445,63.24],[615353.6621652,9763401.0471652,63.24],[615352.9254445,9763401.8511549,63.24],[615352.2615994,9763402.7162945,63.24],[615351.6756825,9763403.636,63.24],[615351.1721527,9763404.6032717,63.24],[615350.7548422,9763405.6107482,63.24],[615350.4269272,9763406.6507619,63.24],[615350.1909031,9763407.7153978,63.24],[615350.0485663,9763408.7965532,63.24],[615350.001,9763409.886,63.24],[615350.0485663,9763410.9754468,63.24],[615350.1909031,9763412.0566022,63.24],[615350.4269272,9763413.1212381,63.24],[615350.7548422,9763414.1612518,63.24],[615351.1721527,9763415.1687283,63.24],[615351.6756825,9763416.136,63.24],[615352.2615994,9763417.0557055,63.24],[615352.9254445,9763417.9208451,63.24],[615353.6621652,9763418.7248348,63.24],[615354.4661549,9763419.4615555,63.24],[615355.3312945,9763420.1254006,63.24],[615356.251,9763420.7113175,63.24],[615357.2182717,9763421.2148473,63.24],[615358.2257482,9763421.6321578,63.24],[615359.2657619,9763421.9600728,63.24],[615360.3303978,9763422.1960969,63.24],[615361.4115532,9763422.3384337,63.24],[615362.501,9763422.386,63.24],[615363.5904468,9763422.3384337,63.24],[615364.6716022,9763422.1960969,63.24],[615365.7362381,9763421.9600728,63.24],[615366.7762518,9763421.6321578,63.24],[615367.7837283,9763421.2148473,63.24],[615368.751,9763420.7113175,63.24],[615369.6707055,9763420.1254006,63.24],[615370.5358451,9763419.4615555,63.24],[615371.3398348,9763418.7248348,63.24],[615372.0765555,9763417.9208451,63.24],[615372.7404006,9763417.0557055,63.24],[615373.3263175,9763416.136,63.24],[615373.8298473,9763415.1687283,63.24],[615374.2471578,9763414.1612518,63.24],[615374.5750728,9763413.1212381,63.24],[615374.8110969,9763412.0566022,63.24],[615374.9534337,9763410.9754468,63.24],[615375.001,9763409.886,63.24]]]]}},
{"type":"Feature","properties":{"Layer":"PLACA 1","X_COORD":616426.488,"Y_COORD":9763402.469000001,"Z_COORD":50.867},"geometry":{"type":"MultiPolygon","coordinates":[[[[616438.988,9763402.469,50.867],[616438.9404337,9763401.3795532,50.867],[616438.7980969,9763400.2983978,50.867],[616438.5620728,9763399.2337619,50.867],[616438.2341578,9763398.1937482,50.867],[616437.8168473,9763397.1862717,50.867],[616437.3133175,9763396.219,50.867],[616436.7274006,9763395.2992945,50.867],[616436.0635555,9763394.4341549,50.867],[616435.3268348,9763393.6301652,50.867],[616434.5228451,9763392.8934445,50.867],[616433.6577055,9763392.2295994,50.867],[616432.738,9763391.6436825,50.867],[616431.7707283,9763391.1401527,50.867],[616430.7632518,9763390.7228422,50.867],[616429.7232381,9763390.3949272,50.867],[616428.6586022,9763390.1589031,50.867],[616427.5774468,9763390.0165663,50.867],[616426.488,9763389.969,50.867],[616425.3985532,9763390.0165663,50.867],[616424.3173978,9763390.1589031,50.867],[616423.2527619,9763390.3949272,50.867],[616422.2127482,9763390.7228422,50.867],[616421.2052717,9763391.1401527,50.867],[616420.238,9763391.6436825,50.867],[616419.3182945,9763392.2295994,50.867],[616418.4531549,9763392.8934445,50.867],[616417.6491652,9763393.6301652,50.867],[616416.9124445,9763394.4341549,50.867],[616416.2485994,9763395.2992945,50.867],[616415.6626825,9763396.219,50.867],[616415.1591527,9763397.1862717,50.867],[616414.7418422,9763398.1937482,50.867],[616414.4139272,9763399.2337619,50.867],[616414.1779031,9763400.2983978,50.867],[616414.0355663,9763401.3795532,50.867],[616413.988,9763402.469,50.867],[616414.0355663,9763403.5584468,50.867],[616414.1779031,9763404.6396022,50.867],[616414.4139272,9763405.7042381,50.867],[616414.7418422,9763406.7442518,50.867],[616415.1591527,9763407.7517283,50.867],[616415.6626825,9763408.719,50.867],[616416.2485994,9763409.6387055,50.867],[616416.9124445,9763410.5038451,50.867],[616417.6491652,9763411.3078348,50.867],[616418.4531549,9763412.0445555,50.867],[616419.3182945,9763412.7084006,50.867],[616420.238,9763413.2943175,50.867],[616421.2052717,9763413.7978473,50.867],[616422.2127482,9763414.2151578,50.867],[616423.2527619,9763414.5430728,50.867],[616424.3173978,9763414.7790969,50.867],[616425.3985532,9763414.9214337,50.867],[616426.488,9763414.969,50.867],[616427.5774468,9763414.9214337,50.867],[616428.6586022,9763414.7790969,50.867],[616429.7232381,9763414.5430728,50.867],[616430.7632518,9763414.2151578,50.867],[616431.7707283,9763413.7978473,50.867],[616432.738,9763413.2943175,50.867],[616433.6577055,9763412.7084006,50.867],[616434.5228451,9763412.0445555,50.867],[616435.3268348,9763411.3078348,50.867],[616436.0635555,9763410.5038451,50.867],[616436.7274006,9763409.6387055,50.867],[616437.3133175,9763408.719,50.867],[616437.8168473,9763407.7517283,50.867],[616438.2341578,9763406.7442518,50.867],[616438.5620728,9763405.7042381,50.867],[616438.7980969,9763404.6396022,50.867],[616438.9404337,9763403.5584468,50.867],[616438.988,9763402.469,50.867]]]]}},
{"type":"Feature","properties":{"Layer":"PLACA 2 (CADS)","X_COORD":617086.293,"Y_COORD":9763153.31,"Z_COORD":51.367},"geometry":{"type":"MultiPolygon","coordinates":[[[[617098.793,9763153.31,51.637],[617098.7454337,9763152.2205532,51.637],[617098.6030969,9763151.1393978,51.637],[617098.3670728,9763150.0747619,51.637],[617098.0391578,9763149.0347482,51.637],[617097.6218473,9763148.0272717,51.637],[617097.1183175,9763147.06,51.637],[617096.5324006,9763146.1402945,51.637],[617095.8685555,9763145.2751549,51.637],[617095.1318348,9763144.4711652,51.637],[617094.3278451,9763143.7344445,51.637],[617093.4627055,9763143.0705994,51.637],[617092.543,9763142.4846825,51.637],[617091.5757283,9763141.9811527,51.637],[617090.5682518,9763141.5638422,51.637],[617089.5282381,9763141.2359272,51.637],[617088.4636022,9763140.9999031,51.637],[617087.3824468,9763140.8575663,51.637],[617086.293,9763140.81,51.637],[617085.2035532,9763140.8575663,51.637],[617084.1223978,9763140.9999031,51.637],[617083.0577619,9763141.2359272,51.637],[617082.0177482,9763141.5638422,51.637],[617081.0102717,9763141.9811527,51.637],[617080.043,9763142.4846825,51.637],[617079.1232945,9763143.0705994,51.637],[617078.2581549,9763143.7344445,51.637],[617077.4541652,9763144.4711652,51.637],[617076.7174445,9763145.2751549,51.637],[617076.0535994,9763146.1402945,51.637],[617075.4676825,9763147.06,51.637],[617074.9641527,9763148.0272717,51.637],[617074.5468422,9763149.0347482,51.637],[617074.2189272,9763150.0747619,51.637],[617073.9829031,9763151.1393978,51.637],[617073.8405663,9763152.2205532,51.637],[617073.793,9763153.31,51.637],[617073.8405663,9763154.3994468,51.637],[617073.9829031,9763155.4806022,51.637],[617074.2189272,9763156.5452381,51.637],[617074.5468422,9763157.5852518,51.637],[617074.9641527,9763158.5927283,51.637],[617075.4676825,9763159.56,51.637],[617076.0535994,9763160.4797055,51.637],[617076.7174445,9763161.3448451,51.637],[617077.4541652,9763162.1488348,51.637],[617078.2581549,9763162.8855555,51.637],[617079.1232945,9763163.5494006,51.637],[617080.043,9763164.1353175,51.637],[617081.0102717,9763164.6388473,51.637],[617082.0177482,9763165.0561578,51.637],[617083.0577619,9763165.3840728,51.637],[617084.1223978,9763165.6200969,51.637],[617085.2035532,9763165.7624337,51.637],[617086.293,9763165.81,51.637],[617087.3824468,9763165.7624337,51.637],[617088.4636022,9763165.6200969,51.637],[617089.5282381,9763165.3840728,51.637],[617090.5682518,9763165.0561578,51.637],[617091.5757283,9763164.6388473,51.637],[617092.543,9763164.1353175,51.637],[617093.4627055,9763163.5494006,51.637],[617094.3278451,9763162.8855555,51.637],[617095.1318348,9763162.1488348,51.637],[617095.8685555,9763161.3448451,51.637],[617096.5324006,9763160.4797055,51.637],[617097.1183175,9763159.56,51.637],[617097.6218473,9763158.5927283,51.637],[617098.0391578,9763157.5852518,51.637],[617098.3670728,9763156.5452381,51.637],[617098.6030969,9763155.4806022,51.637],[617098.7454337,9763154.3994468,51.637],[617098.793,9763153.31,51.637]]]]}},
{"type":"Feature","properties":{"Layer":"PLACA 3","X_COORD":616773.608,"Y_COORD":9762616.72,"Z_COORD":76.88},"geometry":{"type":"MultiPolygon","coordinates":[[[[616786.108,9762616.72,76.88],[616786.0604337,9762615.6305532,76.88],[616785.9180969,9762614.5493978,76.88],[616785.6820728,9762613.4847619,76.88],[616785.3541578,9762612.4447482,76.88],[616784.9368473,9762611.4372717,76.88],[616784.4333175,9762610.47,76.88],[616783.8474006,9762609.5502945,76.88],[616783.1835555,9762608.6851549,76.88],[616782.4468348,9762607.8811652,76.88],[616781.6428451,9762607.1444445,76.88],[616780.7777055,9762606.4805994,76.88],[616779.858,9762605.8946825,76.88],[616778.8907283,9762605.3911527,76.88],[616777.8832518,9762604.9738422,76.88],[616776.8432381,9762604.6459272,76.88],[616775.7786022,9762604.4099031,76.88],[616774.6974468,9762604.2675663,76.88],[616773.608,9762604.22,76.88],[616772.5185532,9762604.2675663,76.88],[616771.4373978,9762604.4099031,76.88],[616770.3727619,9762604.6459272,76.88],[616769.3327482,9762604.9738422,76.88],[616768.3252717,9762605.3911527,76.88],[616767.358,9762605.8946825,76.88],[616766.4382945,9762606.4805994,76.88],[616765.5731549,9762607.1444445,76.88],[616764.7691652,9762607.8811652,76.88],[616764.0324445,9762608.6851549,76.88],[616763.3685994,9762609.5502945,76.88],[616762.7826825,9762610.47,76.88],[616762.2791527,9762611.4372717,76.88],[616761.8618422,9762612.4447482,76.88],[616761.5339272,9762613.4847619,76.88],[616761.2979031,9762614.5493978,76.88],[616761.1555663,9762615.6305532,76.88],[616761.108,9762616.72,76.88],[616761.1555663,9762617.8094468,76.88],[616761.2979031,9762618.8906022,76.88],[616761.5339272,9762619.9552381,76.88],[616761.8618422,9762620.9952518,76.88],[616762.2791527,9762622.0027283,76.88],[616762.7826825,9762622.97,76.88],[616763.3685994,9762623.8897055,76.88],[616764.0324445,9762624.7548451,76.88],[616764.7691652,9762625.5588348,76.88],[616765.5731549,9762626.2955555,76.88],[616766.4382945,9762626.9594006,76.88],[616767.358,9762627.5453175,76.88],[616768.3252717,9762628.0488473,76.88],[616769.3327482,9762628.4661578,76.88],[616770.3727619,9762628.7940728,76.88],[616771.4373978,9762629.0300969,76.88],[616772.5185532,9762629.1724337,76.88],[616773.608,9762629.22,76.88],[616774.6974468,9762629.1724337,76.88],[616775.7786022,9762629.0300969,76.88],[616776.8432381,9762628.7940728,76.88],[616777.8832518,9762628.4661578,76.88],[616778.8907283,9762628.0488473,76.88],[616779.858,9762627.5453175,76.88],[616780.7777055,9762626.9594006,76.88],[616781.6428451,9762626.2955555,76.88],[616782.4468348,9762625.5588348,76.88],[616783.1835555,9762624.7548451,76.88],[616783.8474006,9762623.8897055,76.88],[616784.4333175,9762622.97,76.88],[616784.9368473,9762622.0027283,76.88],[616785.3541578,9762620.9952518,76.88],[616785.6820728,9762619.9552381,76.88],[616785.9180969,9762618.8906022,76.88],[616786.0604337,9762617.8094468,76.88],[616786.108,9762616.72,76.88]]]]}},
{"type":"Feature","properties":{"Layer":"PLACA 4","X_COORD":616162.404,"Y_COORD":9762256.484,"Z_COORD":97.402},"geometry":{"type":"MultiPolygon","coordinates":[[[[616174.904,9762256.484,97.402],[616174.8564337,9762255.3945532,97.402],[616174.7140969,9762254.3133978,97.402],[616174.4780728,9762253.2487619,97.402],[616174.1501578,9762252.2087482,97.402],[616173.7328473,9762251.2012717,97.402],[616173.2293175,9762250.234,97.402],[616172.6434006,9762249.3142945,97.402],[616171.9795555,9762248.4491549,97.402],[616171.2428348,9762247.6451652,97.402],[616170.4388451,9762246.9084445,97.402],[616169.5737055,9762246.2445994,97.402],[616168.654,9762245.6586825,97.402],[616167.6867283,9762245.1551527,97.402],[616166.6792518,9762244.7378422,97.402],[616165.6392381,9762244.4099272,97.402],[616164.5746022,9762244.1739031,97.402],[616163.4934468,9762244.0315663,97.402],[616162.404,9762243.984,97.402],[616161.3145532,9762244.0315663,97.402],[616160.2333978,9762244.1739031,97.402],[616159.1687619,9762244.4099272,97.402],[616158.1287482,9762244.7378422,97.402],[616157.1212717,9762245.1551527,97.402],[616156.154,9762245.6586825,97.402],[616155.2342945,9762246.2445994,97.402],[616154.3691549,9762246.9084445,97.402],[616153.5651652,9762247.6451652,97.402],[616152.8284445,9762248.4491549,97.402],[616152.1645994,9762249.3142945,97.402],[616151.5786825,9762250.234,97.402],[616151.0751527,9762251.2012717,97.402],[616150.6578422,9762252.2087482,97.402],[616150.3299272,9762253.2487619,97.402],[616150.0939031,9762254.3133978,97.402],[616149.9515663,9762255.3945532,97.402],[616149.904,9762256.484,97.402],[616149.9515663,9762257.5734468,97.402],[616150.0939031,9762258.6546022,97.402],[616150.3299272,9762259.7192381,97.402],[616150.6578422,9762260.7592518,97.402],[616151.0751527,9762261.7667283,97.402],[616151.5786825,9762262.734,97.402],[616152.1645994,9762263.6537055,97.402],[616152.8284445,9762264.5188451,97.402],[616153.5651652,9762265.3228348,97.402],[616154.3691549,9762266.0595555,97.402],[616155.2342945,9762266.7234006,97.402],[616156.154,9762267.3093175,97.402],[616157.1212717,9762267.8128473,97.402],[616158.1287482,9762268.2301578,97.402],[616159.1687619,9762268.5580728,97.402],[616160.2333978,9762268.7940969,97.402],[616161.3145532,9762268.9364337,97.402],[616162.404,9762268.984,97.402],[616163.4934468,9762268.9364337,97.402],[616164.5746022,9762268.7940969,97.402],[616165.6392381,9762268.5580728,97.402],[616166.6792518,9762268.2301578,97.402],[616167.6867283,9762267.8128473,97.402],[616168.654,9762267.3093175,97.402],[616169.5737055,9762266.7234006,97.402],[616170.4388451,9762266.0595555,97.402],[616171.2428348,9762265.3228348,97.402],[616171.9795555,9762264.5188451,97.402],[616172.6434006,9762263.6537055,97.402],[616173.2293175,9762262.734,97.402],[616173.7328473,9762261.7667283,97.402],[616174.1501578,9762260.7592518,97.402],[616174.4780728,9762259.7192381,97.402],[616174.7140969,9762258.6546022,97.402],[616174.8564337,9762257.5734468,97.402],[616174.904,9762256.484,97.402]]]]}},
{"type":"Feature","properties":{"Layer":"PLACA 5","X_COORD":615600.782,"Y_COORD":9762084.86,"Z_COORD":113.802},"geometry":{"type":"MultiPolygon","coordinates":[[[[615613.282,9762084.86,113.802],[615613.2344337,9762083.7705532,113.802],[615613.0920969,9762082.6893978,113.802],[615612.8560728,9762081.6247619,113.802],[615612.5281578,9762080.5847482,113.802],[615612.1108473,9762079.5772717,113.802],[615611.6073175,9762078.61,113.802],[615611.0214006,9762077.6902945,113.802],[615610.3575555,9762076.8251549,113.802],[615609.6208348,9762076.0211652,113.802],[615608.8168451,9762075.2844445,113.802],[615607.9517055,9762074.6205994,113.802],[615607.032,9762074.0346825,113.802],[615606.0647283,9762073.5311527,113.802],[615605.0572518,9762073.1138422,113.802],[615604.0172381,9762072.7859272,113.802],[615602.9526022,9762072.5499031,113.802],[615601.8714468,9762072.4075663,113.802],[615600.782,9762072.36,113.802],[615599.6925532,9762072.4075663,113.802],[615598.6113978,9762072.5499031,113.802],[615597.5467619,9762072.7859272,113.802],[615596.5067482,9762073.1138422,113.802],[615595.4992717,9762073.5311527,113.802],[615594.532,9762074.0346825,113.802],[615593.6122945,9762074.6205994,113.802],[615592.7471549,9762075.2844445,113.802],[615591.9431652,9762076.0211652,113.802],[615591.2064445,9762076.8251549,113.802],[615590.5425994,9762077.6902945,113.802],[615589.9566825,9762078.61,113.802],[615589.4531527,9762079.5772717,113.802],[615589.0358422,9762080.5847482,113.802],[615588.7079272,9762081.6247619,113.802],[615588.4719031,9762082.6893978,113.802],[615588.3295663,9762083.7705532,113.802],[615588.282,9762084.86,113.802],[615588.3295663,9762085.9494468,113.802],[615588.4719031,9762087.0306022,113.802],[615588.7079272,9762088.0952381,113.802],[615589.0358422,9762089.1352518,113.802],[615589.4531527,9762090.1427283,113.802],[615589.9566825,9762091.11,113.802],[615590.5425994,9762092.0297055,113.802],[615591.2064445,9762092.8948451,113.802],[615591.9431652,9762093.6988348,113.802],[615592.7471549,9762094.4355555,113.802],[615593.6122945,9762095.0994006,113.802],[615594.532,9762095.6853175,113.802],[615595.4992717,9762096.1888473,113.802],[615596.5067482,9762096.6061578,113.802],[615597.5467619,9762096.9340728,113.802],[615598.6113978,9762097.1700969,113.802],[615599.6925532,9762097.3124337,113.802],[615600.782,9762097.36,113.802],[615601.8714468,9762097.3124337,113.802],[615602.9526022,9762097.1700969,113.802],[615604.0172381,9762096.9340728,113.802],[615605.0572518,9762096.6061578,113.802],[615606.0647283,9762096.1888473,113.802],[615607.032,9762095.6853175,113.802],[615607.9517055,9762095.0994006,113.802],[615608.8168451,9762094.4355555,113.802],[615609.6208348,9762093.6988348,113.802],[615610.3575555,9762092.8948451,113.802],[615611.0214006,9762092.0297055,113.802],[615611.6073175,9762091.11,113.802],[615612.1108473,9762090.1427283,113.802],[615612.5281578,9762089.1352518,113.802],[615612.8560728,9762088.0952381,113.802],[615613.0920969,9762087.0306022,113.802],[615613.2344337,9762085.9494468,113.802],[615613.282,9762084.86,113.802]]]]}},
{"type":"Feature","properties":{"Layer":"PLACA IGM","X_COORD":615728.62,"Y_COORD":9762683.387,"Z_COORD":115.904},"geometry":{"type":"MultiPolygon","coordinates":[[[[615741.12,9762683.387,115.904],[615741.0724337,9762682.2975532,115.904],[615740.9300969,9762681.2163978,115.904],[615740.6940728,9762680.1517619,115.904],[615740.3661578,9762679.1117482,115.904],[615739.9488473,9762678.1042717,115.904],[615739.4453175,9762677.137,115.904],[615738.8594006,9762676.2172945,115.904],[615738.1955555,9762675.3521549,115.904],[615737.4588348,9762674.5481652,115.904],[615736.6548451,9762673.8114445,115.904],[615735.7897055,9762673.1475994,115.904],[615734.87,9762672.5616825,115.904],[615733.9027283,9762672.0581527,115.904],[615732.8952518,9762671.6408422,115.904],[615731.8552381,9762671.3129272,115.904],[615730.7906022,9762671.0769031,115.904],[615729.7094468,9762670.9345663,115.904],[615728.62,9762670.887,115.904],[615727.5305532,9762670.9345663,115.904],[615726.4493978,9762671.0769031,115.904],[615725.3847619,9762671.3129272,115.904],[615724.3447482,9762671.6408422,115.904],[615723.3372717,9762672.0581527,115.904],[615722.37,9762672.5616825,115.904],[615721.4502945,9762673.1475994,115.904],[615720.5851549,9762673.8114445,115.904],[615719.7811652,9762674.5481652,115.904],[615719.0444445,9762675.3521549,115.904],[615718.3805994,9762676.2172945,115.904],[615717.7946825,9762677.137,115.904],[615717.2911527,9762678.1042717,115.904],[615716.8738422,9762679.1117482,115.904],[615716.5459272,9762680.1517619,115.904],[615716.3099031,9762681.2163978,115.904],[615716.1675663,9762682.2975532,115.904],[615716.12,9762683.387,115.904],[615716.1675663,9762684.4764468,115.904],[615716.3099031,9762685.5576022,115.904],[615716.5459272,9762686.6222381,115.904],[615716.8738422,9762687.6622518,115.904],[615717.2911527,9762688.6697283,115.904],[615717.7946825,9762689.637,115.904],[615718.3805994,9762690.5567055,115.904],[615719.0444445,9762691.4218451,115.904],[615719.7811652,9762692.2258348,115.904],[615720.5851549,9762692.9625555,115.904],[615721.4502945,9762693.6264006,115.904],[615722.37,9762694.2123175,115.904],[615723.3372717,9762694.7158473,115.904],[615724.3447482,9762695.1331578,115.904],[615725.3847619,9762695.4610728,115.904],[615726.4493978,9762695.6970969,115.904],[615727.5305532,9762695.8394337,115.904],[615728.62,9762695.887,115.904],[615729.7094468,9762695.8394337,115.904],[615730.7906022,9762695.6970969,115.904],[615731.8552381,9762695.4610728,115.904],[615732.8952518,9762695.1331578,115.904],[615733.9027283,9762694.7158473,115.904],[615734.87,9762694.2123175,115.904],[615735.7897055,9762693.6264006,115.904],[615736.6548451,9762692.9625555,115.904],[615737.4588348,9762692.2258348,115.904],[615738.1955555,9762691.4218451,115.904],[615738.8594006,9762690.5567055,115.904],[615739.4453175,9762689.637,115.904],[615739.9488473,9762688.6697283,115.904],[615740.3661578,9762687.6622518,115.904],[615740.6940728,9762686.6222381,115.904],[615740.9300969,9762685.5576022,115.904],[615741.0724337,9762684.4764468,115.904],[615741.12,9762683.387,115.904]]]]}},
{"type":"Feature","properties":{"Layer":"PLACA 7","X_COORD":615019.693,"Y_COORD":9762807.815,"Z_COORD":85.109},"geometry":{"type":"MultiPolygon","coordinates":[[[[615032.193,9762807.815,85.109],[615032.1454337,9762806.7255532,85.109],[615032.0030969,9762805.6443978,85.109],[615031.7670728,9762804.5797619,85.109],[615031.4391578,9762803.5397482,85.109],[615031.0218473,9762802.5322717,85.109],[615030.5183175,9762801.565,85.109],[615029.9324006,9762800.6452945,85.109],[615029.2685555,9762799.7801549,85.109],[615028.5318348,9762798.9761652,85.109],[615027.7278451,9762798.2394445,85.109],[615026.8627055,9762797.5755994,85.109],[615025.943,9762796.9896825,85.109],[615024.9757283,9762796.4861527,85.109],[615023.9682518,9762796.0688422,85.109],[615022.9282381,9762795.7409272,85.109],[615021.8636022,9762795.5049031,85.109],[615020.7824468,9762795.3625663,85.109],[615019.693,9762795.315,85.109],[615018.6035532,9762795.3625663,85.109],[615017.5223978,9762795.5049031,85.109],[615016.4577619,9762795.7409272,85.109],[615015.4177482,9762796.0688422,85.109],[615014.4102717,9762796.4861527,85.109],[615013.443,9762796.9896825,85.109],[615012.5232945,9762797.5755994,85.109],[615011.6581549,9762798.2394445,85.109],[615010.8541652,9762798.9761652,85.109],[615010.1174445,9762799.7801549,85.109],[615009.4535994,9762800.6452945,85.109],[615008.8676825,9762801.565,85.109],[615008.3641527,9762802.5322717,85.109],[615007.9468422,9762803.5397482,85.109],[615007.6189272,9762804.5797619,85.109],[615007.3829031,9762805.6443978,85.109],[615007.2405663,9762806.7255532,85.109],[615007.193,9762807.815,85.109],[615007.2405663,9762808.9044468,85.109],[615007.3829031,9762809.9856022,85.109],[615007.6189272,9762811.0502381,85.109],[615007.9468422,9762812.0902518,85.109],[615008.3641527,9762813.0977283,85.109],[615008.8676825,9762814.065,85.109],[615009.4535994,9762814.9847055,85.109],[615010.1174445,9762815.8498451,85.109],[615010.8541652,9762816.6538348,85.109],[615011.6581549,9762817.3905555,85.109],[615012.5232945,9762818.0544006,85.109],[615013.443,9762818.6403175,85.109],[615014.4102717,9762819.1438473,85.109],[615015.4177482,9762819.5611578,85.109],[615016.4577619,9762819.8890728,85.109],[615017.5223978,9762820.1250969,85.109],[615018.6035532,9762820.2674337,85.109],[615019.693,9762820.315,85.109],[615020.7824468,9762820.2674337,85.109],[615021.8636022,9762820.1250969,85.109],[615022.9282381,9762819.8890728,85.109],[615023.9682518,9762819.5611578,85.109],[615024.9757283,9762819.1438473,85.109],[615025.943,9762818.6403175,85.109],[615026.8627055,9762818.0544006,85.109],[615027.7278451,9762817.3905555,85.109],[615028.5318348,9762816.6538348,85.109],[615029.2685555,9762815.8498451,85.109],[615029.9324006,9762814.9847055,85.109],[615030.5183175,9762814.065,85.109],[615031.0218473,9762813.0977283,85.109],[615031.4391578,9762812.0902518,85.109],[615031.7670728,9762811.0502381,85.109],[615032.0030969,9762809.9856022,85.109],[615032.1454337,9762808.9044468,85.109],[615032.193,9762807.815,85.109]]]]}},
{"type":"Feature","properties":{"Layer":"PLACA 6","X_COORD":615069.821,"Y_COORD":9762792.871,"Z_COORD":87.019},"geometry":{"type":"MultiPolygon","coordinates":[[[[615082.321,9762792.871,87.019],[615082.2734337,9762791.7815532,87.019],[615082.1310969,9762790.7003978,87.019],[615081.8950728,9762789.6357619,87.019],[615081.5671578,9762788.5957482,87.019],[615081.1498473,9762787.5882717,87.019],[615080.6463175,9762786.621,87.019],[615080.0604006,9762785.7012945,87.019],[615079.3965555,9762784.8361549,87.019],[615078.6598348,9762784.0321652,87.019],[615077.8558451,9762783.2954445,87.019],[615076.9907055,9762782.6315994,87.019],[615076.071,9762782.0456825,87.019],[615075.1037283,9762781.5421527,87.019],[615074.0962518,9762781.1248422,87.019],[615073.0562381,9762780.7969272,87.019],[615071.9916022,9762780.5609031,87.019],[615070.9104468,9762780.4185663,87.019],[615069.821,9762780.371,87.019],[615068.7315532,9762780.4185663,87.019],[615067.6503978,9762780.5609031,87.019],[615066.5857619,9762780.7969272,87.019],[615065.5457482,9762781.1248422,87.019],[615064.5382717,9762781.5421527,87.019],[615063.571,9762782.0456825,87.019],[615062.6512945,9762782.6315994,87.019],[615061.7861549,9762783.2954445,87.019],[615060.9821652,9762784.0321652,87.019],[615060.2454445,9762784.8361549,87.019],[615059.5815994,9762785.7012945,87.019],[615058.9956825,9762786.621,87.019],[615058.4921527,9762787.5882717,87.019],[615058.0748422,9762788.5957482,87.019],[615057.7469272,9762789.6357619,87.019],[615057.5109031,9762790.7003978,87.019],[615057.3685663,9762791.7815532,87.019],[615057.321,9762792.871,87.019],[615057.3685663,9762793.9604468,87.019],[615057.5109031,9762795.0416022,87.019],[615057.7469272,9762796.1062381,87.019],[615058.0748422,9762797.1462518,87.019],[615058.4921527,9762798.1537283,87.019],[615058.9956825,9762799.121,87.019],[615059.5815994,9762800.0407055,87.019],[615060.2454445,9762800.9058451,87.019],[615060.9821652,9762801.7098348,87.019],[615061.7861549,9762802.4465555,87.019],[615062.6512945,9762803.1104006,87.019],[615063.571,9762803.6963175,87.019],[615064.5382717,9762804.1998473,87.019],[615065.5457482,9762804.6171578,87.019],[615066.5857619,9762804.9450728,87.019],[615067.6503978,9762805.1810969,87.019],[615068.7315532,9762805.3234337,87.019],[615069.821,9762805.371,87.019],[615070.9104468,9762805.3234337,87.019],[615071.9916022,9762805.1810969,87.019],[615073.0562381,9762804.9450728,87.019],[615074.0962518,9762804.6171578,87.019],[615075.1037283,9762804.1998473,87.019],[615076.071,9762803.6963175,87.019],[615076.9907055,9762803.1104006,87.019],[615077.8558451,9762802.4465555,87.019],[615078.6598348,9762801.7098348,87.019],[615079.3965555,9762800.9058451,87.019],[615080.0604006,9762800.0407055,87.019],[615080.6463175,9762799.121,87.019],[615081.1498473,9762798.1537283,87.019],[615081.5671578,9762797.1462518,87.019],[615081.8950728,9762796.1062381,87.019],[615082.1310969,9762795.0416022,87.019],[615082.2734337,9762793.9604468,87.019],[615082.321,9762792.871,87.019]]]]}}
]
}
