{
"type": "FeatureCollection",
"name": "sondeo",
"crs": { "type": "name", "properties": { "name": "urn:ogc:def:crs:OGC:1.3:CRS84" } },
"xy_coordinate_resolution": 1e-07,
"features": [
{"type":"Feature","properties":{"Layer":"B-4"},"geometry":{"type":"MultiPolygon","coordinates":[[[[-79.9662209,-2.1468651],[-79.9662211,-2.1468654],[-79.9662213,-2.1468658],[-79.9662215,-2.1468661],[-79.9662218,-2.1468664],[-79.966222,-2.1468667],[-79.9662223,-2.146867],[-79.9662226,-2.1468672],[-79.9662229,-2.1468674],[-79.9662233,-2.1468677],[-79.9662236,-2.1468678],[-79.966224,-2.146868],[-79.9662243,-2.1468682],[-79.9662247,-2.1468683],[-79.9662251,-2.1468684],[-79.9662255,-2.1468684],[-79.9662259,-2.1468685],[-79.9662263,-2.1468685],[-79.9662266,-2.1468685],[-79.966227,-2.1468685],[-79.9662274,-2.1468684],[-79.9662278,-2.1468683],[-79.9662282,-2.1468682],[-79.9662286,-2.1468681],[-79.9662289,-2.1468679],[-79.9662293,-2.1468677],[-79.9662296,-2.1468675],[-79.9662299,-2.1468673],[-79.9662302,-2.1468671],[-79.9662305,-2.1468668],[-79.9662308,-2.1468665],[-79.966231,-2.1468662],[-79.9662313,-2.1468659],[-79.9662315,-2.1468656],[-79.9662317,-2.1468652],[-79.9662319,-2.1468649],[-79.966232,-2.1468645],[-79.9662321,-2.1468641],[-79.9662322,-2.1468637],[-79.9662323,-2.1468633],[-79.9662323,-2.146863],[-79.9662323,-2.1468626],[-79.9662323,-2.1468622],[-79.9662323,-2.1468618],[-79.9662322,-2.1468614],[-79.9662322,-2.146861],[-79.9662321,-2.1468606],[-79.9662319,-2.1468602],[-79.9662318,-2.1468599],[-79.9662316,-2.1468595],[-79.9662314,-2.1468592],[-79.9662312,-2.1468589],[-79.9662309,-2.1468586],[-79.9662306,-2.1468583],[-79.9662304,-2.146858],[-79.9662301,-2.1468577],[-79.9662297,-2.1468575],[-79.9662294,-2.1468573],[-79.9662291,-2.1468571],[-79.9662287,-2.1468569],[-79.9662284,-2.1468568],[-79.966228,-2.1468567],[-79.9662276,-2.1468566],[-79.9662272,-2.1468565],[-79.9662268,-2.1468565],[-79.9662264,-2.1468564],[-79.966226,-2.1468564],[-79.9662256,-2.1468565],[-79.9662253,-2.1468565],[-79.9662249,-2.1468566],[-79.9662245,-2.1468567],[-79.9662241,-2.1468569],[-79.9662238,-2.146857],[-79.9662234,-2.1468572],[-79.9662231,-2.1468574],[-79.9662228,-2.1468576],[-79.9662224,-2.1468579],[-79.9662222,-2.1468581],[-79.9662219,-2.1468584],[-79.9662216,-2.1468587],[-79.9662214,-2.146859],[-79.9662212,-2.1468594],[-79.966221,-2.1468597],[-79.9662208,-2.1468601],[-79.9662207,-2.1468605],[-79.9662206,-2.1468608],[-79.9662205,-2.1468612],[-79.9662204,-2.1468616],[-79.9662204,-2.146862],[-79.9662203,-2.1468624],[-79.9662203,-2.1468628],[-79.9662204,-2.1468632],[-79.9662204,-2.1468636],[-79.9662205,-2.146864],[-79.9662206,-2.1468643],[-79.9662208,-2.1468647],[-79.9662209,-2.1468651]]]]}},
{"type":"Feature","properties":{"Layer":"B-5"},"geometry":{"type":"MultiPolygon","coordinates":[[[[-79.9660489,-2.1471604],[-79.966049,-2.1471607],[-79.9660493,-2.1471611],[-79.9660495,-2.1471614],[-79.9660497,-2.1471617],[-79.96605,-2.147162],[-79.9660503,-2.1471623],[-79.9660506,-2.1471625],[-79.9660509,-2.1471627],[-79.9660512,-2.147163],[-79.9660516,-2.1471631],[-79.9660519,-2.1471633],[-79.9660523,-2.1471635],[-79.9660527,-2.1471636],[-79.966053,-2.1471637],[-79.9660534,-2.1471637],[-79.9660538,-2.1471638],[-79.9660542,-2.1471638],[-79.9660546,-2.1471638],[-79.966055,-2.1471638],[-79.9660554,-2.1471637],[-79.9660558,-2.1471636],[-79.9660561,-2.1471635],[-79.9660565,-2.1471634],[-79.9660569,-2.1471632],[-79.9660572,-2.147163],[-79.9660576,-2.1471628],[-79.9660579,-2.1471626],[-79.9660582,-2.1471624],[-79.9660585,-2.1471621],[-79.9660587,-2.1471618],[-79.966059,-2.1471615],[-79.9660592,-2.1471612],[-79.9660594,-2.1471609],[-79.9660596,-2.1471605],[-79.9660598,-2.1471602],[-79.9660599,-2.1471598],[-79.9660601,-2.1471594],[-79.9660602,-2.147159],[-79.9660602,-2.1471586],[-79.9660603,-2.1471583],[-79.9660603,-2.1471579],[-79.9660603,-2.1471575],[-79.9660602,-2.1471571],[-79.9660602,-2.1471567],[-79.9660601,-2.1471563],[-79.96606,-2.1471559],[-79.9660599,-2.1471555],[-79.9660597,-2.1471552],[-79.9660595,-2.1471548],[-79.9660593,-2.1471545],[-79.9660591,-2.1471542],[-79.9660589,-2.1471539],[-79.9660586,-2.1471536],[-79.9660583,-2.1471533],[-79.966058,-2.147153],[-79.9660577,-2.1471528],[-79.9660574,-2.1471526],[-79.966057,-2.1471524],[-79.9660567,-2.1471522],[-79.9660563,-2.1471521],[-79.9660559,-2.147152],[-79.9660555,-2.1471519],[-79.9660552,-2.1471518],[-79.9660548,-2.1471518],[-79.9660544,-2.1471517],[-79.966054,-2.1471517],[-79.9660536,-2.1471518],[-79.9660532,-2.1471518],[-79.9660528,-2.1471519],[-79.9660524,-2.147152],[-79.9660521,-2.1471522],[-79.9660517,-2.1471523],[-79.9660514,-2.1471525],[-79.966051,-2.1471527],[-79.9660507,-2.1471529],[-79.9660504,-2.1471532],[-79.9660501,-2.1471534],[-79.9660498,-2.1471537],[-79.9660496,-2.147154],[-79.9660493,-2.1471543],[-79.9660491,-2.1471547],[-79.9660489,-2.147155],[-79.9660488,-2.1471554],[-79.9660486,-2.1471557],[-79.9660485,-2.1471561],[-79.9660484,-2.1471565],[-79.9660483,-2.1471569],[-79.9660483,-2.1471573],[-79.9660483,-2.1471577],[-79.9660483,-2.1471581],[-79.9660483,-2.1471585],[-79.9660484,-2.1471589],[-79.9660485,-2.1471593],[-79.9660486,-2.1471596],[-79.9660487,-2.14716],[-79.9660489,-2.1471604]]]]}},
{"type":"Feature","properties":{"Layer":"B-3"},"geometry":{"type":"MultiPolygon","coordinates":[[[[-79.9661537,-2.1470244],[-79.9661539,-2.1470248],[-79.9661541,-2.1470251],[-79.9661543,-2.1470254],[-79.9661546,-2.1470257],[-79.9661548,-2.147026],[-79.9661551,-2.1470263],[-79.9661554,-2.1470266],[-79.9661557,-2.1470268],[-79.9661561,-2.147027],[-79.9661564,-2.1470272],[-79.9661568,-2.1470274],[-79.9661571,-2.1470275],[-79.9661575,-2.1470276],[-79.9661579,-2.1470277],[-79.9661583,-2.1470278],[-79.9661587,-2.1470278],[-79.9661591,-2.1470279],[-79.9661594,-2.1470278],[-79.9661598,-2.1470278],[-79.9661602,-2.1470278],[-79.9661606,-2.1470277],[-79.966161,-2.1470276],[-79.9661614,-2.1470274],[-79.9661617,-2.1470273],[-79.9661621,-2.1470271],[-79.9661624,-2.1470269],[-79.9661627,-2.1470267],[-79.966163,-2.1470264],[-79.9661633,-2.1470261],[-79.9661636,-2.1470259],[-79.9661639,-2.1470256],[-79.9661641,-2.1470252],[-79.9661643,-2.1470249],[-79.9661645,-2.1470246],[-79.9661647,-2.1470242],[-79.9661648,-2.1470238],[-79.9661649,-2.1470235],[-79.966165,-2.1470231],[-79.9661651,-2.1470227],[-79.9661651,-2.1470223],[-79.9661651,-2.1470219],[-79.9661651,-2.1470215],[-79.9661651,-2.1470211],[-79.966165,-2.1470207],[-79.966165,-2.1470203],[-79.9661649,-2.14702],[-79.9661647,-2.1470196],[-79.9661646,-2.1470192],[-79.9661644,-2.1470189],[-79.9661642,-2.1470185],[-79.966164,-2.1470182],[-79.9661637,-2.1470179],[-79.9661634,-2.1470176],[-79.9661632,-2.1470173],[-79.9661629,-2.1470171],[-79.9661625,-2.1470168],[-79.9661622,-2.1470166],[-79.9661619,-2.1470164],[-79.9661615,-2.1470163],[-79.9661612,-2.1470161],[-79.9661608,-2.147016],[-79.9661604,-2.1470159],[-79.96616,-2.1470158],[-79.9661596,-2.1470158],[-79.9661592,-2.1470158],[-79.9661588,-2.1470158],[-79.9661584,-2.1470158],[-79.9661581,-2.1470159],[-79.9661577,-2.147016],[-79.9661573,-2.1470161],[-79.9661569,-2.1470162],[-79.9661566,-2.1470164],[-79.9661562,-2.1470165],[-79.9661559,-2.1470167],[-79.9661556,-2.147017],[-79.9661553,-2.1470172],[-79.966155,-2.1470175],[-79.9661547,-2.1470178],[-79.9661544,-2.1470181],[-79.9661542,-2.1470184],[-79.966154,-2.1470187],[-79.9661538,-2.1470191],[-79.9661536,-2.1470194],[-79.9661535,-2.1470198],[-79.9661534,-2.1470202],[-79.9661533,-2.1470206],[-79.9661532,-2.1470209],[-79.9661532,-2.1470213],[-79.9661531,-2.1470217],[-79.9661531,-2.1470221],[-79.9661532,-2.1470225],[-79.9661532,-2.1470229],[-79.9661533,-2.1470233],[-79.9661534,-2.1470237],[-79.9661536,-2.147024],[-79.9661537,-2.1470244]]]]}},
{"type":"Feature","properties":{"Layer":"B-1"},"geometry":{"type":"MultiPolygon","coordinates":[[[[-79.9661863,-2.147255],[-79.9661865,-2.1472553],[-79.9661867,-2.1472556],[-79.9661869,-2.147256],[-79.9661872,-2.1472563],[-79.9661875,-2.1472566],[-79.9661877,-2.1472568],[-79.966188,-2.1472571],[-79.9661884,-2.1472573],[-79.9661887,-2.1472575],[-79.966189,-2.1472577],[-79.9661894,-2.1472579],[-79.9661897,-2.147258],[-79.9661901,-2.1472582],[-79.9661905,-2.1472583],[-79.9661909,-2.1472583],[-79.9661913,-2.1472584],[-79.9661917,-2.1472584],[-79.9661921,-2.1472584],[-79.9661925,-2.1472584],[-79.9661928,-2.1472583],[-79.9661932,-2.1472582],[-79.9661936,-2.1472581],[-79.966194,-2.147258],[-79.9661943,-2.1472578],[-79.9661947,-2.1472576],[-79.966195,-2.1472574],[-79.9661953,-2.1472572],[-79.9661957,-2.147257],[-79.9661959,-2.1472567],[-79.9661962,-2.1472564],[-79.9661965,-2.1472561],[-79.9661967,-2.1472558],[-79.9661969,-2.1472555],[-79.9661971,-2.1472551],[-79.9661973,-2.1472547],[-79.9661974,-2.1472544],[-79.9661975,-2.147254],[-79.9661976,-2.1472536],[-79.9661977,-2.1472532],[-79.9661977,-2.1472528],[-79.9661978,-2.1472524],[-79.9661978,-2.1472521],[-79.9661977,-2.1472517],[-79.9661977,-2.1472513],[-79.9661976,-2.1472509],[-79.9661975,-2.1472505],[-79.9661973,-2.1472501],[-79.9661972,-2.1472498],[-79.966197,-2.1472494],[-79.9661968,-2.1472491],[-79.9661966,-2.1472488],[-79.9661963,-2.1472484],[-79.9661961,-2.1472482],[-79.9661958,-2.1472479],[-79.9661955,-2.1472476],[-79.9661952,-2.1472474],[-79.9661948,-2.1472472],[-79.9661945,-2.147247],[-79.9661941,-2.1472468],[-79.9661938,-2.1472467],[-79.9661934,-2.1472465],[-79.966193,-2.1472465],[-79.9661926,-2.1472464],[-79.9661922,-2.1472463],[-79.9661918,-2.1472463],[-79.9661915,-2.1472463],[-79.9661911,-2.1472464],[-79.9661907,-2.1472464],[-79.9661903,-2.1472465],[-79.9661899,-2.1472466],[-79.9661895,-2.1472467],[-79.9661892,-2.1472469],[-79.9661888,-2.1472471],[-79.9661885,-2.1472473],[-79.9661882,-2.1472475],[-79.9661879,-2.1472478],[-79.9661876,-2.147248],[-79.9661873,-2.1472483],[-79.9661871,-2.1472486],[-79.9661868,-2.1472489],[-79.9661866,-2.1472493],[-79.9661864,-2.1472496],[-79.9661862,-2.14725],[-79.9661861,-2.1472503],[-79.966186,-2.1472507],[-79.9661859,-2.1472511],[-79.9661858,-2.1472515],[-79.9661858,-2.1472519],[-79.9661858,-2.1472523],[-79.9661858,-2.1472527],[-79.9661858,-2.1472531],[-79.9661859,-2.1472535],[-79.9661859,-2.1472538],[-79.966186,-2.1472542],[-79.9661862,-2.1472546],[-79.9661863,-2.147255]]]]}},
{"type":"Feature","properties":{"Layer":"B-2"},"geometry":{"type":"MultiPolygon","coordinates":[[[[-79.9660572,-2.1474028],[-79.9660574,-2.1474032],[-79.9660576,-2.1474035],[-79.9660578,-2.1474038],[-79.9660581,-2.1474042],[-79.9660583,-2.1474044],[-79.9660586,-2.1474047],[-79.9660589,-2.147405],[-79.9660592,-2.1474052],[-79.9660596,-2.1474054],[-79.9660599,-2.1474056],[-79.9660603,-2.1474058],[-79.9660606,-2.1474059],[-79.966061,-2.147406],[-79.9660614,-2.1474061],[-79.9660618,-2.1474062],[-79.9660622,-2.1474063],[-79.9660626,-2.1474063],[-79.9660629,-2.1474063],[-79.9660633,-2.1474062],[-79.9660637,-2.1474062],[-79.9660641,-2.1474061],[-79.9660645,-2.147406],[-79.9660649,-2.1474058],[-79.9660652,-2.1474057],[-79.9660656,-2.1474055],[-79.9660659,-2.1474053],[-79.9660662,-2.1474051],[-79.9660665,-2.1474048],[-79.9660668,-2.1474046],[-79.9660671,-2.1474043],[-79.9660673,-2.147404],[-79.9660676,-2.1474037],[-79.9660678,-2.1474033],[-79.966068,-2.147403],[-79.9660682,-2.1474026],[-79.9660683,-2.1474023],[-79.9660684,-2.1474019],[-79.9660685,-2.1474015],[-79.9660686,-2.1474011],[-79.9660686,-2.1474007],[-79.9660686,-2.1474003],[-79.9660686,-2.1473999],[-79.9660686,-2.1473995],[-79.9660685,-2.1473991],[-79.9660685,-2.1473988],[-79.9660684,-2.1473984],[-79.9660682,-2.147398],[-79.9660681,-2.1473976],[-79.9660679,-2.1473973],[-79.9660677,-2.147397],[-79.9660675,-2.1473966],[-79.9660672,-2.1473963],[-79.9660669,-2.147396],[-79.9660667,-2.1473958],[-79.9660664,-2.1473955],[-79.966066,-2.1473953],[-79.9660657,-2.1473951],[-79.9660654,-2.1473949],[-79.966065,-2.1473947],[-79.9660647,-2.1473945],[-79.9660643,-2.1473944],[-79.9660639,-2.1473943],[-79.9660635,-2.1473943],[-79.9660631,-2.1473942],[-79.9660627,-2.1473942],[-79.9660623,-2.1473942],[-79.9660619,-2.1473942],[-79.9660616,-2.1473943],[-79.9660612,-2.1473944],[-79.9660608,-2.1473945],[-79.9660604,-2.1473946],[-79.9660601,-2.1473948],[-79.9660597,-2.147395],[-79.9660594,-2.1473952],[-79.9660591,-2.1473954],[-79.9660587,-2.1473956],[-79.9660585,-2.1473959],[-79.9660582,-2.1473962],[-79.9660579,-2.1473965],[-79.9660577,-2.1473968],[-79.9660575,-2.1473971],[-79.9660573,-2.1473975],[-79.9660571,-2.1473978],[-79.966057,-2.1473982],[-79.9660569,-2.1473986],[-79.9660568,-2.147399],[-79.9660567,-2.1473994],[-79.9660567,-2.1473998],[-79.9660566,-2.1474002],[-79.9660566,-2.1474005],[-79.9660567,-2.1474009],[-79.9660567,-2.1474013],[-79.9660568,-2.1474017],[-79.9660569,-2.1474021],[-79.9660571,-2.1474025],[-79.9660572,-2.1474028]]]]}},
{"type":"Feature","properties":{"Layer":"CB-3"},"geometry":{"type":"MultiPolygon","coordinates":[[[[-79.9673722,-2.1485809],[-79.9673722,-2.1485814],[-79.9673723,-2.1485819],[-79.9673724,-2.1485824],[-79.9673726,-2.1485829],[-79.9673728,-2.1485833],[-79.967373,-2.1485838],[-79.9673733,-2.1485842],[-79.9673736,-2.1485846],[-79.9673739,-2.148585],[-79.9673743,-2.1485854],[-79.9673747,-2.1485857],[-79.9673752,-2.148586],[-79.9673756,-2.1485862],[-79.9673761,-2.1485864],[-79.9673766,-2.1485866],[-79.9673771,-2.1485867],[-79.9673776,-2.1485867],[-79.9673781,-2.1485868],[-79.9673786,-2.1485867],[-79.9673791,-2.1485867],[-79.9673796,-2.1485866],[-79.9673801,-2.1485864],[-79.9673806,-2.1485862],[-79.967381,-2.148586],[-79.9673814,-2.1485857],[-79.9673818,-2.1485854],[-79.9673822,-2.148585],[-79.9673826,-2.1485847],[-79.9673829,-2.1485842],[-79.9673832,-2.1485838],[-79.9673834,-2.1485834],[-79.9673836,-2.1485829],[-79.9673837,-2.1485824],[-79.9673839,-2.1485819],[-79.9673839,-2.1485814],[-79.9673839,-2.1485809],[-79.9673839,-2.1485803],[-79.9673839,-2.1485798],[-79.9673837,-2.1485793],[-79.9673836,-2.1485788],[-79.9673834,-2.1485784],[-79.9673832,-2.1485779],[-79.9673829,-2.1485775],[-79.9673826,-2.1485771],[-79.9673822,-2.1485767],[-79.9673819,-2.1485763],[-79.9673815,-2.148576],[-79.967381,-2.1485758],[-79.9673806,-2.1485755],[-79.9673801,-2.1485753],[-79.9673796,-2.1485752],[-79.9673791,-2.1485751],[-79.9673786,-2.148575],[-79.9673781,-2.148575],[-79.9673776,-2.148575],[-79.9673771,-2.1485751],[-79.9673766,-2.1485752],[-79.9673761,-2.1485753],[-79.9673756,-2.1485755],[-79.9673752,-2.1485758],[-79.9673747,-2.148576],[-79.9673743,-2.1485763],[-79.9673739,-2.1485767],[-79.9673736,-2.1485771],[-79.9673733,-2.1485775],[-79.967373,-2.1485779],[-79.9673728,-2.1485784],[-79.9673726,-2.1485788],[-79.9673724,-2.1485793],[-79.9673723,-2.1485798],[-79.9673722,-2.1485803],[-79.9673722,-2.1485809]]]]}},
{"type":"Feature","properties":{"Layer":"CB-2"},"geometry":{"type":"MultiPolygon","coordinates":[[[[-79.9674334,-2.1484844],[-79.9674335,-2.1484849],[-79.9674335,-2.1484854],[-79.9674336,-2.1484859],[-79.9674338,-2.1484864],[-79.967434,-2.1484869],[-79.9674342,-2.1484873],[-79.9674345,-2.1484878],[-79.9674348,-2.1484882],[-79.9674351,-2.1484886],[-79.9674355,-2.1484889],[-79.9674359,-2.1484892],[-79.9674364,-2.1484895],[-79.9674368,-2.1484897],[-79.9674373,-2.1484899],[-79.9674378,-2.1484901],[-79.9674383,-2.1484902],[-79.9674388,-2.1484903],[-79.9674393,-2.1484903],[-79.9674398,-2.1484903],[-79.9674403,-2.1484902],[-79.9674408,-2.1484901],[-79.9674413,-2.1484899],[-79.9674418,-2.1484897],[-79.9674422,-2.1484895],[-79.9674426,-2.1484892],[-79.9674431,-2.1484889],[-79.9674434,-2.1484886],[-79.9674438,-2.1484882],[-79.9674441,-2.1484878],[-79.9674444,-2.1484873],[-79.9674446,-2.1484869],[-79.9674448,-2.1484864],[-79.9674449,-2.1484859],[-79.9674451,-2.1484854],[-79.9674451,-2.1484849],[-79.9674452,-2.1484844],[-79.9674451,-2.1484839],[-79.9674451,-2.1484834],[-79.967445,-2.1484829],[-79.9674448,-2.1484824],[-79.9674446,-2.1484819],[-79.9674444,-2.1484815],[-79.9674441,-2.148481],[-79.9674438,-2.1484806],[-79.9674434,-2.1484802],[-79.9674431,-2.1484799],[-79.9674427,-2.1484796],[-79.9674422,-2.1484793],[-79.9674418,-2.1484791],[-79.9674413,-2.1484789],[-79.9674408,-2.1484787],[-79.9674403,-2.1484786],[-79.9674398,-2.1484785],[-79.9674393,-2.1484785],[-79.9674388,-2.1484785],[-79.9674383,-2.1484786],[-79.9674378,-2.1484787],[-79.9674373,-2.1484789],[-79.9674368,-2.1484791],[-79.9674364,-2.1484793],[-79.9674359,-2.1484796],[-79.9674355,-2.1484799],[-79.9674351,-2.1484802],[-79.9674348,-2.1484806],[-79.9674345,-2.148481],[-79.9674342,-2.1484814],[-79.967434,-2.1484819],[-79.9674338,-2.1484824],[-79.9674336,-2.1484829],[-79.9674335,-2.1484834],[-79.9674335,-2.1484839],[-79.9674334,-2.1484844]]]]}},
{"type":"Feature","properties":{"Layer":"CB-1"},"geometry":{"type":"MultiPolygon","coordinates":[[[[-79.9673876,-2.1483944],[-79.9673877,-2.148395],[-79.9673877,-2.1483955],[-79.9673878,-2.148396],[-79.967388,-2.1483965],[-79.9673882,-2.1483969],[-79.9673884,-2.1483974],[-79.9673887,-2.1483978],[-79.967389,-2.1483982],[-79.9673893,-2.1483986],[-79.9673897,-2.148399],[-79.9673901,-2.1483993],[-79.9673906,-2.1483995],[-79.967391,-2.1483998],[-79.9673915,-2.1484],[-79.967392,-2.1484001],[-79.9673925,-2.1484002],[-79.967393,-2.1484003],[-79.9673935,-2.1484003],[-79.967394,-2.1484003],[-79.9673945,-2.1484003],[-79.967395,-2.1484001],[-79.9673955,-2.1484],[-79.967396,-2.1483998],[-79.9673964,-2.1483996],[-79.9673969,-2.1483993],[-79.9673973,-2.148399],[-79.9673976,-2.1483986],[-79.967398,-2.1483982],[-79.9673983,-2.1483978],[-79.9673986,-2.1483974],[-79.9673988,-2.1483969],[-79.967399,-2.1483965],[-79.9673992,-2.148396],[-79.9673993,-2.1483955],[-79.9673993,-2.148395],[-79.9673994,-2.1483944],[-79.9673993,-2.1483939],[-79.9673993,-2.1483934],[-79.9673992,-2.1483929],[-79.967399,-2.1483924],[-79.9673988,-2.148392],[-79.9673986,-2.1483915],[-79.9673983,-2.1483911],[-79.967398,-2.1483907],[-79.9673976,-2.1483903],[-79.9673973,-2.1483899],[-79.9673969,-2.1483896],[-79.9673964,-2.1483893],[-79.967396,-2.1483891],[-79.9673955,-2.1483889],[-79.967395,-2.1483888],[-79.9673945,-2.1483886],[-79.967394,-2.1483886],[-79.9673935,-2.1483885],[-79.967393,-2.1483886],[-79.9673925,-2.1483886],[-79.967392,-2.1483887],[-79.9673915,-2.1483889],[-79.967391,-2.1483891],[-79.9673906,-2.1483893],[-79.9673901,-2.1483896],[-79.9673897,-2.1483899],[-79.9673894,-2.1483903],[-79.967389,-2.1483907],[-79.9673887,-2.1483911],[-79.9673884,-2.1483915],[-79.9673882,-2.1483919],[-79.967388,-2.1483924],[-79.9673878,-2.1483929],[-79.9673877,-2.1483934],[-79.9673877,-2.1483939],[-79.9673876,-2.1483944]]]]}},
{"type":"Feature","properties":{"Layer":"CB-5"},"geometry":{"type":"MultiPolygon","coordinates":[[[[-79.967558,-2.1483704],[-79.967558,-2.1483709],[-79.9675581,-2.1483715],[-79.9675582,-2.148372],[-79.9675583,-2.1483724],[-79.9675585,-2.1483729],[-79.9675588,-2.1483734],[-79.967559,-2.1483738],[-79.9675593,-2.1483742],[-79.9675597,-2.1483746],[-79.9675601,-2.1483749],[-79.9675605,-2.1483753],[-79.9675609,-2.1483755],[-79.9675614,-2.1483758],[-79.9675618,-2.148376],[-79.9675623,-2.1483761],[-79.9675628,-2.1483762],[-79.9675633,-2.1483763],[-79.9675638,-2.1483763],[-79.9675643,-2.1483763],[-79.9675649,-2.1483762],[-79.9675653,-2.1483761],[-79.9675658,-2.148376],[-79.9675663,-2.1483758],[-79.9675668,-2.1483755],[-79.9675672,-2.1483753],[-79.9675676,-2.148375],[-79.967568,-2.1483746],[-79.9675683,-2.1483742],[-79.9675686,-2.1483738],[-79.9675689,-2.1483734],[-79.9675691,-2.1483729],[-79.9675693,-2.1483725],[-79.9675695,-2.148372],[-79.9675696,-2.1483715],[-79.9675697,-2.148371],[-79.9675697,-2.1483704],[-79.9675697,-2.1483699],[-79.9675696,-2.1483694],[-79.9675695,-2.1483689],[-79.9675693,-2.1483684],[-79.9675691,-2.1483679],[-79.9675689,-2.1483675],[-79.9675686,-2.1483671],[-79.9675683,-2.1483666],[-79.967568,-2.1483663],[-79.9675676,-2.1483659],[-79.9675672,-2.1483656],[-79.9675668,-2.1483653],[-79.9675663,-2.1483651],[-79.9675658,-2.1483649],[-79.9675654,-2.1483647],[-79.9675649,-2.1483646],[-79.9675644,-2.1483646],[-79.9675638,-2.1483645],[-79.9675633,-2.1483646],[-79.9675628,-2.1483646],[-79.9675623,-2.1483647],[-79.9675618,-2.1483649],[-79.9675614,-2.1483651],[-79.9675609,-2.1483653],[-79.9675605,-2.1483656],[-79.9675601,-2.1483659],[-79.9675597,-2.1483663],[-79.9675594,-2.1483666],[-79.967559,-2.148367],[-79.9675588,-2.1483675],[-79.9675585,-2.1483679],[-79.9675583,-2.1483684],[-79.9675582,-2.1483689],[-79.9675581,-2.1483694],[-79.967558,-2.1483699],[-79.967558,-2.1483704]]]]}},
{"type":"Feature","properties":{"Layer":"CB-4"},"geometry":{"type":"MultiPolygon","coordinates":[[[[-79.967547,-2.1485174],[-79.967547,-2.1485179],[-79.967547,-2.1485184],[-79.9675472,-2.1485189],[-79.9675473,-2.1485194],[-79.9675475,-2.1485199],[-79.9675477,-2.1485203],[-79.967548,-2.1485208],[-79.9675483,-2.1485212],[-79.9675487,-2.1485215],[-79.967549,-2.1485219],[-79.9675495,-2.1485222],[-79.9675499,-2.1485225],[-79.9675503,-2.1485227],[-79.9675508,-2.1485229],[-79.9675513,-2.1485231],[-79.9675518,-2.1485232],[-79.9675523,-2.1485232],[-79.9675528,-2.1485233],[-79.9675533,-2.1485232],[-79.9675538,-2.1485232],[-79.9675543,-2.1485231],[-79.9675548,-2.1485229],[-79.9675553,-2.1485227],[-79.9675557,-2.1485225],[-79.9675562,-2.1485222],[-79.9675566,-2.1485219],[-79.967557,-2.1485215],[-79.9675573,-2.1485212],[-79.9675576,-2.1485208],[-79.9675579,-2.1485203],[-79.9675581,-2.1485199],[-79.9675583,-2.1485194],[-79.9675585,-2.1485189],[-79.9675586,-2.1485184],[-79.9675587,-2.1485179],[-79.9675587,-2.1485174],[-79.9675587,-2.1485169],[-79.9675586,-2.1485164],[-79.9675585,-2.1485159],[-79.9675583,-2.1485154],[-79.9675581,-2.1485149],[-79.9675579,-2.1485144],[-79.9675576,-2.148514],[-79.9675573,-2.1485136],[-79.967557,-2.1485132],[-79.9675566,-2.1485129],[-79.9675562,-2.1485125],[-79.9675558,-2.1485123],[-79.9675553,-2.148512],[-79.9675548,-2.1485118],[-79.9675543,-2.1485117],[-79.9675538,-2.1485116],[-79.9675533,-2.1485115],[-79.9675528,-2.1485115],[-79.9675523,-2.1485115],[-79.9675518,-2.1485116],[-79.9675513,-2.1485117],[-79.9675508,-2.1485118],[-79.9675503,-2.148512],[-79.9675499,-2.1485123],[-79.9675495,-2.1485125],[-79.9675491,-2.1485129],[-79.9675487,-2.1485132],[-79.9675483,-2.1485136],[-79.967548,-2.148514],[-79.9675477,-2.1485144],[-79.9675475,-2.1485149],[-79.9675473,-2.1485154],[-79.9675472,-2.1485158],[-79.967547,-2.1485163],[-79.967547,-2.1485169],[-79.967547,-2.1485174]]]]}},
{"type":"Feature","properties":{"Layer":"CB-6"},"geometry":{"type":"MultiPolygon","coordinates":[[[[-79.9675188,-2.1486805],[-79.9675188,-2.148681],[-79.9675189,-2.1486816],[-79.967519,-2.1486821],[-79.9675192,-2.1486825],[-79.9675194,-2.148683],[-79.9675196,-2.1486835],[-79.9675199,-2.1486839],[-79.9675202,-2.1486843],[-79.9675205,-2.1486847],[-79.9675209,-2.148685],[-79.9675213,-2.1486854],[-79.9675217,-2.1486856],[-79.9675222,-2.1486859],[-79.9675227,-2.1486861],[-79.9675232,-2.1486862],[-79.9675237,-2.1486863],[-79.9675242,-2.1486864],[-79.9675247,-2.1486864],[-79.9675252,-2.1486864],[-79.9675257,-2.1486863],[-79.9675262,-2.1486862],[-79.9675267,-2.1486861],[-79.9675271,-2.1486859],[-79.9675276,-2.1486856],[-79.967528,-2.1486854],[-79.9675284,-2.148685],[-79.9675288,-2.1486847],[-79.9675292,-2.1486843],[-79.9675295,-2.1486839],[-79.9675297,-2.1486835],[-79.96753,-2.148683],[-79.9675302,-2.1486826],[-79.9675303,-2.1486821],[-79.9675304,-2.1486816],[-79.9675305,-2.148681],[-79.9675305,-2.1486805],[-79.9675305,-2.14868],[-79.9675304,-2.1486795],[-79.9675303,-2.148679],[-79.9675302,-2.1486785],[-79.96753,-2.148678],[-79.9675298,-2.1486776],[-79.9675295,-2.1486772],[-79.9675292,-2.1486767],[-79.9675288,-2.1486764],[-79.9675284,-2.148676],[-79.967528,-2.1486757],[-79.9675276,-2.1486754],[-79.9675272,-2.1486752],[-79.9675267,-2.148675],[-79.9675262,-2.1486748],[-79.9675257,-2.1486747],[-79.9675252,-2.1486747],[-79.9675247,-2.1486746],[-79.9675242,-2.1486747],[-79.9675237,-2.1486747],[-79.9675232,-2.1486748],[-79.9675227,-2.148675],[-79.9675222,-2.1486752],[-79.9675217,-2.1486754],[-79.9675213,-2.1486757],[-79.9675209,-2.148676],[-79.9675205,-2.1486764],[-79.9675202,-2.1486767],[-79.9675199,-2.1486771],[-79.9675196,-2.1486776],[-79.9675194,-2.148678],[-79.9675192,-2.1486785],[-79.967519,-2.148679],[-79.9675189,-2.1486795],[-79.9675188,-2.14868],[-79.9675188,-2.1486805]]]]}},
{"type":"Feature","properties":{"Layer":"CB-7"},"geometry":{"type":"MultiPolygon","coordinates":[[[[-79.9676034,-2.1487455],[-79.9676035,-2.148746],[-79.9676035,-2.1487465],[-79.9676036,-2.148747],[-79.9676038,-2.1487475],[-79.967604,-2.148748],[-79.9676042,-2.1487484],[-79.9676045,-2.1487489],[-79.9676048,-2.1487493],[-79.9676052,-2.1487497],[-79.9676055,-2.14875],[-79.9676059,-2.1487503],[-79.9676064,-2.1487506],[-79.9676068,-2.1487508],[-79.9676073,-2.148751],[-79.9676078,-2.1487512],[-79.9676083,-2.1487513],[-79.9676088,-2.1487514],[-79.9676093,-2.1487514],[-79.9676098,-2.1487514],[-79.9676103,-2.1487513],[-79.9676108,-2.1487512],[-79.9676113,-2.148751],[-79.9676118,-2.1487508],[-79.9676122,-2.1487506],[-79.9676127,-2.1487503],[-79.9676131,-2.14875],[-79.9676134,-2.1487497],[-79.9676138,-2.1487493],[-79.9676141,-2.1487489],[-79.9676144,-2.1487484],[-79.9676146,-2.148748],[-79.9676148,-2.1487475],[-79.967615,-2.148747],[-79.9676151,-2.1487465],[-79.9676151,-2.148746],[-79.9676152,-2.1487455],[-79.9676151,-2.148745],[-79.9676151,-2.1487445],[-79.967615,-2.148744],[-79.9676148,-2.1487435],[-79.9676146,-2.148743],[-79.9676144,-2.1487425],[-79.9676141,-2.1487421],[-79.9676138,-2.1487417],[-79.9676135,-2.1487413],[-79.9676131,-2.148741],[-79.9676127,-2.1487407],[-79.9676122,-2.1487404],[-79.9676118,-2.1487401],[-79.9676113,-2.14874],[-79.9676108,-2.1487398],[-79.9676103,-2.1487397],[-79.9676098,-2.1487396],[-79.9676093,-2.1487396],[-79.9676088,-2.1487396],[-79.9676083,-2.1487397],[-79.9676078,-2.1487398],[-79.9676073,-2.1487399],[-79.9676068,-2.1487401],[-79.9676064,-2.1487404],[-79.9676059,-2.1487407],[-79.9676055,-2.148741],[-79.9676052,-2.1487413],[-79.9676048,-2.1487417],[-79.9676045,-2.1487421],[-79.9676042,-2.1487425],[-79.967604,-2.148743],[-79.9676038,-2.1487435],[-79.9676036,-2.148744],[-79.9676035,-2.1487445],[-79.9676035,-2.148745],[-79.9676034,-2.1487455]]]]}},
{"type":"Feature","properties":{"Layer":"CB-8"},"geometry":{"type":"MultiPolygon","coordinates":[[[[-79.9677637,-2.1487285],[-79.9677637,-2.148729],[-79.9677638,-2.1487295],[-79.9677639,-2.14873],[-79.967764,-2.1487305],[-79.9677642,-2.148731],[-79.9677645,-2.1487314],[-79.9677647,-2.1487319],[-79.9677651,-2.1487323],[-79.9677654,-2.1487327],[-79.9677658,-2.148733],[-79.9677662,-2.1487333],[-79.9677666,-2.1487336],[-79.9677671,-2.1487338],[-79.9677675,-2.148734],[-79.967768,-2.1487342],[-79.9677685,-2.1487343],[-79.967769,-2.1487344],[-79.9677695,-2.1487344],[-79.9677701,-2.1487344],[-79.9677706,-2.1487343],[-79.9677711,-2.1487342],[-79.9677716,-2.148734],[-79.967772,-2.1487338],[-79.9677725,-2.1487336],[-79.9677729,-2.1487333],[-79.9677733,-2.148733],[-79.9677737,-2.1487327],[-79.967774,-2.1487323],[-79.9677743,-2.1487319],[-79.9677746,-2.1487314],[-79.9677749,-2.148731],[-79.9677751,-2.1487305],[-79.9677752,-2.14873],[-79.9677753,-2.1487295],[-79.9677754,-2.148729],[-79.9677754,-2.1487285],[-79.9677754,-2.148728],[-79.9677753,-2.1487275],[-79.9677752,-2.148727],[-79.9677751,-2.1487265],[-79.9677749,-2.148726],[-79.9677746,-2.1487255],[-79.9677744,-2.1487251],[-79.967774,-2.1487247],[-79.9677737,-2.1487243],[-79.9677733,-2.148724],[-79.9677729,-2.1487237],[-79.9677725,-2.1487234],[-79.967772,-2.1487231],[-79.9677716,-2.148723],[-79.9677711,-2.1487228],[-79.9677706,-2.1487227],[-79.9677701,-2.1487226],[-79.9677696,-2.1487226],[-79.967769,-2.1487226],[-79.9677685,-2.1487227],[-79.967768,-2.1487228],[-79.9677676,-2.1487229],[-79.9677671,-2.1487231],[-79.9677666,-2.1487234],[-79.9677662,-2.1487237],[-79.9677658,-2.148724],[-79.9677654,-2.1487243],[-79.9677651,-2.1487247],[-79.9677648,-2.1487251],[-79.9677645,-2.1487255],[-79.9677642,-2.148726],[-79.967764,-2.1487265],[-79.9677639,-2.148727],[-79.9677638,-2.1487275],[-79.9677637,-2.148728],[-79.9677637,-2.1487285]]]]}},
{"type":"Feature","properties":{"Layer":"CB-9"},"geometry":{"type":"MultiPolygon","coordinates":[[[[-79.9677949,-2.1488315],[-79.9677949,-2.148832],[-79.967795,-2.1488325],[-79.9677951,-2.148833],[-79.9677952,-2.1488335],[-79.9677954,-2.148834],[-79.9677957,-2.1488344],[-79.9677959,-2.1488349],[-79.9677962,-2.1488353],[-79.9677966,-2.1488357],[-79.967797,-2.148836],[-79.9677974,-2.1488363],[-79.9677978,-2.1488366],[-79.9677983,-2.1488368],[-79.9677987,-2.148837],[-79.9677992,-2.1488372],[-79.9677997,-2.1488373],[-79.9678002,-2.1488374],[-79.9678007,-2.1488374],[-79.9678012,-2.1488374],[-79.9678017,-2.1488373],[-79.9678022,-2.1488372],[-79.9678027,-2.148837],[-79.9678032,-2.1488368],[-79.9678037,-2.1488366],[-79.9678041,-2.1488363],[-79.9678045,-2.148836],[-79.9678049,-2.1488357],[-79.9678052,-2.1488353],[-79.9678055,-2.1488349],[-79.9678058,-2.1488345],[-79.967806,-2.148834],[-79.9678062,-2.1488335],[-79.9678064,-2.148833],[-79.9678065,-2.1488325],[-79.9678066,-2.148832],[-79.9678066,-2.1488315],[-79.9678066,-2.148831],[-79.9678065,-2.1488305],[-79.9678064,-2.14883],[-79.9678062,-2.1488295],[-79.967806,-2.148829],[-79.9678058,-2.1488286],[-79.9678055,-2.1488281],[-79.9678052,-2.1488277],[-79.9678049,-2.1488273],[-79.9678045,-2.148827],[-79.9678041,-2.1488267],[-79.9678037,-2.1488264],[-79.9678032,-2.1488262],[-79.9678027,-2.148826],[-79.9678023,-2.1488258],[-79.9678018,-2.1488257],[-79.9678012,-2.1488256],[-79.9678007,-2.1488256],[-79.9678002,-2.1488256],[-79.9677997,-2.1488257],[-79.9677992,-2.1488258],[-79.9677987,-2.148826],[-79.9677983,-2.1488262],[-79.9677978,-2.1488264],[-79.9677974,-2.1488267],[-79.967797,-2.148827],[-79.9677966,-2.1488273],[-79.9677962,-2.1488277],[-79.9677959,-2.1488281],[-79.9677957,-2.1488286],[-79.9677954,-2.148829],[-79.9677952,-2.1488295],[-79.9677951,-2.14883],[-79.967795,-2.1488305],[-79.9677949,-2.148831],[-79.9677949,-2.1488315]]]]}},
{"type":"Feature","properties":{"Layer":"CB-10"},"geometry":{"type":"MultiPolygon","coordinates":[[[[-79.9678711,-2.1487403],[-79.9678711,-2.1487408],[-79.9678712,-2.1487414],[-79.9678713,-2.1487419],[-79.9678715,-2.1487423],[-79.9678717,-2.1487428],[-79.9678719,-2.1487433],[-79.9678722,-2.1487437],[-79.9678725,-2.1487441],[-79.9678728,-2.1487445],[-79.9678732,-2.1487448],[-79.9678736,-2.1487452],[-79.967874,-2.1487454],[-79.9678745,-2.1487457],[-79.967875,-2.1487459],[-79.9678754,-2.148746],[-79.9678759,-2.1487461],[-79.9678764,-2.1487462],[-79.967877,-2.1487462],[-79.9678775,-2.1487462],[-79.967878,-2.1487461],[-79.9678785,-2.148746],[-79.967879,-2.1487459],[-79.9678794,-2.1487457],[-79.9678799,-2.1487454],[-79.9678803,-2.1487452],[-79.9678807,-2.1487449],[-79.9678811,-2.1487445],[-79.9678815,-2.1487441],[-79.9678818,-2.1487437],[-79.967882,-2.1487433],[-79.9678823,-2.1487428],[-79.9678825,-2.1487424],[-79.9678826,-2.1487419],[-79.9678827,-2.1487414],[-79.9678828,-2.1487409],[-79.9678828,-2.1487403],[-79.9678828,-2.1487398],[-79.9678827,-2.1487393],[-79.9678826,-2.1487388],[-79.9678825,-2.1487383],[-79.9678823,-2.1487378],[-79.967882,-2.1487374],[-79.9678818,-2.148737],[-79.9678815,-2.1487365],[-79.9678811,-2.1487362],[-79.9678807,-2.1487358],[-79.9678803,-2.1487355],[-79.9678799,-2.1487352],[-79.9678794,-2.148735],[-79.967879,-2.1487348],[-79.9678785,-2.1487346],[-79.967878,-2.1487345],[-79.9678775,-2.1487345],[-79.967877,-2.1487344],[-79.9678765,-2.1487345],[-79.967876,-2.1487345],[-79.9678755,-2.1487346],[-79.967875,-2.1487348],[-79.9678745,-2.148735],[-79.967874,-2.1487352],[-79.9678736,-2.1487355],[-79.9678732,-2.1487358],[-79.9678728,-2.1487362],[-79.9678725,-2.1487365],[-79.9678722,-2.148737],[-79.9678719,-2.1487374],[-79.9678717,-2.1487378],[-79.9678715,-2.1487383],[-79.9678713,-2.1487388],[-79.9678712,-2.1487393],[-79.9678711,-2.1487398],[-79.9678711,-2.1487403]]]]}},
{"type":"Feature","properties":{"Layer":"CB-11"},"geometry":{"type":"MultiPolygon","coordinates":[[[[-79.9680586,-2.1486324],[-79.9680586,-2.1486329],[-79.9680587,-2.1486334],[-79.9680588,-2.1486339],[-79.9680589,-2.1486344],[-79.9680591,-2.1486349],[-79.9680594,-2.1486353],[-79.9680596,-2.1486358],[-79.96806,-2.1486362],[-79.9680603,-2.1486366],[-79.9680607,-2.1486369],[-79.9680611,-2.1486372],[-79.9680615,-2.1486375],[-79.968062,-2.1486377],[-79.9680624,-2.1486379],[-79.9680629,-2.1486381],[-79.9680634,-2.1486382],[-79.9680639,-2.1486383],[-79.9680644,-2.1486383],[-79.968065,-2.1486383],[-79.9680655,-2.1486382],[-79.968066,-2.1486381],[-79.9680664,-2.1486379],[-79.9680669,-2.1486377],[-79.9680674,-2.1486375],[-79.9680678,-2.1486372],[-79.9680682,-2.1486369],[-79.9680686,-2.1486366],[-79.9680689,-2.1486362],[-79.9680692,-2.1486358],[-79.9680695,-2.1486354],[-79.9680698,-2.1486349],[-79.96807,-2.1486344],[-79.9680701,-2.1486339],[-79.9680702,-2.1486334],[-79.9680703,-2.1486329],[-79.9680703,-2.1486324],[-79.9680703,-2.1486319],[-79.9680702,-2.1486314],[-79.9680701,-2.1486309],[-79.96807,-2.1486304],[-79.9680698,-2.1486299],[-79.9680695,-2.1486295],[-79.9680692,-2.148629],[-79.9680689,-2.1486286],[-79.9680686,-2.1486282],[-79.9680682,-2.1486279],[-79.9680678,-2.1486276],[-79.9680674,-2.1486273],[-79.9680669,-2.1486271],[-79.9680665,-2.1486269],[-79.968066,-2.1486267],[-79.9680655,-2.1486266],[-79.968065,-2.1486265],[-79.9680645,-2.1486265],[-79.9680639,-2.1486265],[-79.9680634,-2.1486266],[-79.9680629,-2.1486267],[-79.9680624,-2.1486269],[-79.968062,-2.1486271],[-79.9680615,-2.1486273],[-79.9680611,-2.1486276],[-79.9680607,-2.1486279],[-79.9680603,-2.1486282],[-79.96806,-2.1486286],[-79.9680596,-2.148629],[-79.9680594,-2.1486295],[-79.9680591,-2.1486299],[-79.9680589,-2.1486304],[-79.9680588,-2.1486309],[-79.9680587,-2.1486314],[-79.9680586,-2.1486319],[-79.9680586,-2.1486324]]]]}},
{"type":"Feature","properties":{"Layer":"CB-12"},"geometry":{"type":"MultiPolygon","coordinates":[[[[-79.9681162,-2.1487407],[-79.9681162,-2.1487412],[-79.9681163,-2.1487418],[-79.9681164,-2.1487423],[-79.9681165,-2.1487427],[-79.9681167,-2.1487432],[-79.968117,-2.1487437],[-79.9681173,-2.1487441],[-79.9681176,-2.1487445],[-79.9681179,-2.1487449],[-79.9681183,-2.1487452],[-79.9681187,-2.1487456],[-79.9681191,-2.1487458],[-79.9681196,-2.1487461],[-79.96812,-2.1487463],[-79.9681205,-2.1487464],[-79.968121,-2.1487465],[-79.9681215,-2.1487466],[-79.9681221,-2.1487466],[-79.9681226,-2.1487466],[-79.9681231,-2.1487465],[-79.9681236,-2.1487464],[-79.9681241,-2.1487463],[-79.9681245,-2.1487461],[-79.968125,-2.1487458],[-79.9681254,-2.1487456],[-79.9681258,-2.1487453],[-79.9681262,-2.1487449],[-79.9681265,-2.1487445],[-79.9681269,-2.1487441],[-79.9681271,-2.1487437],[-79.9681274,-2.1487432],[-79.9681276,-2.1487428],[-79.9681277,-2.1487423],[-79.9681278,-2.1487418],[-79.9681279,-2.1487413],[-79.9681279,-2.1487407],[-79.9681279,-2.1487402],[-79.9681278,-2.1487397],[-79.9681277,-2.1487392],[-79.9681276,-2.1487387],[-79.9681274,-2.1487382],[-79.9681271,-2.1487378],[-79.9681269,-2.1487374],[-79.9681265,-2.1487369],[-79.9681262,-2.1487366],[-79.9681258,-2.1487362],[-79.9681254,-2.1487359],[-79.968125,-2.1487356],[-79.9681245,-2.1487354],[-79.9681241,-2.1487352],[-79.9681236,-2.148735],[-79.9681231,-2.1487349],[-79.9681226,-2.1487349],[-79.9681221,-2.1487348],[-79.9681215,-2.1487349],[-79.968121,-2.1487349],[-79.9681205,-2.148735],[-79.9681201,-2.1487352],[-79.9681196,-2.1487354],[-79.9681191,-2.1487356],[-79.9681187,-2.1487359],[-79.9681183,-2.1487362],[-79.9681179,-2.1487366],[-79.9681176,-2.1487369],[-79.9681173,-2.1487373],[-79.968117,-2.1487378],[-79.9681167,-2.1487382],[-79.9681165,-2.1487387],[-79.9681164,-2.1487392],[-79.9681163,-2.1487397],[-79.9681162,-2.1487402],[-79.9681162,-2.1487407]]]]}},
{"type":"Feature","properties":{"Layer":"M-5"},"geometry":{"type":"MultiPolygon","coordinates":[[[[-79.9665978,-2.1441741],[-79.9665978,-2.1441744],[-79.9665978,-2.1441747],[-79.9665979,-2.1441751],[-79.966598,-2.1441754],[-79.9665981,-2.1441757],[-79.9665983,-2.144176],[-79.9665984,-2.1441763],[-79.9665986,-2.1441765],[-79.9665989,-2.1441768],[-79.9665991,-2.144177],[-79.9665994,-2.1441772],[-79.9665996,-2.1441774],[-79.9665999,-2.1441775],[-79.9666002,-2.1441776],[-79.9666005,-2.1441777],[-79.9666009,-2.1441778],[-79.9666012,-2.1441779],[-79.9666015,-2.1441779],[-79.9666019,-2.1441779],[-79.9666022,-2.1441778],[-79.9666025,-2.1441777],[-79.9666028,-2.1441776],[-79.9666031,-2.1441775],[-79.9666034,-2.1441774],[-79.9666037,-2.1441772],[-79.9666039,-2.144177],[-79.9666042,-2.1441768],[-79.9666044,-2.1441765],[-79.9666046,-2.1441763],[-79.9666048,-2.144176],[-79.9666049,-2.1441757],[-79.9666051,-2.1441754],[-79.9666052,-2.1441751],[-79.9666052,-2.1441747],[-79.9666053,-2.1441744],[-79.9666053,-2.1441741],[-79.9666053,-2.1441738],[-79.9666052,-2.1441734],[-79.9666052,-2.1441731],[-79.9666051,-2.1441728],[-79.9666049,-2.1441725],[-79.9666048,-2.1441722],[-79.9666046,-2.1441719],[-79.9666044,-2.1441716],[-79.9666042,-2.1441714],[-79.966604,-2.1441712],[-79.9666037,-2.144171],[-79.9666034,-2.1441708],[-79.9666031,-2.1441706],[-79.9666028,-2.1441705],[-79.9666025,-2.1441704],[-79.9666022,-2.1441703],[-79.9666019,-2.1441703],[-79.9666015,-2.1441703],[-79.9666012,-2.1441703],[-79.9666009,-2.1441703],[-79.9666006,-2.1441704],[-79.9666002,-2.1441705],[-79.9665999,-2.1441706],[-79.9665996,-2.1441708],[-79.9665994,-2.144171],[-79.9665991,-2.1441712],[-79.9665989,-2.1441714],[-79.9665986,-2.1441716],[-79.9665984,-2.1441719],[-79.9665983,-2.1441722],[-79.9665981,-2.1441725],[-79.966598,-2.1441728],[-79.9665979,-2.1441731],[-79.9665978,-2.1441734],[-79.9665978,-2.1441737],[-79.9665978,-2.1441741]]]]}},
{"type":"Feature","properties":{"Layer":"M-6"},"geometry":{"type":"MultiPolygon","coordinates":[[[[-79.9664667,-2.1440974],[-79.9664667,-2.1440977],[-79.9664668,-2.1440981],[-79.9664668,-2.1440984],[-79.9664669,-2.1440987],[-79.9664671,-2.144099],[-79.9664672,-2.1440993],[-79.9664674,-2.1440996],[-79.9664676,-2.1440999],[-79.9664678,-2.1441001],[-79.966468,-2.1441003],[-79.9664683,-2.1441005],[-79.9664686,-2.1441007],[-79.9664689,-2.1441009],[-79.9664692,-2.144101],[-79.9664695,-2.1441011],[-79.9664698,-2.1441012],[-79.9664701,-2.1441012],[-79.9664705,-2.1441012],[-79.9664708,-2.1441012],[-79.9664711,-2.1441012],[-79.9664714,-2.1441011],[-79.9664718,-2.144101],[-79.9664721,-2.1441009],[-79.9664724,-2.1441007],[-79.9664726,-2.1441005],[-79.9664729,-2.1441003],[-79.9664731,-2.1441001],[-79.9664734,-2.1440999],[-79.9664736,-2.1440996],[-79.9664737,-2.1440993],[-79.9664739,-2.144099],[-79.966474,-2.1440987],[-79.9664741,-2.1440984],[-79.9664742,-2.1440981],[-79.9664742,-2.1440978],[-79.9664742,-2.1440974],[-79.9664742,-2.1440971],[-79.9664742,-2.1440968],[-79.9664741,-2.1440964],[-79.966474,-2.1440961],[-79.9664739,-2.1440958],[-79.9664737,-2.1440955],[-79.9664736,-2.1440952],[-79.9664734,-2.144095],[-79.9664731,-2.1440947],[-79.9664729,-2.1440945],[-79.9664726,-2.1440943],[-79.9664724,-2.1440941],[-79.9664721,-2.144094],[-79.9664718,-2.1440939],[-79.9664715,-2.1440938],[-79.9664711,-2.1440937],[-79.9664708,-2.1440936],[-79.9664705,-2.1440936],[-79.9664701,-2.1440936],[-79.9664698,-2.1440937],[-79.9664695,-2.1440938],[-79.9664692,-2.1440939],[-79.9664689,-2.144094],[-79.9664686,-2.1440941],[-79.9664683,-2.1440943],[-79.9664681,-2.1440945],[-79.9664678,-2.1440947],[-79.9664676,-2.144095],[-79.9664674,-2.1440952],[-79.9664672,-2.1440955],[-79.9664671,-2.1440958],[-79.9664669,-2.1440961],[-79.9664668,-2.1440964],[-79.9664668,-2.1440968],[-79.9664667,-2.1440971],[-79.9664667,-2.1440974]]]]}},
{"type":"Feature","properties":{"Layer":"M-1"},"geometry":{"type":"MultiPolygon","coordinates":[[[[-79.9663911,-2.1441839],[-79.9663911,-2.1441842],[-79.9663911,-2.1441845],[-79.9663912,-2.1441849],[-79.9663913,-2.1441852],[-79.9663914,-2.1441855],[-79.9663916,-2.1441858],[-79.9663918,-2.144186],[-79.966392,-2.1441863],[-79.9663922,-2.1441866],[-79.9663924,-2.1441868],[-79.9663927,-2.144187],[-79.966393,-2.1441872],[-79.9663932,-2.1441873],[-79.9663936,-2.1441874],[-79.9663939,-2.1441875],[-79.9663942,-2.1441876],[-79.9663945,-2.1441877],[-79.9663948,-2.1441877],[-79.9663952,-2.1441877],[-79.9663955,-2.1441876],[-79.9663958,-2.1441875],[-79.9663961,-2.1441874],[-79.9663964,-2.1441873],[-79.9663967,-2.1441872],[-79.966397,-2.144187],[-79.9663973,-2.1441868],[-79.9663975,-2.1441866],[-79.9663977,-2.1441863],[-79.9663979,-2.1441861],[-79.9663981,-2.1441858],[-79.9663983,-2.1441855],[-79.9663984,-2.1441852],[-79.9663985,-2.1441849],[-79.9663986,-2.1441845],[-79.9663986,-2.1441842],[-79.9663986,-2.1441839],[-79.9663986,-2.1441835],[-79.9663986,-2.1441832],[-79.9663985,-2.1441829],[-79.9663984,-2.1441826],[-79.9663983,-2.1441823],[-79.9663981,-2.144182],[-79.9663979,-2.1441817],[-79.9663977,-2.1441814],[-79.9663975,-2.1441812],[-79.9663973,-2.144181],[-79.966397,-2.1441808],[-79.9663967,-2.1441806],[-79.9663964,-2.1441804],[-79.9663961,-2.1441803],[-79.9663958,-2.1441802],[-79.9663955,-2.1441801],[-79.9663952,-2.1441801],[-79.9663948,-2.1441801],[-79.9663945,-2.1441801],[-79.9663942,-2.1441801],[-79.9663939,-2.1441802],[-79.9663936,-2.1441803],[-79.9663933,-2.1441804],[-79.966393,-2.1441806],[-79.9663927,-2.1441808],[-79.9663924,-2.144181],[-79.9663922,-2.1441812],[-79.966392,-2.1441814],[-79.9663918,-2.1441817],[-79.9663916,-2.144182],[-79.9663914,-2.1441823],[-79.9663913,-2.1441826],[-79.9663912,-2.1441829],[-79.9663911,-2.1441832],[-79.9663911,-2.1441835],[-79.9663911,-2.1441839]]]]}},
{"type":"Feature","properties":{"Layer":"M-2"},"geometry":{"type":"MultiPolygon","coordinates":[[[[-79.9662978,-2.1441784],[-79.9662978,-2.1441787],[-79.9662979,-2.1441791],[-79.966298,-2.1441794],[-79.9662981,-2.1441797],[-79.9662982,-2.14418],[-79.9662983,-2.1441803],[-79.9662985,-2.1441806],[-79.9662987,-2.1441808],[-79.9662989,-2.1441811],[-79.9662992,-2.1441813],[-79.9662994,-2.1441815],[-79.9662997,-2.1441817],[-79.9663,-2.1441818],[-79.9663003,-2.144182],[-79.9663006,-2.1441821],[-79.9663009,-2.1441821],[-79.9663013,-2.1441822],[-79.9663016,-2.1441822],[-79.9663019,-2.1441822],[-79.9663023,-2.1441821],[-79.9663026,-2.1441821],[-79.9663029,-2.144182],[-79.9663032,-2.1441818],[-79.9663035,-2.1441817],[-79.9663038,-2.1441815],[-79.966304,-2.1441813],[-79.9663043,-2.1441811],[-79.9663045,-2.1441808],[-79.9663047,-2.1441806],[-79.9663049,-2.1441803],[-79.966305,-2.14418],[-79.9663051,-2.1441797],[-79.9663052,-2.1441794],[-79.9663053,-2.1441791],[-79.9663054,-2.1441787],[-79.9663054,-2.1441784],[-79.9663054,-2.1441781],[-79.9663053,-2.1441777],[-79.9663052,-2.1441774],[-79.9663051,-2.1441771],[-79.966305,-2.1441768],[-79.9663049,-2.1441765],[-79.9663047,-2.1441762],[-79.9663045,-2.144176],[-79.9663043,-2.1441757],[-79.966304,-2.1441755],[-79.9663038,-2.1441753],[-79.9663035,-2.1441751],[-79.9663032,-2.144175],[-79.9663029,-2.1441748],[-79.9663026,-2.1441747],[-79.9663023,-2.1441747],[-79.9663019,-2.1441746],[-79.9663016,-2.1441746],[-79.9663013,-2.1441746],[-79.966301,-2.1441747],[-79.9663006,-2.1441747],[-79.9663003,-2.1441748],[-79.9663,-2.144175],[-79.9662997,-2.1441751],[-79.9662994,-2.1441753],[-79.9662992,-2.1441755],[-79.9662989,-2.1441757],[-79.9662987,-2.144176],[-79.9662985,-2.1441762],[-79.9662983,-2.1441765],[-79.9662982,-2.1441768],[-79.9662981,-2.1441771],[-79.966298,-2.1441774],[-79.9662979,-2.1441777],[-79.9662978,-2.1441781],[-79.9662978,-2.1441784]]]]}},
{"type":"Feature","properties":{"Layer":"M-4"},"geometry":{"type":"MultiPolygon","coordinates":[[[[-79.9661162,-2.1442233],[-79.9661162,-2.1442237],[-79.9661163,-2.144224],[-79.9661164,-2.1442243],[-79.9661164,-2.1442246],[-79.9661166,-2.1442249],[-79.9661167,-2.1442252],[-79.9661169,-2.1442255],[-79.9661171,-2.1442258],[-79.9661173,-2.144226],[-79.9661176,-2.1442262],[-79.9661178,-2.1442264],[-79.9661181,-2.1442266],[-79.9661184,-2.1442268],[-79.9661187,-2.1442269],[-79.966119,-2.144227],[-79.9661193,-2.1442271],[-79.9661197,-2.1442271],[-79.96612,-2.1442271],[-79.9661203,-2.1442271],[-79.9661206,-2.1442271],[-79.966121,-2.144227],[-79.9661213,-2.1442269],[-79.9661216,-2.1442268],[-79.9661219,-2.1442266],[-79.9661222,-2.1442264],[-79.9661224,-2.1442262],[-79.9661227,-2.144226],[-79.9661229,-2.1442258],[-79.9661231,-2.1442255],[-79.9661233,-2.1442252],[-79.9661234,-2.1442249],[-79.9661235,-2.1442246],[-79.9661236,-2.1442243],[-79.9661237,-2.144224],[-79.9661238,-2.1442237],[-79.9661238,-2.1442233],[-79.9661238,-2.144223],[-79.9661237,-2.1442227],[-79.9661236,-2.1442223],[-79.9661235,-2.144222],[-79.9661234,-2.1442217],[-79.9661233,-2.1442214],[-79.9661231,-2.1442212],[-79.9661229,-2.1442209],[-79.9661227,-2.1442206],[-79.9661224,-2.1442204],[-79.9661222,-2.1442202],[-79.9661219,-2.14422],[-79.9661216,-2.1442199],[-79.9661213,-2.1442198],[-79.966121,-2.1442197],[-79.9661207,-2.1442196],[-79.9661203,-2.1442195],[-79.96612,-2.1442195],[-79.9661197,-2.1442195],[-79.9661193,-2.1442196],[-79.966119,-2.1442197],[-79.9661187,-2.1442198],[-79.9661184,-2.1442199],[-79.9661181,-2.14422],[-79.9661178,-2.1442202],[-79.9661176,-2.1442204],[-79.9661173,-2.1442206],[-79.9661171,-2.1442209],[-79.9661169,-2.1442211],[-79.9661167,-2.1442214],[-79.9661166,-2.1442217],[-79.9661165,-2.144222],[-79.9661164,-2.1442223],[-79.9661163,-2.1442227],[-79.9661162,-2.144223],[-79.9661162,-2.1442233]]]]}},
{"type":"Feature","properties":{"Layer":"M-3"},"geometry":{"type":"MultiPolygon","coordinates":[[[[-79.9662078,-2.1442889],[-79.9662078,-2.1442892],[-79.9662079,-2.1442896],[-79.966208,-2.1442899],[-79.9662081,-2.1442902],[-79.9662082,-2.1442905],[-79.9662083,-2.1442908],[-79.9662085,-2.1442911],[-79.9662087,-2.1442913],[-79.9662089,-2.1442916],[-79.9662092,-2.1442918],[-79.9662094,-2.144292],[-79.9662097,-2.1442922],[-79.96621,-2.1442923],[-79.9662103,-2.1442925],[-79.9662106,-2.1442926],[-79.9662109,-2.1442926],[-79.9662113,-2.1442927],[-79.9662116,-2.1442927],[-79.9662119,-2.1442927],[-79.9662122,-2.1442926],[-79.9662126,-2.1442926],[-79.9662129,-2.1442925],[-79.9662132,-2.1442923],[-79.9662135,-2.1442922],[-79.9662138,-2.144292],[-79.966214,-2.1442918],[-79.9662143,-2.1442916],[-79.9662145,-2.1442913],[-79.9662147,-2.1442911],[-79.9662149,-2.1442908],[-79.966215,-2.1442905],[-79.9662151,-2.1442902],[-79.9662152,-2.1442899],[-79.9662153,-2.1442896],[-79.9662154,-2.1442892],[-79.9662154,-2.1442889],[-79.9662154,-2.1442886],[-79.9662153,-2.1442882],[-79.9662152,-2.1442879],[-79.9662151,-2.1442876],[-79.966215,-2.1442873],[-79.9662149,-2.144287],[-79.9662147,-2.1442867],[-79.9662145,-2.1442865],[-79.9662143,-2.1442862],[-79.966214,-2.144286],[-79.9662138,-2.1442858],[-79.9662135,-2.1442856],[-79.9662132,-2.1442855],[-79.9662129,-2.1442853],[-79.9662126,-2.1442852],[-79.9662123,-2.1442852],[-79.9662119,-2.1442851],[-79.9662116,-2.1442851],[-79.9662113,-2.1442851],[-79.9662109,-2.1442852],[-79.9662106,-2.1442852],[-79.9662103,-2.1442853],[-79.96621,-2.1442855],[-79.9662097,-2.1442856],[-79.9662094,-2.1442858],[-79.9662092,-2.144286],[-79.9662089,-2.1442862],[-79.9662087,-2.1442865],[-79.9662085,-2.1442867],[-79.9662083,-2.144287],[-79.9662082,-2.1442873],[-79.9662081,-2.1442876],[-79.966208,-2.1442879],[-79.9662079,-2.1442882],[-79.9662078,-2.1442886],[-79.9662078,-2.1442889]]]]}},
{"type":"Feature","properties":{"Layer":"E9"},"geometry":{"type":"MultiPolygon","coordinates":[[[[-79.9678204,-2.1443191],[-79.9678204,-2.1443197],[-79.9678205,-2.1443203],[-79.9678206,-2.1443209],[-79.9678208,-2.1443215],[-79.967821,-2.1443221],[-79.9678213,-2.1443226],[-79.9678216,-2.1443231],[-79.967822,-2.1443236],[-79.9678224,-2.144324],[-79.9678228,-2.1443245],[-79.9678233,-2.1443248],[-79.9678238,-2.1443252],[-79.9678244,-2.1443254],[-79.9678249,-2.1443257],[-79.9678255,-2.1443259],[-79.9678261,-2.144326],[-79.9678267,-2.1443261],[-79.9678273,-2.1443261],[-79.9678279,-2.1443261],[-79.9678285,-2.144326],[-79.9678291,-2.1443259],[-79.9678297,-2.1443257],[-79.9678302,-2.1443254],[-79.9678308,-2.1443252],[-79.9678313,-2.1443248],[-79.9678318,-2.1443245],[-79.9678322,-2.1443241],[-79.9678326,-2.1443236],[-79.967833,-2.1443231],[-79.9678333,-2.1443226],[-79.9678336,-2.1443221],[-79.9678338,-2.1443215],[-79.967834,-2.1443209],[-79.9678342,-2.1443203],[-79.9678342,-2.1443197],[-79.9678343,-2.1443191],[-79.9678342,-2.1443185],[-79.9678342,-2.1443179],[-79.967834,-2.1443173],[-79.9678338,-2.1443167],[-79.9678336,-2.1443162],[-79.9678333,-2.1443156],[-79.967833,-2.1443151],[-79.9678326,-2.1443146],[-79.9678322,-2.1443142],[-79.9678318,-2.1443138],[-79.9678313,-2.1443134],[-79.9678308,-2.1443131],[-79.9678303,-2.1443128],[-79.9678297,-2.1443125],[-79.9678291,-2.1443124],[-79.9678285,-2.1443122],[-79.9678279,-2.1443122],[-79.9678273,-2.1443121],[-79.9678267,-2.1443122],[-79.9678261,-2.1443122],[-79.9678255,-2.1443124],[-79.9678249,-2.1443125],[-79.9678244,-2.1443128],[-79.9678238,-2.1443131],[-79.9678233,-2.1443134],[-79.9678229,-2.1443138],[-79.9678224,-2.1443142],[-79.967822,-2.1443146],[-79.9678216,-2.1443151],[-79.9678213,-2.1443156],[-79.967821,-2.1443162],[-79.9678208,-2.1443167],[-79.9678206,-2.1443173],[-79.9678205,-2.1443179],[-79.9678204,-2.1443185],[-79.9678204,-2.1443191]]]]}},
{"type":"Feature","properties":{"Layer":"E8"},"geometry":{"type":"MultiPolygon","coordinates":[[[[-79.9674885,-2.1443298],[-79.9674885,-2.1443304],[-79.9674886,-2.144331],[-79.9674887,-2.1443316],[-79.9674889,-2.1443322],[-79.9674891,-2.1443328],[-79.9674894,-2.1443333],[-79.9674897,-2.1443338],[-79.9674901,-2.1443343],[-79.9674905,-2.1443348],[-79.9674909,-2.1443352],[-79.9674914,-2.1443355],[-79.9674919,-2.1443359],[-79.9674925,-2.1443362],[-79.967493,-2.1443364],[-79.9674936,-2.1443366],[-79.9674942,-2.1443367],[-79.9674948,-2.1443368],[-79.9674954,-2.1443368],[-79.967496,-2.1443368],[-79.9674966,-2.1443367],[-79.9674972,-2.1443366],[-79.9674978,-2.1443364],[-79.9674983,-2.1443362],[-79.9674989,-2.1443359],[-79.9674994,-2.1443356],[-79.9674999,-2.1443352],[-79.9675003,-2.1443348],[-79.9675007,-2.1443343],[-79.9675011,-2.1443338],[-79.9675014,-2.1443333],[-79.9675017,-2.1443328],[-79.9675019,-2.1443322],[-79.9675021,-2.1443316],[-79.9675022,-2.144331],[-79.9675023,-2.1443304],[-79.9675023,-2.1443298],[-79.9675023,-2.1443292],[-79.9675022,-2.1443286],[-79.9675021,-2.144328],[-79.9675019,-2.1443274],[-79.9675017,-2.1443269],[-79.9675014,-2.1443263],[-79.9675011,-2.1443258],[-79.9675007,-2.1443253],[-79.9675003,-2.1443249],[-79.9674999,-2.1443245],[-79.9674994,-2.1443241],[-79.9674989,-2.1443238],[-79.9674983,-2.1443235],[-79.9674978,-2.1443233],[-79.9674972,-2.1443231],[-79.9674966,-2.1443229],[-79.967496,-2.1443229],[-79.9674954,-2.1443228],[-79.9674948,-2.1443229],[-79.9674942,-2.1443229],[-79.9674936,-2.1443231],[-79.967493,-2.1443233],[-79.9674925,-2.1443235],[-79.9674919,-2.1443238],[-79.9674914,-2.1443241],[-79.9674909,-2.1443245],[-79.9674905,-2.1443249],[-79.9674901,-2.1443253],[-79.9674897,-2.1443258],[-79.9674894,-2.1443263],[-79.9674891,-2.1443269],[-79.9674889,-2.1443274],[-79.9674887,-2.144328],[-79.9674886,-2.1443286],[-79.9674885,-2.1443292],[-79.9674885,-2.1443298]]]]}},
{"type":"Feature","properties":{"Layer":"E7"},"geometry":{"type":"MultiPolygon","coordinates":[[[[-79.9676847,-2.1445055],[-79.9676847,-2.1445061],[-79.9676848,-2.1445067],[-79.9676849,-2.1445073],[-79.9676851,-2.1445079],[-79.9676853,-2.1445084],[-79.9676856,-2.144509],[-79.9676859,-2.1445095],[-79.9676863,-2.14451],[-79.9676867,-2.1445104],[-79.9676871,-2.1445108],[-79.9676876,-2.1445112],[-79.9676881,-2.1445115],[-79.9676887,-2.1445118],[-79.9676892,-2.1445121],[-79.9676898,-2.1445122],[-79.9676904,-2.1445124],[-79.967691,-2.1445125],[-79.9676916,-2.1445125],[-79.9676922,-2.1445125],[-79.9676928,-2.1445124],[-79.9676934,-2.1445122],[-79.967694,-2.1445121],[-79.9676945,-2.1445118],[-79.9676951,-2.1445115],[-79.9676956,-2.1445112],[-79.9676961,-2.1445109],[-79.9676965,-2.1445104],[-79.9676969,-2.14451],[-79.9676973,-2.1445095],[-79.9676976,-2.144509],[-79.9676979,-2.1445085],[-79.9676981,-2.1445079],[-79.9676983,-2.1445073],[-79.9676984,-2.1445067],[-79.9676985,-2.1445061],[-79.9676985,-2.1445055],[-79.9676985,-2.1445049],[-79.9676984,-2.1445043],[-79.9676983,-2.1445037],[-79.9676981,-2.1445031],[-79.9676979,-2.1445025],[-79.9676976,-2.144502],[-79.9676973,-2.1445015],[-79.9676969,-2.144501],[-79.9676965,-2.1445006],[-79.9676961,-2.1445001],[-79.9676956,-2.1444998],[-79.9676951,-2.1444994],[-79.9676945,-2.1444992],[-79.967694,-2.1444989],[-79.9676934,-2.1444987],[-79.9676928,-2.1444986],[-79.9676922,-2.1444985],[-79.9676916,-2.1444985],[-79.967691,-2.1444985],[-79.9676904,-2.1444986],[-79.9676898,-2.1444987],[-79.9676892,-2.1444989],[-79.9676887,-2.1444992],[-79.9676881,-2.1444994],[-79.9676876,-2.1444998],[-79.9676871,-2.1445001],[-79.9676867,-2.1445006],[-79.9676863,-2.144501],[-79.9676859,-2.1445015],[-79.9676856,-2.144502],[-79.9676853,-2.1445025],[-79.9676851,-2.1445031],[-79.9676849,-2.1445037],[-79.9676848,-2.1445043],[-79.9676847,-2.1445049],[-79.9676847,-2.1445055]]]]}},
{"type":"Feature","properties":{"Layer":"E2"},"geometry":{"type":"MultiPolygon","coordinates":[[[[-79.96774,-2.1446099],[-79.96774,-2.1446105],[-79.9677401,-2.1446111],[-79.9677402,-2.1446117],[-79.9677404,-2.1446123],[-79.9677406,-2.1446129],[-79.9677409,-2.1446134],[-79.9677412,-2.1446139],[-79.9677416,-2.1446144],[-79.967742,-2.1446149],[-79.9677425,-2.1446153],[-79.967743,-2.1446156],[-79.9677435,-2.144616],[-79.967744,-2.1446163],[-79.9677446,-2.1446165],[-79.9677451,-2.1446167],[-79.9677457,-2.1446168],[-79.9677463,-2.1446169],[-79.9677469,-2.1446169],[-79.9677475,-2.1446169],[-79.9677481,-2.1446168],[-79.9677487,-2.1446167],[-79.9677493,-2.1446165],[-79.9677499,-2.1446163],[-79.9677504,-2.144616],[-79.9677509,-2.1446157],[-79.9677514,-2.1446153],[-79.9677518,-2.1446149],[-79.9677523,-2.1446144],[-79.9677526,-2.1446139],[-79.967753,-2.1446134],[-79.9677532,-2.1446129],[-79.9677535,-2.1446123],[-79.9677536,-2.1446117],[-79.9677538,-2.1446111],[-79.9677539,-2.1446105],[-79.9677539,-2.1446099],[-79.9677539,-2.1446093],[-79.9677538,-2.1446087],[-79.9677536,-2.1446081],[-79.9677535,-2.1446075],[-79.9677532,-2.144607],[-79.967753,-2.1446064],[-79.9677526,-2.1446059],[-79.9677523,-2.1446054],[-79.9677519,-2.144605],[-79.9677514,-2.1446046],[-79.9677509,-2.1446042],[-79.9677504,-2.1446039],[-79.9677499,-2.1446036],[-79.9677493,-2.1446034],[-79.9677487,-2.1446032],[-79.9677482,-2.144603],[-79.9677475,-2.144603],[-79.9677469,-2.1446029],[-79.9677463,-2.144603],[-79.9677457,-2.144603],[-79.9677451,-2.1446032],[-79.9677446,-2.1446034],[-79.967744,-2.1446036],[-79.9677435,-2.1446039],[-79.967743,-2.1446042],[-79.9677425,-2.1446046],[-79.967742,-2.144605],[-79.9677416,-2.1446054],[-79.9677413,-2.1446059],[-79.9677409,-2.1446064],[-79.9677406,-2.144607],[-79.9677404,-2.1446075],[-79.9677402,-2.1446081],[-79.9677401,-2.1446087],[-79.96774,-2.1446093],[-79.96774,-2.1446099]]]]}},
{"type":"Feature","properties":{"Layer":"E6"},"geometry":{"type":"MultiPolygon","coordinates":[[[[-79.9677949,-2.1448657],[-79.967795,-2.1448663],[-79.9677951,-2.1448669],[-79.9677952,-2.1448675],[-79.9677954,-2.1448681],[-79.9677956,-2.1448686],[-79.9677959,-2.1448692],[-79.9677962,-2.1448697],[-79.9677966,-2.1448702],[-79.967797,-2.1448706],[-79.9677974,-2.144871],[-79.9677979,-2.1448714],[-79.9677984,-2.1448717],[-79.967799,-2.144872],[-79.9677995,-2.1448722],[-79.9678001,-2.1448724],[-79.9678007,-2.1448726],[-79.9678013,-2.1448726],[-79.9678019,-2.1448727],[-79.9678025,-2.1448726],[-79.9678031,-2.1448726],[-79.9678037,-2.1448724],[-79.9678043,-2.1448722],[-79.9678048,-2.144872],[-79.9678054,-2.1448717],[-79.9678059,-2.1448714],[-79.9678064,-2.144871],[-79.9678068,-2.1448706],[-79.9678072,-2.1448702],[-79.9678076,-2.1448697],[-79.9678079,-2.1448692],[-79.9678082,-2.1448686],[-79.9678084,-2.1448681],[-79.9678086,-2.1448675],[-79.9678087,-2.1448669],[-79.9678088,-2.1448663],[-79.9678088,-2.1448657],[-79.9678088,-2.1448651],[-79.9678087,-2.1448645],[-79.9678086,-2.1448639],[-79.9678084,-2.1448633],[-79.9678082,-2.1448627],[-79.9678079,-2.1448622],[-79.9678076,-2.1448617],[-79.9678072,-2.1448612],[-79.9678068,-2.1448607],[-79.9678064,-2.1448603],[-79.9678059,-2.14486],[-79.9678054,-2.1448596],[-79.9678048,-2.1448594],[-79.9678043,-2.1448591],[-79.9678037,-2.1448589],[-79.9678031,-2.1448588],[-79.9678025,-2.1448587],[-79.9678019,-2.1448587],[-79.9678013,-2.1448587],[-79.9678007,-2.1448588],[-79.9678001,-2.1448589],[-79.9677995,-2.1448591],[-79.967799,-2.1448593],[-79.9677984,-2.1448596],[-79.9677979,-2.14486],[-79.9677974,-2.1448603],[-79.967797,-2.1448607],[-79.9677966,-2.1448612],[-79.9677962,-2.1448617],[-79.9677959,-2.1448622],[-79.9677956,-2.1448627],[-79.9677954,-2.1448633],[-79.9677952,-2.1448639],[-79.9677951,-2.1448645],[-79.967795,-2.1448651],[-79.9677949,-2.1448657]]]]}},
{"type":"Feature","properties":{"Layer":"E3"},"geometry":{"type":"MultiPolygon","coordinates":[[[[-79.9676828,-2.1447374],[-79.9676829,-2.144738],[-79.9676829,-2.1447386],[-79.9676831,-2.1447392],[-79.9676832,-2.1447398],[-79.9676835,-2.1447403],[-79.9676838,-2.1447409],[-79.9676841,-2.1447414],[-79.9676845,-2.1447419],[-79.9676849,-2.1447423],[-79.9676853,-2.1447427],[-79.9676858,-2.1447431],[-79.9676863,-2.1447434],[-79.9676868,-2.1447437],[-79.9676874,-2.1447439],[-79.967688,-2.1447441],[-79.9676886,-2.1447443],[-79.9676892,-2.1447443],[-79.9676898,-2.1447444],[-79.9676904,-2.1447443],[-79.967691,-2.1447443],[-79.9676916,-2.1447441],[-79.9676921,-2.144744],[-79.9676927,-2.1447437],[-79.9676932,-2.1447434],[-79.9676938,-2.1447431],[-79.9676942,-2.1447427],[-79.9676947,-2.1447423],[-79.9676951,-2.1447419],[-79.9676955,-2.1447414],[-79.9676958,-2.1447409],[-79.9676961,-2.1447403],[-79.9676963,-2.1447398],[-79.9676965,-2.1447392],[-79.9676966,-2.1447386],[-79.9676967,-2.144738],[-79.9676967,-2.1447374],[-79.9676967,-2.1447368],[-79.9676966,-2.1447362],[-79.9676965,-2.1447356],[-79.9676963,-2.144735],[-79.9676961,-2.1447344],[-79.9676958,-2.1447339],[-79.9676955,-2.1447334],[-79.9676951,-2.1447329],[-79.9676947,-2.1447324],[-79.9676942,-2.144732],[-79.9676938,-2.1447317],[-79.9676933,-2.1447313],[-79.9676927,-2.1447311],[-79.9676922,-2.1447308],[-79.9676916,-2.1447306],[-79.967691,-2.1447305],[-79.9676904,-2.1447304],[-79.9676898,-2.1447304],[-79.9676892,-2.1447304],[-79.9676886,-2.1447305],[-79.967688,-2.1447306],[-79.9676874,-2.1447308],[-79.9676868,-2.1447311],[-79.9676863,-2.1447313],[-79.9676858,-2.1447317],[-79.9676853,-2.144732],[-79.9676849,-2.1447324],[-79.9676845,-2.1447329],[-79.9676841,-2.1447334],[-79.9676838,-2.1447339],[-79.9676835,-2.1447344],[-79.9676833,-2.144735],[-79.9676831,-2.1447356],[-79.9676829,-2.1447362],[-79.9676829,-2.1447368],[-79.9676828,-2.1447374]]]]}},
{"type":"Feature","properties":{"Layer":"E5"},"geometry":{"type":"MultiPolygon","coordinates":[[[[-79.9676833,-2.1448915],[-79.9676833,-2.1448921],[-79.9676834,-2.1448928],[-79.9676835,-2.1448933],[-79.9676837,-2.1448939],[-79.9676839,-2.1448945],[-79.9676842,-2.144895],[-79.9676845,-2.1448955],[-79.9676849,-2.144896],[-79.9676853,-2.1448965],[-79.9676857,-2.1448969],[-79.9676862,-2.1448973],[-79.9676867,-2.1448976],[-79.9676873,-2.1448979],[-79.9676878,-2.1448981],[-79.9676884,-2.1448983],[-79.967689,-2.1448984],[-79.9676896,-2.1448985],[-79.9676902,-2.1448985],[-79.9676908,-2.1448985],[-79.9676914,-2.1448984],[-79.967692,-2.1448983],[-79.9676926,-2.1448981],[-79.9676931,-2.1448979],[-79.9676937,-2.1448976],[-79.9676942,-2.1448973],[-79.9676947,-2.1448969],[-79.9676951,-2.1448965],[-79.9676955,-2.144896],[-79.9676959,-2.1448956],[-79.9676962,-2.144895],[-79.9676965,-2.1448945],[-79.9676967,-2.1448939],[-79.9676969,-2.1448934],[-79.967697,-2.1448928],[-79.9676971,-2.1448922],[-79.9676971,-2.1448915],[-79.9676971,-2.1448909],[-79.967697,-2.1448903],[-79.9676969,-2.1448897],[-79.9676967,-2.1448892],[-79.9676965,-2.1448886],[-79.9676962,-2.1448881],[-79.9676959,-2.1448875],[-79.9676955,-2.1448871],[-79.9676951,-2.1448866],[-79.9676947,-2.1448862],[-79.9676942,-2.1448858],[-79.9676937,-2.1448855],[-79.9676931,-2.1448852],[-79.9676926,-2.144885],[-79.967692,-2.1448848],[-79.9676914,-2.1448847],[-79.9676908,-2.1448846],[-79.9676902,-2.1448846],[-79.9676896,-2.1448846],[-79.967689,-2.1448847],[-79.9676884,-2.1448848],[-79.9676878,-2.144885],[-79.9676873,-2.1448852],[-79.9676867,-2.1448855],[-79.9676862,-2.1448858],[-79.9676857,-2.1448862],[-79.9676853,-2.1448866],[-79.9676849,-2.144887],[-79.9676845,-2.1448875],[-79.9676842,-2.144888],[-79.9676839,-2.1448886],[-79.9676837,-2.1448892],[-79.9676835,-2.1448897],[-79.9676834,-2.1448903],[-79.9676833,-2.1448909],[-79.9676833,-2.1448915]]]]}},
{"type":"Feature","properties":{"Layer":"E4"},"geometry":{"type":"MultiPolygon","coordinates":[[[[-79.9677146,-2.1449574],[-79.9677146,-2.144958],[-79.9677147,-2.1449586],[-79.9677148,-2.1449592],[-79.967715,-2.1449598],[-79.9677152,-2.1449603],[-79.9677155,-2.1449609],[-79.9677158,-2.1449614],[-79.9677162,-2.1449619],[-79.9677166,-2.1449623],[-79.967717,-2.1449627],[-79.9677175,-2.1449631],[-79.967718,-2.1449634],[-79.9677186,-2.1449637],[-79.9677191,-2.144964],[-79.9677197,-2.1449641],[-79.9677203,-2.1449643],[-79.9677209,-2.1449643],[-79.9677215,-2.1449644],[-79.9677221,-2.1449643],[-79.9677227,-2.1449643],[-79.9677233,-2.1449641],[-79.9677239,-2.144964],[-79.9677244,-2.1449637],[-79.967725,-2.1449634],[-79.9677255,-2.1449631],[-79.967726,-2.1449627],[-79.9677264,-2.1449623],[-79.9677268,-2.1449619],[-79.9677272,-2.1449614],[-79.9677275,-2.1449609],[-79.9677278,-2.1449603],[-79.967728,-2.1449598],[-79.9677282,-2.1449592],[-79.9677284,-2.1449586],[-79.9677284,-2.144958],[-79.9677285,-2.1449574],[-79.9677284,-2.1449568],[-79.9677284,-2.1449562],[-79.9677282,-2.1449556],[-79.967728,-2.144955],[-79.9677278,-2.1449544],[-79.9677275,-2.1449539],[-79.9677272,-2.1449534],[-79.9677268,-2.1449529],[-79.9677264,-2.1449524],[-79.967726,-2.144952],[-79.9677255,-2.1449517],[-79.967725,-2.1449513],[-79.9677245,-2.1449511],[-79.9677239,-2.1449508],[-79.9677233,-2.1449506],[-79.9677227,-2.1449505],[-79.9677221,-2.1449504],[-79.9677215,-2.1449504],[-79.9677209,-2.1449504],[-79.9677203,-2.1449505],[-79.9677197,-2.1449506],[-79.9677191,-2.1449508],[-79.9677186,-2.1449511],[-79.967718,-2.1449513],[-79.9677175,-2.1449517],[-79.9677171,-2.144952],[-79.9677166,-2.1449524],[-79.9677162,-2.1449529],[-79.9677158,-2.1449534],[-79.9677155,-2.1449539],[-79.9677152,-2.1449544],[-79.967715,-2.144955],[-79.9677148,-2.1449556],[-79.9677147,-2.1449562],[-79.9677146,-2.1449568],[-79.9677146,-2.1449574]]]]}},
{"type":"Feature","properties":{"Layer":"E1"},"geometry":{"type":"MultiPolygon","coordinates":[[[[-79.967587,-2.1446218],[-79.967587,-2.1446224],[-79.9675871,-2.144623],[-79.9675873,-2.1446236],[-79.9675874,-2.1446242],[-79.9675877,-2.1446248],[-79.9675879,-2.1446253],[-79.9675883,-2.1446258],[-79.9675886,-2.1446263],[-79.967589,-2.1446268],[-79.9675895,-2.1446272],[-79.96759,-2.1446275],[-79.9675905,-2.1446279],[-79.967591,-2.1446281],[-79.9675916,-2.1446284],[-79.9675921,-2.1446286],[-79.9675927,-2.1446287],[-79.9675933,-2.1446288],[-79.9675939,-2.1446288],[-79.9675945,-2.1446288],[-79.9675951,-2.1446287],[-79.9675957,-2.1446286],[-79.9675963,-2.1446284],[-79.9675969,-2.1446281],[-79.9675974,-2.1446279],[-79.9675979,-2.1446275],[-79.9675984,-2.1446272],[-79.9675988,-2.1446268],[-79.9675992,-2.1446263],[-79.9675996,-2.1446258],[-79.9675999,-2.1446253],[-79.9676002,-2.1446248],[-79.9676004,-2.1446242],[-79.9676006,-2.1446236],[-79.9676008,-2.144623],[-79.9676008,-2.1446224],[-79.9676009,-2.1446218],[-79.9676008,-2.1446212],[-79.9676008,-2.1446206],[-79.9676006,-2.14462],[-79.9676005,-2.1446195],[-79.9676002,-2.1446189],[-79.9675999,-2.1446184],[-79.9675996,-2.1446178],[-79.9675993,-2.1446174],[-79.9675988,-2.1446169],[-79.9675984,-2.1446165],[-79.9675979,-2.1446161],[-79.9675974,-2.1446158],[-79.9675969,-2.1446155],[-79.9675963,-2.1446153],[-79.9675957,-2.1446151],[-79.9675952,-2.144615],[-79.9675946,-2.1446149],[-79.9675939,-2.1446149],[-79.9675933,-2.1446149],[-79.9675927,-2.144615],[-79.9675922,-2.1446151],[-79.9675916,-2.1446153],[-79.967591,-2.1446155],[-79.9675905,-2.1446158],[-79.96759,-2.1446161],[-79.9675895,-2.1446165],[-79.9675891,-2.1446169],[-79.9675886,-2.1446174],[-79.9675883,-2.1446178],[-79.967588,-2.1446183],[-79.9675877,-2.1446189],[-79.9675874,-2.1446194],[-79.9675873,-2.14462],[-79.9675871,-2.1446206],[-79.967587,-2.1446212],[-79.967587,-2.1446218]]]]}},
{"type":"Feature","properties":{"Layer":"LICO-ESPOL-002-2014 5"},"geometry":{"type":"MultiPolygon","coordinates":[[[[-79.9683781,-2.1451408],[-79.9683781,-2.1451414],[-79.9683782,-2.145142],[-79.9683783,-2.1451426],[-79.9683785,-2.1451432],[-79.9683787,-2.1451438],[-79.968379,-2.1451443],[-79.9683793,-2.1451448],[-79.9683797,-2.1451453],[-79.9683801,-2.1451457],[-79.9683806,-2.1451462],[-79.968381,-2.1451465],[-79.9683816,-2.1451469],[-79.9683821,-2.1451471],[-79.9683826,-2.1451474],[-79.9683832,-2.1451475],[-79.9683838,-2.1451477],[-79.9683844,-2.1451478],[-79.968385,-2.1451478],[-79.9683856,-2.1451478],[-79.9683862,-2.1451477],[-79.9683868,-2.1451476],[-79.9683874,-2.1451474],[-79.968388,-2.1451471],[-79.9683885,-2.1451469],[-79.968389,-2.1451465],[-79.9683895,-2.1451462],[-79.9683899,-2.1451457],[-79.9683903,-2.1451453],[-79.9683907,-2.1451448],[-79.968391,-2.1451443],[-79.9683913,-2.1451438],[-79.9683916,-2.1451432],[-79.9683917,-2.1451426],[-79.9683919,-2.145142],[-79.9683919,-2.1451414],[-79.968392,-2.1451408],[-79.9683919,-2.1451402],[-79.9683919,-2.1451396],[-79.9683917,-2.145139],[-79.9683916,-2.1451384],[-79.9683913,-2.1451379],[-79.968391,-2.1451373],[-79.9683907,-2.1451368],[-79.9683904,-2.1451363],[-79.9683899,-2.1451359],[-79.9683895,-2.1451355],[-79.968389,-2.1451351],[-79.9683885,-2.1451348],[-79.968388,-2.1451345],[-79.9683874,-2.1451342],[-79.9683868,-2.1451341],[-79.9683862,-2.1451339],[-79.9683856,-2.1451338],[-79.968385,-2.1451338],[-79.9683844,-2.1451338],[-79.9683838,-2.1451339],[-79.9683832,-2.1451341],[-79.9683827,-2.1451342],[-79.9683821,-2.1451345],[-79.9683816,-2.1451347],[-79.968381,-2.1451351],[-79.9683806,-2.1451354],[-79.9683801,-2.1451359],[-79.9683797,-2.1451363],[-79.9683793,-2.1451368],[-79.968379,-2.1451373],[-79.9683787,-2.1451378],[-79.9683785,-2.1451384],[-79.9683783,-2.145139],[-79.9683782,-2.1451396],[-79.9683781,-2.1451402],[-79.9683781,-2.1451408]]]]}},
{"type":"Feature","properties":{"Layer":"LICO-ESPOL-002-2014 4"},"geometry":{"type":"MultiPolygon","coordinates":[[[[-79.9658544,-2.1481385],[-79.9658544,-2.1481391],[-79.9658545,-2.1481397],[-79.9658546,-2.1481403],[-79.9658548,-2.1481408],[-79.965855,-2.1481414],[-79.9658553,-2.1481419],[-79.9658557,-2.1481425],[-79.965856,-2.1481429],[-79.9658564,-2.1481434],[-79.9658569,-2.1481438],[-79.9658574,-2.1481442],[-79.9658579,-2.1481445],[-79.9658584,-2.1481448],[-79.965859,-2.148145],[-79.9658595,-2.1481452],[-79.9658601,-2.1481453],[-79.9658607,-2.1481454],[-79.9658613,-2.1481454],[-79.9658619,-2.1481454],[-79.9658625,-2.1481453],[-79.9658631,-2.1481452],[-79.9658637,-2.148145],[-79.9658643,-2.1481448],[-79.9658648,-2.1481445],[-79.9658653,-2.1481442],[-79.9658658,-2.1481438],[-79.9658663,-2.1481434],[-79.9658667,-2.148143],[-79.965867,-2.1481425],[-79.9658674,-2.148142],[-79.9658676,-2.1481414],[-79.9658679,-2.1481409],[-79.9658681,-2.1481403],[-79.9658682,-2.1481397],[-79.9658683,-2.1481391],[-79.9658683,-2.1481385],[-79.9658683,-2.1481379],[-79.9658682,-2.1481373],[-79.9658681,-2.1481367],[-79.9658679,-2.1481361],[-79.9658676,-2.1481355],[-79.9658674,-2.148135],[-79.965867,-2.1481345],[-79.9658667,-2.148134],[-79.9658663,-2.1481335],[-79.9658658,-2.1481331],[-79.9658653,-2.1481327],[-79.9658648,-2.1481324],[-79.9658643,-2.1481321],[-79.9658637,-2.1481319],[-79.9658631,-2.1481317],[-79.9658626,-2.1481316],[-79.965862,-2.1481315],[-79.9658614,-2.1481315],[-79.9658607,-2.1481315],[-79.9658601,-2.1481316],[-79.9658596,-2.1481317],[-79.965859,-2.1481319],[-79.9658584,-2.1481321],[-79.9658579,-2.1481324],[-79.9658574,-2.1481327],[-79.9658569,-2.1481331],[-79.9658564,-2.1481335],[-79.965856,-2.148134],[-79.9658557,-2.1481344],[-79.9658553,-2.148135],[-79.9658551,-2.1481355],[-79.9658548,-2.1481361],[-79.9658546,-2.1481366],[-79.9658545,-2.1481372],[-79.9658544,-2.1481378],[-79.9658544,-2.1481385]]]]}},
{"type":"Feature","properties":{"Layer":"LICO-ESPOL-002-2014 3"},"geometry":{"type":"MultiPolygon","coordinates":[[[[-79.9592353,-2.1505595],[-79.9592353,-2.1505601],[-79.9592354,-2.1505607],[-79.9592356,-2.1505613],[-79.9592357,-2.1505619],[-79.959236,-2.1505625],[-79.9592363,-2.150563],[-79.9592366,-2.1505635],[-79.9592369,-2.150564],[-79.9592374,-2.1505644],[-79.9592378,-2.1505649],[-79.9592383,-2.1505652],[-79.9592388,-2.1505656],[-79.9592393,-2.1505658],[-79.9592399,-2.1505661],[-79.9592405,-2.1505663],[-79.9592411,-2.1505664],[-79.9592417,-2.1505665],[-79.9592423,-2.1505665],[-79.9592429,-2.1505665],[-79.9592435,-2.1505664],[-79.9592441,-2.1505663],[-79.9592446,-2.1505661],[-79.9592452,-2.1505658],[-79.9592457,-2.1505656],[-79.9592462,-2.1505652],[-79.9592467,-2.1505649],[-79.9592472,-2.1505645],[-79.9592476,-2.150564],[-79.959248,-2.1505635],[-79.9592483,-2.150563],[-79.9592486,-2.1505625],[-79.9592488,-2.1505619],[-79.959249,-2.1505613],[-79.9592491,-2.1505607],[-79.9592492,-2.1505601],[-79.9592492,-2.1505595],[-79.9592492,-2.1505589],[-79.9592491,-2.1505583],[-79.959249,-2.1505577],[-79.9592488,-2.1505571],[-79.9592486,-2.1505566],[-79.9592483,-2.150556],[-79.959248,-2.1505555],[-79.9592476,-2.150555],[-79.9592472,-2.1505546],[-79.9592467,-2.1505542],[-79.9592463,-2.1505538],[-79.9592457,-2.1505535],[-79.9592452,-2.1505532],[-79.9592446,-2.1505529],[-79.9592441,-2.1505528],[-79.9592435,-2.1505526],[-79.9592429,-2.1505526],[-79.9592423,-2.1505525],[-79.9592417,-2.1505526],[-79.9592411,-2.1505526],[-79.9592405,-2.1505528],[-79.9592399,-2.1505529],[-79.9592393,-2.1505532],[-79.9592388,-2.1505535],[-79.9592383,-2.1505538],[-79.9592378,-2.1505542],[-79.9592374,-2.1505546],[-79.959237,-2.150555],[-79.9592366,-2.1505555],[-79.9592363,-2.150556],[-79.959236,-2.1505566],[-79.9592357,-2.1505571],[-79.9592356,-2.1505577],[-79.9592354,-2.1505583],[-79.9592353,-2.1505589],[-79.9592353,-2.1505595]]]]}},
{"type":"Feature","properties":{"Layer":"LICO-ESPOL-002-2014 2"},"geometry":{"type":"MultiPolygon","coordinates":[[[[-79.9566213,-2.1529198],[-79.9566213,-2.1529204],[-79.9566214,-2.152921],[-79.9566215,-2.1529216],[-79.9566217,-2.1529222],[-79.956622,-2.1529228],[-79.9566222,-2.1529233],[-79.9566226,-2.1529238],[-79.9566229,-2.1529243],[-79.9566233,-2.1529248],[-79.9566238,-2.1529252],[-79.9566243,-2.1529255],[-79.9566248,-2.1529259],[-79.9566253,-2.1529262],[-79.9566259,-2.1529264],[-79.9566265,-2.1529266],[-79.956627,-2.1529267],[-79.9566276,-2.1529268],[-79.9566283,-2.1529268],[-79.9566289,-2.1529268],[-79.9566295,-2.1529267],[-79.95663,-2.1529266],[-79.9566306,-2.1529264],[-79.9566312,-2.1529262],[-79.9566317,-2.1529259],[-79.9566322,-2.1529255],[-79.9566327,-2.1529252],[-79.9566332,-2.1529248],[-79.9566336,-2.1529243],[-79.9566339,-2.1529238],[-79.9566343,-2.1529233],[-79.9566345,-2.1529228],[-79.9566348,-2.1529222],[-79.956635,-2.1529216],[-79.9566351,-2.152921],[-79.9566352,-2.1529204],[-79.9566352,-2.1529198],[-79.9566352,-2.1529192],[-79.9566351,-2.1529186],[-79.956635,-2.152918],[-79.9566348,-2.1529174],[-79.9566346,-2.1529169],[-79.9566343,-2.1529163],[-79.9566339,-2.1529158],[-79.9566336,-2.1529153],[-79.9566332,-2.1529149],[-79.9566327,-2.1529145],[-79.9566322,-2.1529141],[-79.9566317,-2.1529138],[-79.9566312,-2.1529135],[-79.9566306,-2.1529133],[-79.9566301,-2.1529131],[-79.9566295,-2.1529129],[-79.9566289,-2.1529129],[-79.9566283,-2.1529128],[-79.9566277,-2.1529129],[-79.9566271,-2.1529129],[-79.9566265,-2.1529131],[-79.9566259,-2.1529133],[-79.9566253,-2.1529135],[-79.9566248,-2.1529138],[-79.9566243,-2.1529141],[-79.9566238,-2.1529145],[-79.9566233,-2.1529149],[-79.9566229,-2.1529153],[-79.9566226,-2.1529158],[-79.9566222,-2.1529163],[-79.956622,-2.1529169],[-79.9566217,-2.1529174],[-79.9566215,-2.152918],[-79.9566214,-2.1529186],[-79.9566213,-2.1529192],[-79.9566213,-2.1529198]]]]}},
{"type":"Feature","properties":{"Layer":"LICO-ESPOL-002-2014 1"},"geometry":{"type":"MultiPolygon","coordinates":[[[[-79.9532573,-2.1525689],[-79.9532573,-2.1525695],[-79.9532574,-2.1525701],[-79.9532575,-2.1525707],[-79.9532577,-2.1525713],[-79.953258,-2.1525718],[-79.9532582,-2.1525724],[-79.9532586,-2.1525729],[-79.9532589,-2.1525734],[-79.9532593,-2.1525738],[-79.9532598,-2.1525742],[-79.9532603,-2.1525746],[-79.9532608,-2.1525749],[-79.9532613,-2.1525752],[-79.9532619,-2.1525754],[-79.9532624,-2.1525756],[-79.953263,-2.1525758],[-79.9532636,-2.1525758],[-79.9532642,-2.1525759],[-79.9532649,-2.1525758],[-79.9532655,-2.1525758],[-79.953266,-2.1525756],[-79.9532666,-2.1525755],[-79.9532672,-2.1525752],[-79.9532677,-2.1525749],[-79.9532682,-2.1525746],[-79.9532687,-2.1525742],[-79.9532692,-2.1525738],[-79.9532696,-2.1525734],[-79.9532699,-2.1525729],[-79.9532703,-2.1525724],[-79.9532705,-2.1525718],[-79.9532708,-2.1525713],[-79.953271,-2.1525707],[-79.9532711,-2.1525701],[-79.9532712,-2.1525695],[-79.9532712,-2.1525689],[-79.9532712,-2.1525683],[-79.9532711,-2.1525677],[-79.953271,-2.1525671],[-79.9532708,-2.1525665],[-79.9532705,-2.1525659],[-79.9532703,-2.1525654],[-79.9532699,-2.1525649],[-79.9532696,-2.1525644],[-79.9532692,-2.1525639],[-79.9532687,-2.1525635],[-79.9532682,-2.1525632],[-79.9532677,-2.1525628],[-79.9532672,-2.1525626],[-79.9532666,-2.1525623],[-79.9532661,-2.1525621],[-79.9532655,-2.152562],[-79.9532649,-2.1525619],[-79.9532643,-2.1525619],[-79.9532636,-2.1525619],[-79.953263,-2.152562],[-79.9532625,-2.1525621],[-79.9532619,-2.1525623],[-79.9532613,-2.1525625],[-79.9532608,-2.1525628],[-79.9532603,-2.1525632],[-79.9532598,-2.1525635],[-79.9532593,-2.1525639],[-79.9532589,-2.1525644],[-79.9532586,-2.1525649],[-79.9532582,-2.1525654],[-79.953258,-2.1525659],[-79.9532577,-2.1525665],[-79.9532575,-2.1525671],[-79.9532574,-2.1525677],[-79.9532573,-2.1525683],[-79.9532573,-2.1525689]]]]}},
{"type":"Feature","properties":{"Layer":"LICO-ESPOL-002-2014 6"},"geometry":{"type":"MultiPolygon","coordinates":[[[[-79.9649588,-2.1445021],[-79.9649588,-2.1445027],[-79.9649589,-2.1445033],[-79.964959,-2.1445039],[-79.9649592,-2.1445045],[-79.9649595,-2.144505],[-79.9649597,-2.1445056],[-79.9649601,-2.1445061],[-79.9649604,-2.1445066],[-79.9649608,-2.144507],[-79.9649613,-2.1445074],[-79.9649618,-2.1445078],[-79.9649623,-2.1445081],[-79.9649628,-2.1445084],[-79.9649634,-2.1445087],[-79.9649639,-2.1445088],[-79.9649645,-2.144509],[-79.9649651,-2.1445091],[-79.9649657,-2.1445091],[-79.9649663,-2.1445091],[-79.964967,-2.144509],[-79.9649675,-2.1445088],[-79.9649681,-2.1445087],[-79.9649687,-2.1445084],[-79.9649692,-2.1445081],[-79.9649697,-2.1445078],[-79.9649702,-2.1445074],[-79.9649707,-2.144507],[-79.9649711,-2.1445066],[-79.9649714,-2.1445061],[-79.9649718,-2.1445056],[-79.964972,-2.144505],[-79.9649723,-2.1445045],[-79.9649725,-2.1445039],[-79.9649726,-2.1445033],[-79.9649727,-2.1445027],[-79.9649727,-2.1445021],[-79.9649727,-2.1445015],[-79.9649726,-2.1445009],[-79.9649725,-2.1445003],[-79.9649723,-2.1444997],[-79.964972,-2.1444991],[-79.9649718,-2.1444986],[-79.9649714,-2.1444981],[-79.9649711,-2.1444976],[-79.9649707,-2.1444972],[-79.9649702,-2.1444967],[-79.9649697,-2.1444964],[-79.9649692,-2.144496],[-79.9649687,-2.1444958],[-79.9649681,-2.1444955],[-79.9649676,-2.1444953],[-79.964967,-2.1444952],[-79.9649664,-2.1444951],[-79.9649658,-2.1444951],[-79.9649651,-2.1444951],[-79.9649645,-2.1444952],[-79.964964,-2.1444953],[-79.9649634,-2.1444955],[-79.9649628,-2.1444958],[-79.9649623,-2.144496],[-79.9649618,-2.1444964],[-79.9649613,-2.1444967],[-79.9649608,-2.1444971],[-79.9649604,-2.1444976],[-79.9649601,-2.1444981],[-79.9649597,-2.1444986],[-79.9649595,-2.1444991],[-79.9649592,-2.1444997],[-79.964959,-2.1445003],[-79.9649589,-2.1445009],[-79.9649588,-2.1445015],[-79.9649588,-2.1445021]]]]}},
{"type":"Feature","properties":{"Layer":"LICO-ESPOL-002-2014 7"},"geometry":{"type":"MultiPolygon","coordinates":[[[[-79.9612486,-2.14381],[-79.9612487,-2.1438106],[-79.9612487,-2.1438112],[-79.9612489,-2.1438118],[-79.9612491,-2.1438124],[-79.9612493,-2.143813],[-79.9612496,-2.1438135],[-79.9612499,-2.143814],[-79.9612503,-2.1438145],[-79.9612507,-2.143815],[-79.9612511,-2.1438154],[-79.9612516,-2.1438158],[-79.9612521,-2.1438161],[-79.9612526,-2.1438164],[-79.9612532,-2.1438166],[-79.9612538,-2.1438168],[-79.9612544,-2.1438169],[-79.961255,-2.143817],[-79.9612556,-2.143817],[-79.9612562,-2.143817],[-79.9612568,-2.1438169],[-79.9612574,-2.1438168],[-79.961258,-2.1438166],[-79.9612585,-2.1438164],[-79.961259,-2.1438161],[-79.9612596,-2.1438158],[-79.96126,-2.1438154],[-79.9612605,-2.143815],[-79.9612609,-2.1438145],[-79.9612613,-2.143814],[-79.9612616,-2.1438135],[-79.9612619,-2.143813],[-79.9612621,-2.1438124],[-79.9612623,-2.1438118],[-79.9612624,-2.1438113],[-79.9612625,-2.1438106],[-79.9612625,-2.14381],[-79.9612625,-2.1438094],[-79.9612624,-2.1438088],[-79.9612623,-2.1438082],[-79.9612621,-2.1438077],[-79.9612619,-2.1438071],[-79.9612616,-2.1438065],[-79.9612613,-2.143806],[-79.9612609,-2.1438055],[-79.9612605,-2.1438051],[-79.96126,-2.1438047],[-79.9612596,-2.1438043],[-79.9612591,-2.143804],[-79.9612585,-2.1438037],[-79.961258,-2.1438035],[-79.9612574,-2.1438033],[-79.9612568,-2.1438032],[-79.9612562,-2.1438031],[-79.9612556,-2.143803],[-79.961255,-2.1438031],[-79.9612544,-2.1438032],[-79.9612538,-2.1438033],[-79.9612532,-2.1438035],[-79.9612526,-2.1438037],[-79.9612521,-2.143804],[-79.9612516,-2.1438043],[-79.9612511,-2.1438047],[-79.9612507,-2.1438051],[-79.9612503,-2.1438055],[-79.9612499,-2.143806],[-79.9612496,-2.1438065],[-79.9612493,-2.1438071],[-79.9612491,-2.1438076],[-79.9612489,-2.1438082],[-79.9612487,-2.1438088],[-79.9612487,-2.1438094],[-79.9612486,-2.14381]]]]}},
{"type":"Feature","properties":{"Layer":"LICO-ESPOL-002-2014 8"},"geometry":{"type":"MultiPolygon","coordinates":[[[[-79.9587009,-2.1477166],[-79.9587009,-2.1477172],[-79.958701,-2.1477178],[-79.9587011,-2.1477184],[-79.9587013,-2.147719],[-79.9587016,-2.1477195],[-79.9587018,-2.1477201],[-79.9587022,-2.1477206],[-79.9587025,-2.1477211],[-79.9587029,-2.1477215],[-79.9587034,-2.1477219],[-79.9587039,-2.1477223],[-79.9587044,-2.1477226],[-79.9587049,-2.1477229],[-79.9587055,-2.1477232],[-79.958706,-2.1477233],[-79.9587066,-2.1477235],[-79.9587072,-2.1477236],[-79.9587078,-2.1477236],[-79.9587085,-2.1477236],[-79.9587091,-2.1477235],[-79.9587096,-2.1477233],[-79.9587102,-2.1477232],[-79.9587108,-2.1477229],[-79.9587113,-2.1477227],[-79.9587118,-2.1477223],[-79.9587123,-2.147722],[-79.9587128,-2.1477215],[-79.9587132,-2.1477211],[-79.9587135,-2.1477206],[-79.9587139,-2.1477201],[-79.9587141,-2.1477196],[-79.9587144,-2.147719],[-79.9587146,-2.1477184],[-79.9587147,-2.1477178],[-79.9587148,-2.1477172],[-79.9587148,-2.1477166],[-79.9587148,-2.147716],[-79.9587147,-2.1477154],[-79.9587146,-2.1477148],[-79.9587144,-2.1477142],[-79.9587141,-2.1477136],[-79.9587139,-2.1477131],[-79.9587135,-2.1477126],[-79.9587132,-2.1477121],[-79.9587128,-2.1477117],[-79.9587123,-2.1477112],[-79.9587118,-2.1477109],[-79.9587113,-2.1477105],[-79.9587108,-2.1477103],[-79.9587102,-2.14771],[-79.9587097,-2.1477098],[-79.9587091,-2.1477097],[-79.9587085,-2.1477096],[-79.9587079,-2.1477096],[-79.9587072,-2.1477096],[-79.9587066,-2.1477097],[-79.9587061,-2.1477098],[-79.9587055,-2.14771],[-79.9587049,-2.1477103],[-79.9587044,-2.1477105],[-79.9587039,-2.1477109],[-79.9587034,-2.1477112],[-79.9587029,-2.1477117],[-79.9587025,-2.1477121],[-79.9587022,-2.1477126],[-79.9587018,-2.1477131],[-79.9587016,-2.1477136],[-79.9587013,-2.1477142],[-79.9587011,-2.1477148],[-79.958701,-2.1477154],[-79.9587009,-2.147716],[-79.9587009,-2.1477166]]]]}},
{"type":"Feature","properties":{"Layer":"VALLA PUBLICITARIA"},"geometry":{"type":"MultiPolygon","coordinates":[[[[-79.9530113,-2.1521362],[-79.9530113,-2.1521368],[-79.9530114,-2.1521374],[-79.9530116,-2.152138],[-79.9530117,-2.1521386],[-79.953012,-2.1521392],[-79.9530122,-2.1521397],[-79.9530126,-2.1521402],[-79.9530129,-2.1521407],[-79.9530133,-2.1521412],[-79.9530138,-2.1521416],[-79.9530143,-2.152142],[-79.9530148,-2.1521423],[-79.9530153,-2.1521426],[-79.9530159,-2.1521428],[-79.9530165,-2.152143],[-79.9530171,-2.1521431],[-79.9530177,-2.1521432],[-79.9530183,-2.1521432],[-79.9530189,-2.1521432],[-79.9530195,-2.1521431],[-79.9530201,-2.152143],[-79.9530206,-2.1521428],[-79.9530212,-2.1521426],[-79.9530217,-2.1521423],[-79.9530222,-2.152142],[-79.9530227,-2.1521416],[-79.9530232,-2.1521412],[-79.9530236,-2.1521407],[-79.9530239,-2.1521402],[-79.9530243,-2.1521397],[-79.9530246,-2.1521392],[-79.9530248,-2.1521386],[-79.953025,-2.152138],[-79.9530251,-2.1521375],[-79.9530252,-2.1521368],[-79.9530252,-2.1521362],[-79.9530252,-2.1521356],[-79.9530251,-2.152135],[-79.953025,-2.1521344],[-79.9530248,-2.1521338],[-79.9530246,-2.1521333],[-79.9530243,-2.1521327],[-79.953024,-2.1521322],[-79.9530236,-2.1521317],[-79.9530232,-2.1521313],[-79.9530227,-2.1521309],[-79.9530222,-2.1521305],[-79.9530217,-2.1521302],[-79.9530212,-2.1521299],[-79.9530206,-2.1521297],[-79.9530201,-2.1521295],[-79.9530195,-2.1521294],[-79.9530189,-2.1521293],[-79.9530183,-2.1521292],[-79.9530177,-2.1521293],[-79.9530171,-2.1521294],[-79.9530165,-2.1521295],[-79.9530159,-2.1521297],[-79.9530153,-2.1521299],[-79.9530148,-2.1521302],[-79.9530143,-2.1521305],[-79.9530138,-2.1521309],[-79.9530134,-2.1521313],[-79.9530129,-2.1521317],[-79.9530126,-2.1521322],[-79.9530122,-2.1521327],[-79.953012,-2.1521333],[-79.9530117,-2.1521338],[-79.9530116,-2.1521344],[-79.9530114,-2.152135],[-79.9530113,-2.1521356],[-79.9530113,-2.1521362]]]]}},
{"type":"Feature","properties":{"Layer":"VIA INGRESO P4"},"geometry":{"type":"MultiPolygon","coordinates":[[[[-79.9499598,-2.1481341],[-79.9499598,-2.1481347],[-79.9499599,-2.1481353],[-79.94996,-2.1481359],[-79.9499602,-2.1481365],[-79.9499604,-2.1481371],[-79.9499607,-2.1481376],[-79.949961,-2.1481381],[-79.9499614,-2.1481386],[-79.9499618,-2.1481391],[-79.9499622,-2.1481395],[-79.9499627,-2.1481399],[-79.9499632,-2.1481402],[-79.9499638,-2.1481405],[-79.9499643,-2.1481407],[-79.9499649,-2.1481409],[-79.9499655,-2.148141],[-79.9499661,-2.1481411],[-79.9499667,-2.1481411],[-79.9499673,-2.1481411],[-79.9499679,-2.148141],[-79.9499685,-2.1481409],[-79.9499691,-2.1481407],[-79.9499696,-2.1481405],[-79.9499702,-2.1481402],[-79.9499707,-2.1481399],[-79.9499712,-2.1481395],[-79.9499716,-2.1481391],[-79.949972,-2.1481386],[-79.9499724,-2.1481382],[-79.9499727,-2.1481376],[-79.949973,-2.1481371],[-79.9499732,-2.1481365],[-79.9499734,-2.148136],[-79.9499736,-2.1481354],[-79.9499736,-2.1481348],[-79.9499737,-2.1481341],[-79.9499736,-2.1481335],[-79.9499736,-2.1481329],[-79.9499734,-2.1481323],[-79.9499732,-2.1481318],[-79.949973,-2.1481312],[-79.9499727,-2.1481307],[-79.9499724,-2.1481301],[-79.949972,-2.1481297],[-79.9499716,-2.1481292],[-79.9499712,-2.1481288],[-79.9499707,-2.1481284],[-79.9499702,-2.1481281],[-79.9499697,-2.1481278],[-79.9499691,-2.1481276],[-79.9499685,-2.1481274],[-79.9499679,-2.1481273],[-79.9499673,-2.1481272],[-79.9499667,-2.1481272],[-79.9499661,-2.1481272],[-79.9499655,-2.1481273],[-79.9499649,-2.1481274],[-79.9499643,-2.1481276],[-79.9499638,-2.1481278],[-79.9499632,-2.1481281],[-79.9499627,-2.1481284],[-79.9499623,-2.1481288],[-79.9499618,-2.1481292],[-79.9499614,-2.1481296],[-79.949961,-2.1481301],[-79.9499607,-2.1481306],[-79.9499604,-2.1481312],[-79.9499602,-2.1481317],[-79.94996,-2.1481323],[-79.9499599,-2.1481329],[-79.9499598,-2.1481335],[-79.9499598,-2.1481341]]]]}},
{"type":"Feature","properties":{"Layer":"VIA INGRESO P3"},"geometry":{"type":"MultiPolygon","coordinates":[[[[-79.9499116,-2.1479795],[-79.9499116,-2.1479801],[-79.9499117,-2.1479807],[-79.9499118,-2.1479813],[-79.949912,-2.1479819],[-79.9499122,-2.1479825],[-79.9499125,-2.147983],[-79.9499128,-2.1479835],[-79.9499132,-2.147984],[-79.9499136,-2.1479845],[-79.9499141,-2.1479849],[-79.9499145,-2.1479852],[-79.9499151,-2.1479856],[-79.9499156,-2.1479858],[-79.9499162,-2.1479861],[-79.9499167,-2.1479863],[-79.9499173,-2.1479864],[-79.9499179,-2.1479865],[-79.9499185,-2.1479865],[-79.9499191,-2.1479865],[-79.9499197,-2.1479864],[-79.9499203,-2.1479863],[-79.9499209,-2.1479861],[-79.9499215,-2.1479859],[-79.949922,-2.1479856],[-79.9499225,-2.1479852],[-79.949923,-2.1479849],[-79.9499234,-2.1479845],[-79.9499239,-2.147984],[-79.9499242,-2.1479835],[-79.9499245,-2.147983],[-79.9499248,-2.1479825],[-79.9499251,-2.1479819],[-79.9499252,-2.1479813],[-79.9499254,-2.1479807],[-79.9499255,-2.1479801],[-79.9499255,-2.1479795],[-79.9499255,-2.1479789],[-79.9499254,-2.1479783],[-79.9499252,-2.1479777],[-79.9499251,-2.1479771],[-79.9499248,-2.1479766],[-79.9499246,-2.147976],[-79.9499242,-2.1479755],[-79.9499239,-2.147975],[-79.9499235,-2.1479746],[-79.949923,-2.1479742],[-79.9499225,-2.1479738],[-79.949922,-2.1479735],[-79.9499215,-2.1479732],[-79.9499209,-2.147973],[-79.9499203,-2.1479728],[-79.9499197,-2.1479726],[-79.9499191,-2.1479726],[-79.9499185,-2.1479725],[-79.9499179,-2.1479726],[-79.9499173,-2.1479726],[-79.9499167,-2.1479728],[-79.9499162,-2.1479729],[-79.9499156,-2.1479732],[-79.9499151,-2.1479735],[-79.9499146,-2.1479738],[-79.9499141,-2.1479742],[-79.9499136,-2.1479746],[-79.9499132,-2.147975],[-79.9499129,-2.1479755],[-79.9499125,-2.147976],[-79.9499122,-2.1479766],[-79.949912,-2.1479771],[-79.9499118,-2.1479777],[-79.9499117,-2.1479783],[-79.9499116,-2.1479789],[-79.9499116,-2.1479795]]]]}},
{"type":"Feature","properties":{"Layer":"VIA INGRESO P2"},"geometry":{"type":"MultiPolygon","coordinates":[[[[-79.9474467,-2.1455978],[-79.9474467,-2.1455984],[-79.9474468,-2.145599],[-79.9474469,-2.1455996],[-79.9474471,-2.1456002],[-79.9474473,-2.1456007],[-79.9474476,-2.1456013],[-79.9474479,-2.1456018],[-79.9474483,-2.1456023],[-79.9474487,-2.1456027],[-79.9474492,-2.1456031],[-79.9474496,-2.1456035],[-79.9474502,-2.1456038],[-79.9474507,-2.1456041],[-79.9474512,-2.1456043],[-79.9474518,-2.1456045],[-79.9474524,-2.1456046],[-79.947453,-2.1456047],[-79.9474536,-2.1456048],[-79.9474542,-2.1456047],[-79.9474548,-2.1456046],[-79.9474554,-2.1456045],[-79.947456,-2.1456043],[-79.9474566,-2.1456041],[-79.9474571,-2.1456038],[-79.9474576,-2.1456035],[-79.9474581,-2.1456031],[-79.9474585,-2.1456027],[-79.9474589,-2.1456023],[-79.9474593,-2.1456018],[-79.9474596,-2.1456013],[-79.9474599,-2.1456007],[-79.9474602,-2.1456002],[-79.9474603,-2.1455996],[-79.9474605,-2.145599],[-79.9474605,-2.1455984],[-79.9474606,-2.1455978],[-79.9474605,-2.1455972],[-79.9474605,-2.1455966],[-79.9474603,-2.145596],[-79.9474602,-2.1455954],[-79.9474599,-2.1455948],[-79.9474596,-2.1455943],[-79.9474593,-2.1455938],[-79.947459,-2.1455933],[-79.9474585,-2.1455928],[-79.9474581,-2.1455924],[-79.9474576,-2.145592],[-79.9474571,-2.1455917],[-79.9474566,-2.1455914],[-79.947456,-2.1455912],[-79.9474554,-2.145591],[-79.9474548,-2.1455909],[-79.9474542,-2.1455908],[-79.9474536,-2.1455908],[-79.947453,-2.1455908],[-79.9474524,-2.1455909],[-79.9474518,-2.145591],[-79.9474513,-2.1455912],[-79.9474507,-2.1455914],[-79.9474502,-2.1455917],[-79.9474496,-2.145592],[-79.9474492,-2.1455924],[-79.9474487,-2.1455928],[-79.9474483,-2.1455933],[-79.9474479,-2.1455938],[-79.9474476,-2.1455943],[-79.9474473,-2.1455948],[-79.9474471,-2.1455954],[-79.9474469,-2.145596],[-79.9474468,-2.1455965],[-79.9474467,-2.1455972],[-79.9474467,-2.1455978]]]]}},
{"type":"Feature","properties":{"Layer":"VIA INGRESO P1"},"geometry":{"type":"MultiPolygon","coordinates":[[[[-79.9473344,-2.1455108],[-79.9473344,-2.1455114],[-79.9473345,-2.145512],[-79.9473346,-2.1455126],[-79.9473348,-2.1455132],[-79.947335,-2.1455138],[-79.9473353,-2.1455143],[-79.9473356,-2.1455148],[-79.947336,-2.1455153],[-79.9473364,-2.1455158],[-79.9473369,-2.1455162],[-79.9473374,-2.1455165],[-79.9473379,-2.1455169],[-79.9473384,-2.1455171],[-79.947339,-2.1455174],[-79.9473395,-2.1455176],[-79.9473401,-2.1455177],[-79.9473407,-2.1455178],[-79.9473413,-2.1455178],[-79.9473419,-2.1455178],[-79.9473425,-2.1455177],[-79.9473431,-2.1455176],[-79.9473437,-2.1455174],[-79.9473443,-2.1455172],[-79.9473448,-2.1455169],[-79.9473453,-2.1455165],[-79.9473458,-2.1455162],[-79.9473462,-2.1455158],[-79.9473467,-2.1455153],[-79.947347,-2.1455148],[-79.9473474,-2.1455143],[-79.9473476,-2.1455138],[-79.9473479,-2.1455132],[-79.947348,-2.1455126],[-79.9473482,-2.145512],[-79.9473483,-2.1455114],[-79.9473483,-2.1455108],[-79.9473483,-2.1455102],[-79.9473482,-2.1455096],[-79.947348,-2.145509],[-79.9473479,-2.1455084],[-79.9473476,-2.1455079],[-79.9473474,-2.1455073],[-79.947347,-2.1455068],[-79.9473467,-2.1455063],[-79.9473463,-2.1455059],[-79.9473458,-2.1455055],[-79.9473453,-2.1455051],[-79.9473448,-2.1455048],[-79.9473443,-2.1455045],[-79.9473437,-2.1455043],[-79.9473431,-2.1455041],[-79.9473426,-2.1455039],[-79.9473419,-2.1455039],[-79.9473413,-2.1455038],[-79.9473407,-2.1455039],[-79.9473401,-2.1455039],[-79.9473395,-2.1455041],[-79.947339,-2.1455043],[-79.9473384,-2.1455045],[-79.9473379,-2.1455048],[-79.9473374,-2.1455051],[-79.9473369,-2.1455055],[-79.9473364,-2.1455059],[-79.947336,-2.1455063],[-79.9473357,-2.1455068],[-79.9473353,-2.1455073],[-79.947335,-2.1455079],[-79.9473348,-2.1455084],[-79.9473346,-2.145509],[-79.9473345,-2.1455096],[-79.9473344,-2.1455102],[-79.9473344,-2.1455108]]]]}},
{"type":"Feature","properties":{"Layer":"ZEDE 3"},"geometry":{"type":"MultiPolygon","coordinates":[[[[-79.9520845,-2.1379515],[-79.9520845,-2.1379521],[-79.9520846,-2.1379528],[-79.9520847,-2.1379533],[-79.9520849,-2.1379539],[-79.9520851,-2.1379545],[-79.9520854,-2.137955],[-79.9520857,-2.1379555],[-79.9520861,-2.137956],[-79.9520865,-2.1379565],[-79.9520869,-2.1379569],[-79.9520874,-2.1379573],[-79.9520879,-2.1379576],[-79.9520885,-2.1379579],[-79.952089,-2.1379581],[-79.9520896,-2.1379583],[-79.9520902,-2.1379584],[-79.9520908,-2.1379585],[-79.9520914,-2.1379585],[-79.952092,-2.1379585],[-79.9520926,-2.1379584],[-79.9520932,-2.1379583],[-79.9520938,-2.1379581],[-79.9520943,-2.1379579],[-79.9520949,-2.1379576],[-79.9520954,-2.1379573],[-79.9520959,-2.1379569],[-79.9520963,-2.1379565],[-79.9520967,-2.137956],[-79.9520971,-2.1379556],[-79.9520974,-2.137955],[-79.9520977,-2.1379545],[-79.9520979,-2.1379539],[-79.9520981,-2.1379534],[-79.9520982,-2.1379528],[-79.9520983,-2.1379522],[-79.9520983,-2.1379515],[-79.9520983,-2.1379509],[-79.9520982,-2.1379503],[-79.9520981,-2.1379497],[-79.9520979,-2.1379492],[-79.9520977,-2.1379486],[-79.9520974,-2.1379481],[-79.9520971,-2.1379475],[-79.9520967,-2.1379471],[-79.9520963,-2.1379466],[-79.9520959,-2.1379462],[-79.9520954,-2.1379458],[-79.9520949,-2.1379455],[-79.9520943,-2.1379452],[-79.9520938,-2.137945],[-79.9520932,-2.1379448],[-79.9520926,-2.1379447],[-79.952092,-2.1379446],[-79.9520914,-2.1379446],[-79.9520908,-2.1379446],[-79.9520902,-2.1379447],[-79.9520896,-2.1379448],[-79.952089,-2.137945],[-79.9520885,-2.1379452],[-79.9520879,-2.1379455],[-79.9520874,-2.1379458],[-79.9520869,-2.1379462],[-79.9520865,-2.1379466],[-79.9520861,-2.1379471],[-79.9520857,-2.1379475],[-79.9520854,-2.137948],[-79.9520851,-2.1379486],[-79.9520849,-2.1379492],[-79.9520847,-2.1379497],[-79.9520846,-2.1379503],[-79.9520845,-2.1379509],[-79.9520845,-2.1379515]]]]}},
{"type":"Feature","properties":{"Layer":"ZEDE 4"},"geometry":{"type":"MultiPolygon","coordinates":[[[[-79.9517674,-2.1371412],[-79.9517674,-2.1371418],[-79.9517675,-2.1371424],[-79.9517676,-2.137143],[-79.9517678,-2.1371436],[-79.951768,-2.1371441],[-79.9517683,-2.1371447],[-79.9517686,-2.1371452],[-79.951769,-2.1371457],[-79.9517694,-2.1371461],[-79.9517699,-2.1371465],[-79.9517703,-2.1371469],[-79.9517709,-2.1371472],[-79.9517714,-2.1371475],[-79.951772,-2.1371477],[-79.9517725,-2.1371479],[-79.9517731,-2.1371481],[-79.9517737,-2.1371481],[-79.9517743,-2.1371482],[-79.9517749,-2.1371481],[-79.9517755,-2.1371481],[-79.9517761,-2.1371479],[-79.9517767,-2.1371477],[-79.9517773,-2.1371475],[-79.9517778,-2.1371472],[-79.9517783,-2.1371469],[-79.9517788,-2.1371465],[-79.9517792,-2.1371461],[-79.9517796,-2.1371457],[-79.95178,-2.1371452],[-79.9517803,-2.1371447],[-79.9517806,-2.1371441],[-79.9517809,-2.1371436],[-79.951781,-2.137143],[-79.9517812,-2.1371424],[-79.9517812,-2.1371418],[-79.9517813,-2.1371412],[-79.9517813,-2.1371406],[-79.9517812,-2.13714],[-79.951781,-2.1371394],[-79.9517809,-2.1371388],[-79.9517806,-2.1371382],[-79.9517803,-2.1371377],[-79.95178,-2.1371372],[-79.9517797,-2.1371367],[-79.9517792,-2.1371362],[-79.9517788,-2.1371358],[-79.9517783,-2.1371355],[-79.9517778,-2.1371351],[-79.9517773,-2.1371348],[-79.9517767,-2.1371346],[-79.9517761,-2.1371344],[-79.9517755,-2.1371343],[-79.9517749,-2.1371342],[-79.9517743,-2.1371342],[-79.9517737,-2.1371342],[-79.9517731,-2.1371343],[-79.9517725,-2.1371344],[-79.951772,-2.1371346],[-79.9517714,-2.1371348],[-79.9517709,-2.1371351],[-79.9517704,-2.1371355],[-79.9517699,-2.1371358],[-79.9517694,-2.1371362],[-79.951769,-2.1371367],[-79.9517686,-2.1371372],[-79.9517683,-2.1371377],[-79.951768,-2.1371382],[-79.9517678,-2.1371388],[-79.9517676,-2.1371394],[-79.9517675,-2.13714],[-79.9517674,-2.1371406],[-79.9517674,-2.1371412]]]]}},
{"type":"Feature","properties":{"Layer":"ZEDE 2"},"geometry":{"type":"MultiPolygon","coordinates":[[[[-79.9509979,-2.1367946],[-79.9509979,-2.1367952],[-79.950998,-2.1367958],[-79.9509981,-2.1367964],[-79.9509983,-2.136797],[-79.9509985,-2.1367976],[-79.9509988,-2.1367981],[-79.9509991,-2.1367986],[-79.9509995,-2.1367991],[-79.9509999,-2.1367996],[-79.9510004,-2.1368],[-79.9510008,-2.1368003],[-79.9510013,-2.1368007],[-79.9510019,-2.136801],[-79.9510024,-2.1368012],[-79.951003,-2.1368014],[-79.9510036,-2.1368015],[-79.9510042,-2.1368016],[-79.9510048,-2.1368016],[-79.9510054,-2.1368016],[-79.951006,-2.1368015],[-79.9510066,-2.1368014],[-79.9510072,-2.1368012],[-79.9510078,-2.136801],[-79.9510083,-2.1368007],[-79.9510088,-2.1368003],[-79.9510093,-2.1368],[-79.9510097,-2.1367996],[-79.9510101,-2.1367991],[-79.9510105,-2.1367986],[-79.9510108,-2.1367981],[-79.9510111,-2.1367976],[-79.9510113,-2.136797],[-79.9510115,-2.1367964],[-79.9510117,-2.1367958],[-79.9510117,-2.1367952],[-79.9510118,-2.1367946],[-79.9510117,-2.136794],[-79.9510117,-2.1367934],[-79.9510115,-2.1367928],[-79.9510113,-2.1367922],[-79.9510111,-2.1367917],[-79.9510108,-2.1367911],[-79.9510105,-2.1367906],[-79.9510101,-2.1367901],[-79.9510097,-2.1367897],[-79.9510093,-2.1367893],[-79.9510088,-2.1367889],[-79.9510083,-2.1367886],[-79.9510078,-2.1367883],[-79.9510072,-2.1367881],[-79.9510066,-2.1367879],[-79.951006,-2.1367877],[-79.9510054,-2.1367877],[-79.9510048,-2.1367876],[-79.9510042,-2.1367877],[-79.9510036,-2.1367877],[-79.951003,-2.1367879],[-79.9510024,-2.1367881],[-79.9510019,-2.1367883],[-79.9510014,-2.1367886],[-79.9510008,-2.1367889],[-79.9510004,-2.1367893],[-79.9509999,-2.1367897],[-79.9509995,-2.1367901],[-79.9509991,-2.1367906],[-79.9509988,-2.1367911],[-79.9509985,-2.1367917],[-79.9509983,-2.1367922],[-79.9509981,-2.1367928],[-79.950998,-2.1367934],[-79.9509979,-2.136794],[-79.9509979,-2.1367946]]]]}},
{"type":"Feature","properties":{"Layer":"ZEDE 1"},"geometry":{"type":"MultiPolygon","coordinates":[[[[-79.9509097,-2.1363608],[-79.9509097,-2.1363614],[-79.9509098,-2.136362],[-79.9509099,-2.1363626],[-79.9509101,-2.1363632],[-79.9509103,-2.1363637],[-79.9509106,-2.1363643],[-79.9509109,-2.1363648],[-79.9509113,-2.1363653],[-79.9509117,-2.1363657],[-79.9509122,-2.1363661],[-79.9509126,-2.1363665],[-79.9509132,-2.1363668],[-79.9509137,-2.1363671],[-79.9509143,-2.1363674],[-79.9509148,-2.1363675],[-79.9509154,-2.1363677],[-79.950916,-2.1363678],[-79.9509166,-2.1363678],[-79.9509172,-2.1363678],[-79.9509178,-2.1363677],[-79.9509184,-2.1363676],[-79.950919,-2.1363674],[-79.9509196,-2.1363671],[-79.9509201,-2.1363669],[-79.9509206,-2.1363665],[-79.9509211,-2.1363662],[-79.9509215,-2.1363657],[-79.950922,-2.1363653],[-79.9509223,-2.1363648],[-79.9509226,-2.1363643],[-79.9509229,-2.1363638],[-79.9509232,-2.1363632],[-79.9509233,-2.1363626],[-79.9509235,-2.136362],[-79.9509236,-2.1363614],[-79.9509236,-2.1363608],[-79.9509236,-2.1363602],[-79.9509235,-2.1363596],[-79.9509233,-2.136359],[-79.9509232,-2.1363584],[-79.9509229,-2.1363579],[-79.9509226,-2.1363573],[-79.9509223,-2.1363568],[-79.950922,-2.1363563],[-79.9509215,-2.1363559],[-79.9509211,-2.1363555],[-79.9509206,-2.1363551],[-79.9509201,-2.1363548],[-79.9509196,-2.1363545],[-79.950919,-2.1363542],[-79.9509184,-2.1363541],[-79.9509178,-2.1363539],[-79.9509172,-2.1363538],[-79.9509166,-2.1363538],[-79.950916,-2.1363538],[-79.9509154,-2.1363539],[-79.9509148,-2.1363541],[-79.9509143,-2.1363542],[-79.9509137,-2.1363545],[-79.9509132,-2.1363547],[-79.9509127,-2.1363551],[-79.9509122,-2.1363554],[-79.9509117,-2.1363559],[-79.9509113,-2.1363563],[-79.9509109,-2.1363568],[-79.9509106,-2.1363573],[-79.9509103,-2.1363578],[-79.9509101,-2.1363584],[-79.9509099,-2.136359],[-79.9509098,-2.1363596],[-79.9509097,-2.1363602],[-79.9509097,-2.1363608]]]]}},
{"type":"Feature","properties":{"Layer":"ZEDE 5"},"geometry":{"type":"MultiPolygon","coordinates":[[[[-79.9570808,-2.1395866],[-79.9570808,-2.1395872],[-79.9570809,-2.1395878],[-79.9570811,-2.1395884],[-79.9570812,-2.139589],[-79.9570815,-2.1395895],[-79.9570817,-2.1395901],[-79.9570821,-2.1395906],[-79.9570824,-2.1395911],[-79.9570829,-2.1395915],[-79.9570833,-2.1395919],[-79.9570838,-2.1395923],[-79.9570843,-2.1395926],[-79.9570848,-2.1395929],[-79.9570854,-2.1395931],[-79.957086,-2.1395933],[-79.9570866,-2.1395935],[-79.9570872,-2.1395935],[-79.9570878,-2.1395936],[-79.9570884,-2.1395935],[-79.957089,-2.1395935],[-79.9570896,-2.1395933],[-79.9570901,-2.1395932],[-79.9570907,-2.1395929],[-79.9570912,-2.1395926],[-79.9570917,-2.1395923],[-79.9570922,-2.1395919],[-79.9570927,-2.1395915],[-79.9570931,-2.1395911],[-79.9570935,-2.1395906],[-79.9570938,-2.1395901],[-79.9570941,-2.1395895],[-79.9570943,-2.139589],[-79.9570945,-2.1395884],[-79.9570946,-2.1395878],[-79.9570947,-2.1395872],[-79.9570947,-2.1395866],[-79.9570947,-2.139586],[-79.9570946,-2.1395854],[-79.9570945,-2.1395848],[-79.9570943,-2.1395842],[-79.9570941,-2.1395836],[-79.9570938,-2.1395831],[-79.9570935,-2.1395826],[-79.9570931,-2.1395821],[-79.9570927,-2.1395816],[-79.9570922,-2.1395812],[-79.9570918,-2.1395809],[-79.9570912,-2.1395805],[-79.9570907,-2.1395803],[-79.9570901,-2.13958],[-79.9570896,-2.1395798],[-79.957089,-2.1395797],[-79.9570884,-2.1395796],[-79.9570878,-2.1395796],[-79.9570872,-2.1395796],[-79.9570866,-2.1395797],[-79.957086,-2.1395798],[-79.9570854,-2.13958],[-79.9570848,-2.1395803],[-79.9570843,-2.1395805],[-79.9570838,-2.1395809],[-79.9570833,-2.1395812],[-79.9570829,-2.1395816],[-79.9570824,-2.1395821],[-79.9570821,-2.1395826],[-79.9570818,-2.1395831],[-79.9570815,-2.1395836],[-79.9570812,-2.1395842],[-79.9570811,-2.1395848],[-79.9570809,-2.1395854],[-79.9570808,-2.139586],[-79.9570808,-2.1395866]]]]}}
]
}
