{
"type": "FeatureCollection",
"name": "valvulas_aire",
"crs": { "type": "name", "properties": { "name": "urn:ogc:def:crs:EPSG::32717" } },
"xy_coordinate_resolution": 1e-07,
"features": [
{"type":"Feature","properties":{"Layer":"PROYECTO_VALVULA_AIRE"},"geometry":{"type":"MultiPolygon","coordinates":[[[[617416.7453517,9762876.624998,0.0],[617420.0299277,9762879.909574,0.0],[617423.3145038,9762876.624998,0.0],[617420.0299277,9762873.340422,0.0],[617416.7453517,9762876.624998,0.0]]]]}},
{"type":"Feature","properties":{"Layer":"PROYECTO_VALVULA_AIRE"},"geometry":{"type":"MultiPolygon","coordinates":[[[[617309.4082259,9762760.9797407,0.0],[617312.692802,9762764.2643168,0.0],[617315.977378,9762760.9797407,0.0],[617312.692802,9762757.6951647,0.0],[617309.4082259,9762760.9797407,0.0]]]]}},
{"type":"Feature","properties":{"Layer":"PROYECTO_VALVULA_AIRE"},"geometry":{"type":"MultiPolygon","coordinates":[[[[617018.2041749,9762504.7171365,0.0],[617022.7786975,9762505.5237483,0.0],[617023.5853093,9762500.9492257,0.0],[617019.0107867,9762500.1426139,0.0],[617018.2041749,9762504.7171365,0.0]]]]}},
{"type":"Feature","properties":{"Layer":"PROYECTO_VALVULA_AIRE"},"geometry":{"type":"MultiPolygon","coordinates":[[[[616650.294274,9762448.1547174,0.0],[616654.8687966,9762448.9613292,0.0],[616655.6754084,9762444.3868066,0.0],[616651.1008858,9762443.5801948,0.0],[616650.294274,9762448.1547174,0.0]]]]}},
{"type":"Feature","properties":{"Layer":"PROYECTO_VALVULA_AIRE"},"geometry":{"type":"MultiPolygon","coordinates":[[[[615907.0369901,9762573.6944128,0.0],[615909.8683656,9762577.3768294,0.0],[615913.5507822,9762574.5454539,0.0],[615910.7194067,9762570.8630373,0.0],[615907.0369901,9762573.6944128,0.0]]]]}},
{"type":"Feature","properties":{"Layer":"PROYECTO_VALVULA_AIRE"},"geometry":{"type":"MultiPolygon","coordinates":[[[[615569.3050076,9762262.159223,0.0],[615572.7586226,9762263.0756987,0.0],[615573.6750983,9762259.6220836,0.0],[615570.2214833,9762258.705608,0.0],[615569.3050076,9762262.159223,0.0]]]]}},
{"type":"Feature","properties":{"Layer":"PROYECTO_VALVULA_AIRE"},"geometry":{"type":"MultiPolygon","coordinates":[[[[615934.9836134,9762143.3252234,0.0],[615939.6287054,9762143.3252234,0.0],[615939.6287054,9762138.6801315,0.0],[615934.9836134,9762138.6801315,0.0],[615934.9836134,9762143.3252234,0.0]]]]}},
{"type":"Feature","properties":{"Layer":"PROYECTO_VALVULA_AIRE"},"geometry":{"type":"MultiPolygon","coordinates":[[[[615307.4202219,9762697.4960147,0.0],[615308.2159334,9762700.9794366,0.0],[615311.6993552,9762700.1837251,0.0],[615310.9036438,9762696.7003033,0.0],[615307.4202219,9762697.4960147,0.0]]]]}},
{"type":"Feature","properties":{"Layer":"PROYECTO_VALVULA_AIRE"},"geometry":{"type":"MultiPolygon","coordinates":[[[[614852.4263499,9762606.9632824,0.0],[614853.887926,9762611.3724405,0.0],[614858.297084,9762609.9108645,0.0],[614856.835508,9762605.5017064,0.0],[614852.4263499,9762606.9632824,0.0]]]]}},
{"type":"Feature","properties":{"Layer":"PROYECTO_VALVULA_AIRE"},"geometry":{"type":"MultiPolygon","coordinates":[[[[614716.7483333,9762825.4964802,0.0],[614715.9417215,9762820.9219576,0.0],[614711.3671989,9762821.7285694,0.0],[614712.1738107,9762826.303092,0.0],[614716.7483333,9762825.4964802,0.0]]]]}}
]
}
