{
"type": "FeatureCollection",
"name": "valvulas_aapp",
"crs": { "type": "name", "properties": { "name": "urn:ogc:def:crs:EPSG::32717" } },
"xy_coordinate_resolution": 1e-07,
"features": [
{"type":"Feature","properties":{"Layer":"AAPP"},"geometry":{"type":"MultiLineString","coordinates":[[[614941.5908611,9762830.3627557,-108.7252536],[614949.6983983,9762827.4366038,-108.7252536]]]}},
{"type":"Feature","properties":{"Layer":"AAPP"},"geometry":{"type":"MultiLineString","coordinates":[[[614721.6506343,9762863.4117366,-122.4576815],[614708.3682686,9762793.6069715,-122.4576815],[614606.7374652,9762854.7922153,-122.4576815],[614592.4652134,9762835.4423587,-122.4576815]]]}},
{"type":"Feature","properties":{"Layer":"AAPP"},"geometry":{"type":"MultiLineString","coordinates":[[[616062.4385899,9762135.7431852,-39.0],[616062.4385899,9762144.1320013,-39.0],[616025.3449451,9762145.2852879,-39.0],[615952.3866794,9762239.8921427,-39.0]]]}},
{"type":"Feature","properties":{"Layer":"AAPP"},"geometry":{"type":"MultiLineString","coordinates":[[[616160.9391607,9762136.3473366,-39.0],[616062.4385899,9762136.3473366,-39.0]]]}},
{"type":"Feature","properties":{"Layer":"AAPP"},"geometry":{"type":"MultiLineString","coordinates":[[[616232.1303852,9762097.8666571,-39.0],[616267.6537254,9762097.8666571,-39.0]]]}},
{"type":"Feature","properties":{"Layer":"AAPP"},"geometry":{"type":"MultiLineString","coordinates":[[[616275.2232466,9762098.0963495,-39.0],[616360.3842417,9762098.0963495,-39.0],[616380.3729863,9762118.7871208,-39.0]]]}},
{"type":"Feature","properties":{"Layer":"AAPP"},"geometry":{"type":"MultiLineString","coordinates":[[[616260.0629834,9762097.4440708,-39.0],[616260.0629834,9762119.3068492,-39.0],[616249.552199,9762119.3068492,-39.0],[616249.552199,9762127.1185736,-39.0]]]}},
{"type":"Feature","properties":{"Layer":"AAPP"},"geometry":{"type":"MultiLineString","coordinates":[[[615924.7911383,9762586.7047948,0.0],[615918.3437054,9762581.8823246,0.0]]]}},
{"type":"Feature","properties":{"Layer":"AAPP"},"geometry":{"type":"MultiLineString","coordinates":[[[615837.5326539,9762416.6168927,-39.0],[615831.7475622,9762484.5913522,-39.0]]]}},
{"type":"Feature","properties":{"Layer":"AAPP"},"geometry":{"type":"MultiLineString","coordinates":[[[616837.8088668,9762382.8903017,-131.7152957],[616803.7969145,9762469.45659,-131.7152957]]]}},
{"type":"Feature","properties":{"Layer":"AAPP"},"geometry":{"type":"MultiLineString","coordinates":[[[615636.5990103,9762279.6319258,-18.4550073],[615629.2904885,9762277.7847799,-18.4550073],[615602.180032,9762269.0327715,-18.4550073],[615564.0821968,9762258.7802994,-18.4550073],[615545.4127765,9762253.3082078,-18.4550073],[615521.7606759,9762246.2160866,-18.4550073],[615495.9312273,9762238.3847146,-18.4550073],[615476.4899595,9762233.1277565,-18.4550073],[615446.1112977,9762233.4936809,-18.4550073],[615417.3457297,9762242.9240936,-18.4550073],[615395.7837084,9762257.2128874,-18.4550073],[615347.018021,9762302.4409518,-18.4550073],[615327.6852231,9762319.72892,-18.4550073],[615274.2390469,9762365.9506723,-18.4550073],[615217.9663792,9762406.4944072,-18.4550073],[615198.5727108,9762418.2557398,-18.4550073],[615097.9195295,9762491.6782408,-18.4550073],[615048.4368569,9762521.0395158,-18.4550073],[615037.6749275,9762525.7223156,-18.4550073],[615024.7864013,9762531.5253158,-18.4550073],[615019.7457275,9762533.6719158,-18.4550073],[615005.2797113,9762538.0539597,-18.4550073],[614984.6821936,9762542.9519542,-18.4550073],[614969.4895387,9762546.1267726,-18.4550073],[614948.9559792,9762548.297912,-18.4550073],[614926.6164275,9762549.3285514,-18.4550073],[614898.2602313,9762546.7444469,-18.4550073],[614883.7538925,9762545.6870212,-18.4550073],[614872.0318191,9762543.3282572,-18.4550073],[614849.8593988,9762540.0512697,-18.4550073]]]}},
{"type":"Feature","properties":{"Layer":"AAPP"},"geometry":{"type":"MultiLineString","coordinates":[[[615636.5990103,9762279.6319258,20.5449927],[615673.6007365,9762301.3638435,20.5449927],[615710.3726275,9762331.5883158,20.5449927],[615730.5449275,9762360.1401158,20.5449927],[615741.7825275,9762391.3804158,20.5449927],[615766.8339059,9762480.996701,20.5449927]]]}},
{"type":"Feature","properties":{"Layer":"AAPP"},"geometry":{"type":"MultiLineString","coordinates":[[[615644.3211601,9762243.1111221,0.0],[615681.9707717,9762055.1345335,0.0]]]}},
{"type":"Feature","properties":{"Layer":"AAPP"},"geometry":{"type":"MultiLineString","coordinates":[[[614991.785282,9762913.8855777,20.5449927],[614949.6983983,9762827.4366038,20.5449927]]]}},
{"type":"Feature","properties":{"Layer":"AAPP"},"geometry":{"type":"MultiLineString","coordinates":[[[614839.9518036,9762558.2183411,20.5449927],[614847.2683397,9762557.6428652,20.5449927],[614864.8590087,9762504.3317175,20.5449927],[614856.8398458,9762448.79406,20.5449927],[614838.9834143,9762435.2679312,20.5449927],[614790.390052,9762444.646534,20.5449927],[614746.3729981,9762444.6165666,20.5449927],[614735.034837,9762485.5943116,20.5449927],[614673.6560455,9762513.2197699,20.5449927],[614678.5350665,9762529.0929188,20.5449927]]]}},
{"type":"Feature","properties":{"Layer":"AAPP"},"geometry":{"type":"MultiLineString","coordinates":[[[614841.166068,9762555.6609553,20.5449927],[614843.9856527,9762556.3715784,20.5449927],[614853.0093275,9762531.9151158,20.5449927],[614843.5208275,9762530.0857158,20.5449927],[614838.7977275,9762529.0016158,20.5449927]]]}},
{"type":"Feature","properties":{"Layer":"AAPP"},"geometry":{"type":"MultiLineString","coordinates":[[[615111.1935332,9762543.0284719,20.5449927],[615147.6575719,9762564.4646558,20.5449927],[615221.7805321,9762538.9753942,20.5449927]]]}},
{"type":"Feature","properties":{"Layer":"AAPP"},"geometry":{"type":"MultiLineString","coordinates":[[[615221.7805321,9762538.9753942,20.5449927],[615225.3699436,9762552.9036706,20.5449927]]]}},
{"type":"Feature","properties":{"Layer":"AAPP"},"geometry":{"type":"MultiLineString","coordinates":[[[615914.7398629,9762579.1867676,0.0],[615907.0641911,9762604.5901574,0.0]]]}},
{"type":"Feature","properties":{"Layer":"AAPP"},"geometry":{"type":"MultiLineString","coordinates":[[[616143.8391598,9762136.3473366,-39.0],[616143.9102446,9762188.3389235,-39.0]]]}},
{"type":"Feature","properties":{"Layer":"AAPP"},"geometry":{"type":"MultiLineString","coordinates":[[[617535.4283848,9762542.7335442,-35.3129997],[617315.4483793,9762763.9469247,-35.3129997]]]}},
{"type":"Feature","properties":{"Layer":"AAPP"},"geometry":{"type":"MultiLineString","coordinates":[[[615831.7475622,9762484.5913522,0.0],[615766.8339059,9762480.996701,0.0]]]}},
{"type":"Feature","properties":{"Layer":"AAPP"},"geometry":{"type":"MultiLineString","coordinates":[[[615918.6618604,9762254.2126693,0.0],[615911.8898721,9762254.2126693,0.0]]]}},
{"type":"Feature","properties":{"Layer":"AAPP"},"geometry":{"type":"MultiLineString","coordinates":[[[615918.9941803,9762240.0837854,-39.0],[615897.4292911,9762240.2711837,-39.0],[615897.5302556,9762212.5242528,-39.0],[615909.5553609,9762212.5242528,-39.0],[615909.4402055,9762215.7435556,-39.0]]]}},
{"type":"Feature","properties":{"Layer":"AAPP"},"geometry":{"type":"MultiLineString","coordinates":[[[616352.0430215,9762097.6991651,0.0],[616352.0430215,9762104.2416857,0.0]]]}},
{"type":"Feature","properties":{"Layer":"AAPP"},"geometry":{"type":"MultiLineString","coordinates":[[[616275.2232466,9762097.823062,0.0],[616275.2232466,9762101.2444089,0.0]]]}},
{"type":"Feature","properties":{"Layer":"AAPP"},"geometry":{"type":"MultiLineString","coordinates":[[[615829.6912917,9762580.2621227,0.0],[615914.7398629,9762579.1867676,0.0]]]}},
{"type":"Feature","properties":{"Layer":"AAPP"},"geometry":{"type":"MultiLineString","coordinates":[[[615602.180032,9762269.0327715,-39.0],[615601.078273,9762232.8529935,-39.0]]]}},
{"type":"Feature","properties":{"Layer":"AAPP"},"geometry":{"type":"MultiLineString","coordinates":[[[615601.1045714,9762233.3632663,-39.0],[615606.0078307,9762131.3906727,-39.0]]]}},
{"type":"Feature","properties":{"Layer":"AAPP"},"geometry":{"type":"MultiLineString","coordinates":[[[615797.4765523,9762055.4820434,-39.0],[615685.8471778,9762030.6822456,-39.0]]]}},
{"type":"Feature","properties":{"Layer":"AAPP"},"geometry":{"type":"MultiLineString","coordinates":[[[615692.1725745,9761991.8110054,0.0],[615681.9707717,9762055.1345335,0.0]]]}},
{"type":"Feature","properties":{"Layer":"AAPP"},"geometry":{"type":"MultiLineString","coordinates":[[[615849.5808271,9761987.1721163,0.0],[615792.8145619,9762005.2381356,0.0]]]}},
{"type":"Feature","properties":{"Layer":"AAPP"},"geometry":{"type":"MultiLineString","coordinates":[[[615692.70945,9761865.0095436,0.0],[615697.7098628,9761864.8936158,0.0]]]}},
{"type":"Feature","properties":{"Layer":"AAPP"},"geometry":{"type":"MultiLineString","coordinates":[[[615692.1349944,9761991.9969984,-39.0],[615693.0485275,9761864.3667158,-39.0]]]}},
{"type":"Feature","properties":{"Layer":"AAPP"},"geometry":{"type":"MultiLineString","coordinates":[[[616069.6293838,9762125.5598296,0.0],[616062.2152857,9762125.6015364,0.0]]]}},
{"type":"Feature","properties":{"Layer":"AAPP"},"geometry":{"type":"MultiLineString","coordinates":[[[616200.8127316,9762163.7055759,0.0],[616200.880684,9762179.4868443,0.0]]]}},
{"type":"Feature","properties":{"Layer":"AAPP"},"geometry":{"type":"MultiLineString","coordinates":[[[616246.6648498,9762150.1809982,0.0],[616246.674435,9762163.6532793,0.0]]]}},
{"type":"Feature","properties":{"Layer":"AAPP"},"geometry":{"type":"MultiLineString","coordinates":[[[616252.5845719,9762158.8746866,0.0],[616246.6720258,9762159.0158087,0.0]]]}},
{"type":"Feature","properties":{"Layer":"AAPP"},"geometry":{"type":"MultiLineString","coordinates":[[[616250.9801426,9762150.1826552,0.0],[616246.6648498,9762150.1809982,0.0]]]}},
{"type":"Feature","properties":{"Layer":"AAPP"},"geometry":{"type":"MultiLineString","coordinates":[[[616255.332143,9762178.8815,0.0],[616251.0618317,9762178.8199315,0.0]]]}},
{"type":"Feature","properties":{"Layer":"AAPP"},"geometry":{"type":"MultiLineString","coordinates":[[[616250.4026804,9762173.8228243,0.0],[616244.8573701,9762173.7507275,0.0]]]}},
{"type":"Feature","properties":{"Layer":"AAPP"},"geometry":{"type":"MultiLineString","coordinates":[[[616244.8588108,9762173.6399182,0.0],[616244.7375462,9762182.9669636,0.0]]]}},
{"type":"Feature","properties":{"Layer":"AAPP"},"geometry":{"type":"MultiLineString","coordinates":[[[616244.7375462,9762182.9669636,0.0],[616242.662198,9762182.9399811,0.0]]]}},
{"type":"Feature","properties":{"Layer":"AAPP"},"geometry":{"type":"MultiLineString","coordinates":[[[616249.5718213,9762180.4765158,0.0],[616249.5718213,9762196.0187321,0.0],[616358.5331031,9762195.8942585,0.0]]]}},
{"type":"Feature","properties":{"Layer":"AAPP"},"geometry":{"type":"MultiLineString","coordinates":[[[616304.8701116,9762196.0187321,0.0],[616304.8701116,9762191.5360504,0.0]]]}},
{"type":"Feature","properties":{"Layer":"AAPP"},"geometry":{"type":"MultiLineString","coordinates":[[[616350.168466,9762197.29214,0.0],[616387.0147917,9762173.3015832,0.0]]]}},
{"type":"Feature","properties":{"Layer":"AAPP"},"geometry":{"type":"MultiLineString","coordinates":[[[616250.7895802,9762175.1771263,0.0],[616247.2978605,9762175.1771263,0.0]]]}},
{"type":"Feature","properties":{"Layer":"AAPP"},"geometry":{"type":"MultiLineString","coordinates":[[[616247.2978605,9762175.1771263,0.0],[616239.0410886,9762218.4473103,0.0],[616237.2766286,9762218.5364289,0.0]]]}},
{"type":"Feature","properties":{"Layer":"AAPP"},"geometry":{"type":"MultiLineString","coordinates":[[[616250.7917484,9762175.8010093,0.0],[616247.8006859,9762175.6771306,0.0]]]}},
{"type":"Feature","properties":{"Layer":"AAPP"},"geometry":{"type":"MultiLineString","coordinates":[[[616247.848021,9762175.6790911,0.0],[616243.8770272,9762239.7935849,0.0]]]}},
{"type":"Feature","properties":{"Layer":"AAPP"},"geometry":{"type":"MultiLineString","coordinates":[[[616387.0147917,9762173.3015832,0.0],[616401.5527262,9762144.224452,0.0],[616430.4357671,9762158.9349354,0.0],[616475.8292735,9762147.0247294,0.0]]]}},
{"type":"Feature","properties":{"Layer":"AAPP"},"geometry":{"type":"MultiLineString","coordinates":[[[616250.4647681,9762176.157441,0.0],[616250.7550968,9762180.3411608,0.0],[616250.7505352,9762205.4013659,0.0],[616279.6579878,9762205.4013659,0.0]]]}},
{"type":"Feature","properties":{"Layer":"AAPP"},"geometry":{"type":"MultiLineString","coordinates":[[[616275.635041,9762101.6542115,0.0],[616260.0629834,9762101.4785852,0.0]]]}},
{"type":"Feature","properties":{"Layer":"AAPP"},"geometry":{"type":"MultiLineString","coordinates":[[[616274.8508831,9762095.6501197,0.0],[616269.0951533,9762101.4333648,0.0]]]}},
{"type":"Feature","properties":{"Layer":"AAPP"},"geometry":{"type":"MultiLineString","coordinates":[[[615605.9570314,9762131.3909584,0.0],[615605.9632477,9762126.1145743,0.0]]]}},
{"type":"Feature","properties":{"Layer":"AAPP"},"geometry":{"type":"MultiLineString","coordinates":[[[615610.9570821,9762128.8854417,0.0],[615605.9842275,9762128.9134158,0.0]]]}},
{"type":"Feature","properties":{"Layer":"AAPP"},"geometry":{"type":"MultiLineString","coordinates":[[[615590.3446968,9762099.6078947,0.0],[615610.9388275,9762123.8858158,0.0]]]}},
{"type":"Feature","properties":{"Layer":"AAPP"},"geometry":{"type":"MultiLineString","coordinates":[[[615533.7374312,9761979.2627671,0.0],[615533.8074673,9762051.9887951,0.0]]]}},
{"type":"Feature","properties":{"Layer":"AAPP"},"geometry":{"type":"MultiLineString","coordinates":[[[615533.6377851,9762132.8852911,-39.0],[615610.9388275,9762134.4885975,-39.0]]]}},
{"type":"Feature","properties":{"Layer":"AAPP"},"geometry":{"type":"MultiLineString","coordinates":[[[616729.4812417,9762538.8508409,-131.7152957],[616734.337971,9762457.7268851,-131.7152957]]]}},
{"type":"Feature","properties":{"Layer":"AAPP"},"geometry":{"type":"MultiLineString","coordinates":[[[616845.6081873,9762737.9967979,-131.7152957],[616729.4812417,9762538.8508409,-131.7152957]]]}},
{"type":"Feature","properties":{"Layer":"AAPP"},"geometry":{"type":"MultiLineString","coordinates":[[[616642.2736962,9762413.7080306,-35.3129997],[616640.0731178,9762443.5873352,-35.3129997]]]}},
{"type":"Feature","properties":{"Layer":"AAPP"},"geometry":{"type":"MultiLineString","coordinates":[[[616642.2736962,9762413.7080306,-35.3129997],[616710.175258,9762368.0414522,-35.3129997]]]}},
{"type":"Feature","properties":{"Layer":"AAPP"},"geometry":{"type":"MultiLineString","coordinates":[[[616670.4934659,9762394.729081,-35.3129997],[616677.9765087,9762405.8343825,-35.3129997]]]}},
{"type":"Feature","properties":{"Layer":"AAPP"},"geometry":{"type":"MultiLineString","coordinates":[[[615534.2259825,9762059.7078916,0.0],[615533.6377851,9762132.8852911,0.0]]]}},
{"type":"Feature","properties":{"Layer":"AAPP"},"geometry":{"type":"MultiLineString","coordinates":[[[615541.9862275,9762042.1256158,-39.0],[615605.9632477,9762126.1145743,-39.0]]]}},
{"type":"Feature","properties":{"Layer":"AAPP"},"geometry":{"type":"MultiLineString","coordinates":[[[615313.1402596,9762721.0711941,0.0],[615309.3022275,9762722.2635158,0.0]]]}},
{"type":"Feature","properties":{"Layer":"AAPP"},"geometry":{"type":"MultiLineString","coordinates":[[[616248.4437146,9762197.347121,0.0],[616350.168466,9762197.29214,0.0]]]}},
{"type":"Feature","properties":{"Layer":"AAPP"},"geometry":{"type":"MultiLineString","coordinates":[[[616250.4647681,9762176.157441,0.0],[616248.4490167,9762176.1650451,0.0]]]}},
{"type":"Feature","properties":{"Layer":"AAPP"},"geometry":{"type":"MultiLineString","coordinates":[[[615792.4087168,9762596.572696,0.0],[615907.0641911,9762604.5901574,0.0]]]}},
{"type":"Feature","properties":{"Layer":"AAPP"},"geometry":{"type":"MultiLineString","coordinates":[[[616254.2900171,9762180.3507288,0.0],[616249.5718213,9762180.4765158,0.0]]]}},
{"type":"Feature","properties":{"Layer":"AAPP"},"geometry":{"type":"MultiLineString","coordinates":[[[615792.4087168,9762596.572696,0.0],[615789.4496789,9762604.4816164,0.0],[615770.2499154,9762624.0969311,0.0],[615640.0709835,9762731.2604725,0.0],[615625.6234778,9762751.2616164,0.0],[615618.4327824,9762782.0707234,0.0],[615620.9837659,9762825.3301604,0.0],[615621.703393,9762841.1591385,0.0],[615621.3731226,9762858.9330108,0.0],[615618.8560841,9762869.2979065,0.0],[615614.4427192,9762883.4097014,0.0],[615611.33293,9762891.3863278,0.0],[615608.0760754,9762895.7091281,0.0],[615590.8145866,9762920.0821473,0.0],[615547.3764369,9762979.5282448,0.0],[615516.9780013,9763017.3804116,0.0]]]}},
{"type":"Feature","properties":{"Layer":"AAPP"},"geometry":{"type":"MultiLineString","coordinates":[[[615516.9780013,9763017.3804116,0.0],[615484.8492989,9763022.4719038,0.0]]]}},
{"type":"Feature","properties":{"Layer":"AAPP"},"geometry":{"type":"MultiLineString","coordinates":[[[615988.2843806,9762159.6893853,0.0],[615992.9488981,9762159.6494594,0.0]]]}},
{"type":"Feature","properties":{"Layer":"AAPP"},"geometry":{"type":"MultiLineString","coordinates":[[[615023.6111145,9762610.5820241,0.0],[615040.9540735,9762605.0228602,0.0]]]}},
{"type":"Feature","properties":{"Layer":"AAPP"},"geometry":{"type":"MultiLineString","coordinates":[[[614960.7790204,9762878.7517807,20.5449927],[614972.7819554,9762875.040918,20.5449927]]]}},
{"type":"Feature","properties":{"Layer":"AAPP"},"geometry":{"type":"MultiLineString","coordinates":[[[616165.4702109,9762160.4690864,0.0],[616154.3229285,9762160.3923232,0.0]]]}},
{"type":"Feature","properties":{"Layer":"AAPP"},"geometry":{"type":"MultiLineString","coordinates":[[[615492.4213854,9763048.5917507,0.0],[615486.4406096,9763049.8191283,0.0],[615481.0377783,9763023.4921665,0.0],[615484.8492989,9763022.448366,0.0]]]}},
{"type":"Feature","properties":{"Layer":"AAPP"},"geometry":{"type":"MultiLineString","coordinates":[[[615518.8776284,9763014.1378764,0.0],[615483.4055997,9763020.9100233,0.0],[615461.9147802,9763010.515836,0.0]]]}},
{"type":"Feature","properties":{"Layer":"AAPP"},"geometry":{"type":"MultiLineString","coordinates":[[[615448.8043854,9763013.8884402,0.0],[615371.312681,9762957.4732599,0.0],[615363.2527445,9762966.0646356,0.0],[615366.8125209,9762968.6155666,0.0]]]}},
{"type":"Feature","properties":{"Layer":"AAPP"},"geometry":{"type":"MultiLineString","coordinates":[[[615446.9747592,9763008.1397626,0.0],[615444.6740435,9763011.0702879,0.0]]]}},
{"type":"Feature","properties":{"Layer":"AAPP"},"geometry":{"type":"MultiLineString","coordinates":[[[615448.8043854,9763013.8884402,0.0],[615444.247449,9763018.2213775,0.0]]]}},
{"type":"Feature","properties":{"Layer":"AAPP"},"geometry":{"type":"MultiLineString","coordinates":[[[614867.5655644,9762764.1696868,-122.4576815],[614865.6175299,9762762.8981536,-122.4576815]]]}},
{"type":"Feature","properties":{"Layer":"AAPP"},"geometry":{"type":"MultiLineString","coordinates":[[[614993.1943275,9762569.3263158,0.0],[615011.8257967,9762563.0252335,0.0]]]}},
{"type":"Feature","properties":{"Layer":"AAPP"},"geometry":{"type":"MultiLineString","coordinates":[[[617482.8607174,9762948.6247528,0.0],[617447.3465208,9762921.5911784,0.0]]]}},
{"type":"Feature","properties":{"Layer":"AAPP"},"geometry":{"type":"MultiLineString","coordinates":[[[616901.7649879,9762718.4457259,-130.918],[616907.7288893,9762707.5459621,-130.918]]]}},
{"type":"Feature","properties":{"Layer":"AAPP"},"geometry":{"type":"MultiLineString","coordinates":[[[616248.4490167,9762176.1650451,-39.0],[616248.3424009,9762201.1585043,-39.0],[616300.5499233,9762200.8617158,-39.0]]]}},
{"type":"Feature","properties":{"Layer":"AAPP"},"geometry":{"type":"MultiLineString","coordinates":[[[614813.3584601,9762704.1786187,-39.0],[614805.1283917,9762706.6738893,-39.0]]]}},
{"type":"Feature","properties":{"Layer":"AAPP"},"geometry":{"type":"MultiLineString","coordinates":[[[615511.526554,9763018.1525823,0.0],[615512.3759984,9763023.9996274,0.0]]]}},
{"type":"Feature","properties":{"Layer":"AAPP"},"geometry":{"type":"MultiLineString","coordinates":[[[616842.0368703,9762374.9864718,0.045271],[616835.7662261,9762370.9888619,0.045271]]]}},
{"type":"Feature","properties":{"Layer":"AAPP"},"geometry":{"type":"MultiLineString","coordinates":[[[616836.4640383,9762348.4422688,-130.9174838],[616841.6695452,9762362.0719409,-130.9174838]]]}},
{"type":"Feature","properties":{"Layer":"AAPP"},"geometry":{"type":"MultiLineString","coordinates":[[[616843.5578562,9762371.1802091,0.0611141],[616843.0717808,9762375.0016954,0.0611141]]]}},
{"type":"Feature","properties":{"Layer":"AAPP"},"geometry":{"type":"MultiLineString","coordinates":[[[615707.7571174,9762676.7275005,0.0],[615712.0230883,9762681.0612624,0.0]]]}},
{"type":"Feature","properties":{"Layer":"AAPP"},"geometry":{"type":"MultiLineString","coordinates":[[[615867.8791275,9762262.6695178,0.0],[615850.0488275,9762262.7539158,0.0]]]}},
{"type":"Feature","properties":{"Layer":"AAPP"},"geometry":{"type":"MultiLineString","coordinates":[[[615863.7358275,9762262.6695178,0.0],[615863.7358275,9762272.7011158,0.0]]]}},
{"type":"Feature","properties":{"Layer":"AAPP"},"geometry":{"type":"MultiLineString","coordinates":[[[615863.7358275,9762272.7011158,0.0],[615881.5059275,9762272.7011158,0.0]]]}},
{"type":"Feature","properties":{"Layer":"AAPP"},"geometry":{"type":"MultiLineString","coordinates":[[[615881.5059275,9762270.1209158,0.0],[615881.5059275,9762272.7011158,0.0]]]}},
{"type":"Feature","properties":{"Layer":"AAPP"},"geometry":{"type":"MultiLineString","coordinates":[[[615918.5898721,9762269.4010409,-39.0],[615911.6116275,9762262.615149,-39.0]]]}},
{"type":"Feature","properties":{"Layer":"AAPP"},"geometry":{"type":"MultiLineString","coordinates":[[[615906.0235275,9762209.2788882,-36.0746718],[615906.0235275,9762211.8590882,-36.0746718]]]}},
{"type":"Feature","properties":{"Layer":"AAPP"},"geometry":{"type":"MultiLineString","coordinates":[[[615792.8145619,9762005.2381356,0.0],[615798.4764275,9762055.0063158,0.0]]]}},
{"type":"Feature","properties":{"Layer":"AAPP"},"geometry":{"type":"MultiLineString","coordinates":[[[616063.1837693,9761932.5053454,0.0],[615997.8429864,9761905.0737617,0.0]]]}},
{"type":"Feature","properties":{"Layer":"AAPP"},"geometry":{"type":"MultiLineString","coordinates":[[[616082.0592275,9761985.1626158,0.0],[616063.1837693,9761932.5053454,0.0]]]}},
{"type":"Feature","properties":{"Layer":"AAPP"},"geometry":{"type":"MultiLineString","coordinates":[[[615702.7976275,9761863.6466158,0.0],[615711.6733959,9761863.2726545,0.0]]]}},
{"type":"Feature","properties":{"Layer":"AAPP"},"geometry":{"type":"MultiLineString","coordinates":[[[615699.3888689,9761871.8231325,0.0],[615699.3516113,9761875.7437933,0.0]]]}},
{"type":"Feature","properties":{"Layer":"AAPP"},"geometry":{"type":"MultiLineString","coordinates":[[[615398.3445779,9762661.9168996,-39.0],[615393.0694432,9762664.5001981,-39.0]]]}},
{"type":"Feature","properties":{"Layer":"AAPP"},"geometry":{"type":"MultiLineString","coordinates":[[[614666.2604287,9762549.8501835,-39.0],[614664.9362519,9762549.1297275,-39.0]]]}},
{"type":"Feature","properties":{"Layer":"AAPP"},"geometry":{"type":"MultiLineString","coordinates":[[[615086.779562,9762820.5724073,-39.0],[615074.3651716,9762824.0153144,-39.0]]]}},
{"type":"Feature","properties":{"Layer":"AAPP"},"geometry":{"type":"MultiLineString","coordinates":[[[615111.1639681,9762822.315655,20.5449927],[615076.995221,9762832.3855256,20.5449927]]]}},
{"type":"Feature","properties":{"Layer":"AAPP"},"geometry":{"type":"MultiLineString","coordinates":[[[615111.0428413,9762822.3526872,143.7780855],[615110.23376,9762819.6809287,143.7780855]]]}},
{"type":"Feature","properties":{"Layer":"AAPP"},"geometry":{"type":"MultiLineString","coordinates":[[[615089.8328261,9762796.6492849,0.0],[615068.8188749,9762802.3744079,0.0]]]}},
{"type":"Feature","properties":{"Layer":"AAPP"},"geometry":{"type":"MultiLineString","coordinates":[[[615066.8432977,9762828.1510198,143.7780855],[615072.5133136,9762846.6968062,143.7780855]]]}},
{"type":"Feature","properties":{"Layer":"AAPP"},"geometry":{"type":"MultiLineString","coordinates":[[[615067.8559353,9762826.5448578,143.7780855],[615072.5440275,9762824.9184158,143.7780855],[615073.2386481,9762826.9882279,143.7780855]]]}},
{"type":"Feature","properties":{"Layer":"AAPP"},"geometry":{"type":"MultiLineString","coordinates":[[[614927.2808752,9762816.9521366,143.7780855],[614933.020551,9762832.4175543,143.7780855]]]}},
{"type":"Feature","properties":{"Layer":"AAPP"},"geometry":{"type":"MultiLineString","coordinates":[[[614868.5357568,9762835.1740093,-122.4576815],[614873.774152,9762833.4585073,-122.4576815]]]}},
{"type":"Feature","properties":{"Layer":"AAPP"},"geometry":{"type":"MultiLineString","coordinates":[[[614855.4406735,9762852.3374312,143.7780855],[614872.4715705,9762847.044915,143.7780855]]]}},
{"type":"Feature","properties":{"Layer":"AAPP"},"geometry":{"type":"MultiLineString","coordinates":[[[614863.8164268,9762639.6192709,0.0],[614865.5063691,9762639.0904903,0.0]]]}},
{"type":"Feature","properties":{"Layer":"AAPP"},"geometry":{"type":"MultiLineString","coordinates":[[[614812.0012009,9762673.5448003,-39.0],[614815.0542461,9762672.614645,-39.0]]]}},
{"type":"Feature","properties":{"Layer":"AAPP"},"geometry":{"type":"MultiLineString","coordinates":[[[615155.5961336,9762563.3364211,41.0899853],[615155.073314,9762561.9145446,41.0899853]]]}},
{"type":"Feature","properties":{"Layer":"AAPP"},"geometry":{"type":"MultiLineString","coordinates":[[[614777.4364808,9762714.0940276,0.0],[614775.0397692,9762707.3099386,0.0],[614806.5129973,9762697.1839283,0.0]]]}},
{"type":"Feature","properties":{"Layer":"AAPP"},"geometry":{"type":"MultiLineString","coordinates":[[[614805.1591215,9762706.1713155,-39.0],[614804.7043717,9762704.7131759,-39.0]]]}},
{"type":"Feature","properties":{"Layer":"AAPP"},"geometry":{"type":"MultiLineString","coordinates":[[[614813.1920814,9762703.7153931,-39.0],[614812.7373316,9762702.2572536,-39.0]]]}},
{"type":"Feature","properties":{"Layer":"AAPP"},"geometry":{"type":"MultiLineString","coordinates":[[[614809.0575131,9762704.8226038,-39.0],[614804.064389,9762688.5201106,-39.0]]]}},
{"type":"Feature","properties":{"Layer":"AAPP"},"geometry":{"type":"MultiLineString","coordinates":[[[614803.7936412,9762687.9472848,-39.0],[614814.1217326,9762684.7896704,-39.0]]]}},
{"type":"Feature","properties":{"Layer":"AAPP"},"geometry":{"type":"MultiLineString","coordinates":[[[614814.8403239,9762685.2255766,104.7780855],[614811.6187264,9762674.6882058,104.7780855]]]}},
{"type":"Feature","properties":{"Layer":"AAPP"},"geometry":{"type":"MultiLineString","coordinates":[[[615123.8810172,9762751.9526301,-39.0],[615116.6772117,9762754.3361211,-39.0]]]}},
{"type":"Feature","properties":{"Layer":"AAPP"},"geometry":{"type":"MultiLineString","coordinates":[[[615132.2338393,9762747.5445281,20.5449927],[615134.8549105,9762756.7242081,20.5449927]]]}},
{"type":"Feature","properties":{"Layer":"AAPP"},"geometry":{"type":"MultiLineString","coordinates":[[[615139.8501101,9762753.859909,-39.0],[615140.3207543,9762755.2921808,-39.0]]]}},
{"type":"Feature","properties":{"Layer":"AAPP"},"geometry":{"type":"MultiLineString","coordinates":[[[615095.1547591,9762716.8469776,20.5449927],[615097.4531937,9762723.3885809,20.5449927]]]}},
{"type":"Feature","properties":{"Layer":"AAPP"},"geometry":{"type":"MultiLineString","coordinates":[[[615087.8783063,9762749.232085,-39.0],[615060.1503631,9762758.8820022,-39.0]]]}},
{"type":"Feature","properties":{"Layer":"AAPP"},"geometry":{"type":"MultiLineString","coordinates":[[[614982.9566396,9762839.8885759,-67.8883289],[614958.4041261,9762847.7494483,-67.8883289]]]}},
{"type":"Feature","properties":{"Layer":"AAPP"},"geometry":{"type":"MultiLineString","coordinates":[[[615035.4048914,9762767.9899041,143.7780855],[615032.08705,9762758.5143903,143.7780855]]]}},
{"type":"Feature","properties":{"Layer":"AAPP"},"geometry":{"type":"MultiLineString","coordinates":[[[615020.3147258,9762808.5202721,264.1189776],[615018.0275777,9762799.805475,264.1189776]]]}},
{"type":"Feature","properties":{"Layer":"AAPP"},"geometry":{"type":"MultiLineString","coordinates":[[[615084.7750502,9762804.8880117,0.0],[615070.5588948,9762808.7611166,0.0]]]}},
{"type":"Feature","properties":{"Layer":"AAPP"},"geometry":{"type":"MultiLineString","coordinates":[[[615109.7997838,9762844.2817412,143.7780855],[615099.6492011,9762847.3850858,143.7780855]]]}},
{"type":"Feature","properties":{"Layer":"AAPP"},"geometry":{"type":"MultiLineString","coordinates":[[[614897.3386496,9762879.9401893,143.7780855],[614908.5994695,9762876.4221443,143.7780855]]]}},
{"type":"Feature","properties":{"Layer":"AAPP"},"geometry":{"type":"MultiLineString","coordinates":[[[614927.8508505,9762892.5294129,0.0],[614926.897879,9762889.4790709,0.0]]]}},
{"type":"Feature","properties":{"Layer":"AAPP"},"geometry":{"type":"MultiLineString","coordinates":[[[614902.784663,9762900.3604568,0.0],[614927.8982222,9762892.5146132,0.0]]]}},
{"type":"Feature","properties":{"Layer":"AAPP"},"geometry":{"type":"MultiLineString","coordinates":[[[614841.8412644,9762904.4611471,163.4924411],[614878.1423252,9762880.443376,163.4924411]]]}},
{"type":"Feature","properties":{"Layer":"AAPP"},"geometry":{"type":"MultiLineString","coordinates":[[[614877.9480089,9762879.826576,-133.0005776],[614868.6301838,9762848.2386632,-133.0005776]]]}},
{"type":"Feature","properties":{"Layer":"AAPP"},"geometry":{"type":"MultiLineString","coordinates":[[[616159.9092275,9762093.2873158,0.0],[616154.2425301,9762093.313218,0.0]]]}},
{"type":"Feature","properties":{"Layer":"AAPP"},"geometry":{"type":"MultiLineString","coordinates":[[[616160.1530936,9762107.6324546,39.0],[616154.348783,9762107.6725158,39.0]]]}},
{"type":"Feature","properties":{"Layer":"AAPP"},"geometry":{"type":"MultiLineString","coordinates":[[[615109.8605139,9762731.7213538,20.5449927],[615105.866767,9762733.042747,20.5449927]]]}},
{"type":"Feature","properties":{"Layer":"AAPP"},"geometry":{"type":"MultiLineString","coordinates":[[[616037.9794504,9762124.5743631,-39.0],[616030.0829049,9762124.6173788,-39.0]]]}},
{"type":"Feature","properties":{"Layer":"AAPP"},"geometry":{"type":"MultiLineString","coordinates":[[[615988.2587658,9762171.3431787,0.0],[615988.2252575,9762160.2982183,0.0]]]}},
{"type":"Feature","properties":{"Layer":"AAPP"},"geometry":{"type":"MultiLineString","coordinates":[[[615988.8210294,9762171.3400158,0.1989759],[615981.4069313,9762171.3817226,0.1989759]]]}},
{"type":"Feature","properties":{"Layer":"AAPP"},"geometry":{"type":"MultiLineString","coordinates":[[[615014.4127967,9762890.3434114,0.0],[615015.6359933,9762894.6157357,0.0]]]}},
{"type":"Feature","properties":{"Layer":"AAPP"},"geometry":{"type":"MultiLineString","coordinates":[[[614957.909499,9762978.8985578,0.0],[614956.9565275,9762975.8482158,0.0]]]}},
{"type":"Feature","properties":{"Layer":"AAPP"},"geometry":{"type":"MultiLineString","coordinates":[[[614986.4037552,9762969.5727689,-39.0],[614985.4507837,9762966.5224269,-39.0]]]}},
{"type":"Feature","properties":{"Layer":"AAPP"},"geometry":{"type":"MultiLineString","coordinates":[[[614956.202824,9762988.8460617,287.5561709],[614949.6479601,9762982.3824919,287.5561709]]]}},
{"type":"Feature","properties":{"Layer":"AAPP"},"geometry":{"type":"MultiLineString","coordinates":[[[614949.4439089,9762982.306417,-39.0],[614948.1823275,9762982.6933158,-39.0]]]}},
{"type":"Feature","properties":{"Layer":"AAPP"},"geometry":{"type":"MultiLineString","coordinates":[[[614949.795099,9762981.5033578,0.0],[614948.8421275,9762978.4530158,0.0]]]}},
{"type":"Feature","properties":{"Layer":"AAPP"},"geometry":{"type":"MultiLineString","coordinates":[[[614959.252962,9762989.0946259,575.1123418],[614957.9913805,9762989.4815247,575.1123418]]]}},
{"type":"Feature","properties":{"Layer":"AAPP"},"geometry":{"type":"MultiLineString","coordinates":[[[614959.9638275,9762989.5052158,0.0],[614959.010856,9762986.4548738,0.0]]]}},
{"type":"Feature","properties":{"Layer":"AAPP"},"geometry":{"type":"MultiLineString","coordinates":[[[614899.4374928,9763172.7043669,143.7780855],[614890.8732209,9763172.4819461,143.7780855]]]}},
{"type":"Feature","properties":{"Layer":"AAPP"},"geometry":{"type":"MultiLineString","coordinates":[[[615023.6418698,9762905.1537722,23.522777],[615024.1563613,9762906.5996208,23.522777]]]}},
{"type":"Feature","properties":{"Layer":"AAPP"},"geometry":{"type":"MultiLineString","coordinates":[[[614903.8816496,9762905.4426253,71.886838],[614957.7470492,9762888.6578298,71.886838]]]}},
{"type":"Feature","properties":{"Layer":"AAPP"},"geometry":{"type":"MultiLineString","coordinates":[[[614957.9652569,9762888.3024811,23.522777],[614962.2379403,9762902.2877816,23.522777]]]}},
{"type":"Feature","properties":{"Layer":"AAPP"},"geometry":{"type":"MultiLineString","coordinates":[[[614785.6972527,9762870.0991868,143.7780855],[614769.3686422,9762840.3816431,143.7780855]]]}},
{"type":"Feature","properties":{"Layer":"AAPP"},"geometry":{"type":"MultiLineString","coordinates":[[[616848.4225246,9762270.6459053,131.0402301],[616846.2057817,9762274.1176614,131.0402301]]]}},
{"type":"Feature","properties":{"Layer":"AAPP"},"geometry":{"type":"MultiLineString","coordinates":[[[616849.7106445,9762268.8389555,131.0402301],[616856.4171618,9762263.7659683,131.0402301]]]}},
{"type":"Feature","properties":{"Layer":"AAPP"},"geometry":{"type":"MultiLineString","coordinates":[[[615510.5981436,9763024.4737918,0.0],[615513.0053538,9763024.088233,0.0]]]}},
{"type":"Feature","properties":{"Layer":"AAPP"},"geometry":{"type":"MultiLineString","coordinates":[[[615636.5990103,9762279.6319258,0.0],[615643.698032,9762245.6664031,0.0]]]}},
{"type":"Feature","properties":{"Layer":"AAPP"},"geometry":{"type":"MultiLineString","coordinates":[[[614786.9416867,9762484.3983902,104.7780855],[614797.7643794,9762485.8845935,104.7780855]]]}},
{"type":"Feature","properties":{"Layer":"AAPP"},"geometry":{"type":"MultiLineString","coordinates":[[[615167.4279286,9762742.0210772,20.5449927],[615149.9983129,9762748.1916184,20.5449927]]]}},
{"type":"Feature","properties":{"Layer":"AAPP"},"geometry":{"type":"MultiLineString","coordinates":[[[614769.8470105,9762496.639049,0.0],[614786.9416867,9762484.3983902,0.0]]]}},
{"type":"Feature","properties":{"Layer":"AAPP"},"geometry":{"type":"MultiLineString","coordinates":[[[614777.3935396,9762454.7700759,-78.0],[614776.3898275,9762456.461481,-78.0]]]}},
{"type":"Feature","properties":{"Layer":"AAPP"},"geometry":{"type":"MultiLineString","coordinates":[[[614773.5290122,9762457.5725184,-39.0],[614771.8438118,9762456.5584234,-39.0]]]}},
{"type":"Feature","properties":{"Layer":"AAPP"},"geometry":{"type":"MultiLineString","coordinates":[[[614777.2111258,9762455.0333015,-39.0],[614773.6574514,9762452.8951338,-39.0]]]}},
{"type":"Feature","properties":{"Layer":"AAPP"},"geometry":{"type":"MultiLineString","coordinates":[[[614770.3936275,9762493.8551158,0.0],[614768.6689642,9762494.5055748,0.0]]]}},
{"type":"Feature","properties":{"Layer":"AAPP"},"geometry":{"type":"MultiLineString","coordinates":[[[614662.3209148,9762554.407953,0.0],[614665.1039406,9762549.2876689,0.0]]]}},
{"type":"Feature","properties":{"Layer":"AAPP"},"geometry":{"type":"MultiLineString","coordinates":[[[614655.9788177,9762574.8228803,-39.0],[614666.3472814,9762555.3207211,-39.0]]]}},
{"type":"Feature","properties":{"Layer":"AAPP"},"geometry":{"type":"MultiLineString","coordinates":[[[614652.840458,9762586.3045512,-39.0],[614658.1980516,9762576.203191,-39.0]]]}},
{"type":"Feature","properties":{"Layer":"AAPP"},"geometry":{"type":"MultiLineString","coordinates":[[[614666.743958,9762597.0477512,-39.0],[614655.341981,9762591.1360226,-39.0]]]}},
{"type":"Feature","properties":{"Layer":"AAPP"},"geometry":{"type":"MultiLineString","coordinates":[[[614665.801458,9762555.6797512,0.0],[614662.891458,9762554.0570512,0.0]]]}},
{"type":"Feature","properties":{"Layer":"AAPP"},"geometry":{"type":"MultiLineString","coordinates":[[[614658.0822672,9762576.4214943,0.0],[614655.303458,9762574.9579512,0.0]]]}},
{"type":"Feature","properties":{"Layer":"AAPP"},"geometry":{"type":"MultiLineString","coordinates":[[[614657.0337728,9762580.7844047,-39.0],[614656.2894814,9762580.3910283,-39.0]]]}},
{"type":"Feature","properties":{"Layer":"AAPP"},"geometry":{"type":"MultiLineString","coordinates":[[[614655.341981,9762591.1360226,0.0],[614652.817858,9762585.6958512,0.0]]]}},
{"type":"Feature","properties":{"Layer":"AAPP"},"geometry":{"type":"MultiLineString","coordinates":[[[614666.6898297,9762595.8634593,-39.0],[614666.4080977,9762596.3932016,-39.0]]]}},
{"type":"Feature","properties":{"Layer":"AAPP"},"geometry":{"type":"MultiLineString","coordinates":[[[614810.2589275,9762484.8396158,-39.0],[614797.5968375,9762486.026463,-39.0]]]}},
{"type":"Feature","properties":{"Layer":"AAPP"},"geometry":{"type":"MultiLineString","coordinates":[[[614827.9070976,9762450.739455,-39.0],[614789.1928027,9762459.1076097,-39.0]]]}},
{"type":"Feature","properties":{"Layer":"AAPP"},"geometry":{"type":"MultiLineString","coordinates":[[[614789.1589177,9762459.3200628,-39.0],[614774.7873319,9762450.5910193,-39.0]]]}},
{"type":"Feature","properties":{"Layer":"AAPP"},"geometry":{"type":"MultiLineString","coordinates":[[[615918.8790275,9762325.7140158,-39.0],[615837.5326539,9762416.6168927,-39.0]]]}},
{"type":"Feature","properties":{"Layer":"AAPP"},"geometry":{"type":"MultiLineString","coordinates":[[[615831.7475622,9762484.5913522,0.0],[615910.2940919,9762574.1194355,0.0]]]}},
{"type":"Feature","properties":{"Layer":"AAPP"},"geometry":{"type":"MultiLineString","coordinates":[[[615545.0214275,9762028.8881158,0.0],[615545.0214275,9762036.7736298,0.0]]]}},
{"type":"Feature","properties":{"Layer":"AAPP"},"geometry":{"type":"MultiLineString","coordinates":[[[615542.4345664,9762040.2172611,0.0],[615545.0214275,9762036.7736298,0.0]]]}},
{"type":"Feature","properties":{"Layer":"AAPP"},"geometry":{"type":"MultiLineString","coordinates":[[[615838.1194019,9762043.2925075,45.3447924],[615810.9770365,9762040.6460491,45.3447924]]]}},
{"type":"Feature","properties":{"Layer":"AAPP"},"geometry":{"type":"MultiLineString","coordinates":[[[615809.1750247,9762041.5344521,45.3447924],[615799.33037,9762055.3937211,45.3447924]]]}},
{"type":"Feature","properties":{"Layer":"AAPP"},"geometry":{"type":"MultiLineString","coordinates":[[[615797.1817207,9762012.6477537,134.577123],[615793.1373568,9762012.6001065,134.577123]]]}},
{"type":"Feature","properties":{"Layer":"AAPP"},"geometry":{"type":"MultiLineString","coordinates":[[[615607.3516148,9762141.7707417,0.0],[615605.3724275,9762141.7987158,0.0]]]}},
{"type":"Feature","properties":{"Layer":"AAPP"},"geometry":{"type":"MultiLineString","coordinates":[[[615055.318529,9762738.1928677,20.5449927],[615106.2336619,9762720.3035067,20.5449927],[615147.6529459,9762864.1793386,20.5449927],[615108.7871093,9762908.7233147,20.5449927],[615085.9219118,9762938.2269713,20.5449927],[615037.0996987,9762997.8197208,20.5449927],[615015.797481,9763020.7387256,20.5449927],[615000.9919364,9763037.95048,20.5449927],[614974.5928275,9763059.0946158,20.5449927],[614956.7207911,9763067.0326708,20.5449927],[614934.9057275,9763069.7369158,20.5449927],[614902.4116275,9763067.3273158,20.5449927],[614879.0950176,9763062.8664786,20.5449927],[614847.1693548,9763050.9285703,20.5449927],[614819.7916233,9763030.809631,20.5449927],[614810.7344433,9763023.4986679,20.5449927],[614792.0417926,9763023.6088461,20.5449927]]]}},
{"type":"Feature","properties":{"Layer":"AAPP"},"geometry":{"type":"MultiLineString","coordinates":[[[615118.9056296,9762761.5979135,20.5449927],[615151.0895183,9762751.7607903,20.5449927],[615146.9536114,9762738.2328484,20.5449927],[615157.4385234,9762715.1863174,20.5449927],[615152.1317718,9762700.1522714,20.5449927],[615130.4280997,9762706.3177818,20.5449927],[615120.8882031,9762723.0745499,20.5449927],[615108.4447726,9762727.5088995,20.5449927]]]}},
{"type":"Feature","properties":{"Layer":"AAPP"},"geometry":{"type":"MultiLineString","coordinates":[[[615065.8440575,9762789.8186874,20.5449927],[615080.5145857,9762845.3032843,20.5449927]]]}},
{"type":"Feature","properties":{"Layer":"AAPP"},"geometry":{"type":"MultiLineString","coordinates":[[[614951.8226081,9762834.4239528,20.5449927],[615066.5299069,9762791.7916628,20.5449927]]]}},
{"type":"Feature","properties":{"Layer":"AAPP"},"geometry":{"type":"MultiLineString","coordinates":[[[615066.3219125,9762791.8689664,-58.8645501],[615122.6900073,9762777.0798935,-58.8645501]]]}},
{"type":"Feature","properties":{"Layer":"AAPP"},"geometry":{"type":"MultiLineString","coordinates":[[[615060.0806114,9762760.9709635,20.5449927],[615027.6990995,9762771.1701666,20.5449927]]]}},
{"type":"Feature","properties":{"Layer":"AAPP"},"geometry":{"type":"MultiLineString","coordinates":[[[615097.3804275,9762840.0019158,-39.0],[615109.9260631,9762880.8286245,-39.0],[614912.3365079,9762936.1758714,-39.0]]]}},
{"type":"Feature","properties":{"Layer":"AAPP"},"geometry":{"type":"MultiLineString","coordinates":[[[614986.4262078,9762903.2270942,20.5449927],[615046.1597573,9762885.8786869,20.5449927],[615039.7551263,9762858.1150324,20.5449927],[615097.3804275,9762840.0019158,20.5449927]]]}},
{"type":"Feature","properties":{"Layer":"AAPP"},"geometry":{"type":"MultiLineString","coordinates":[[[614867.8567864,9763020.1733318,-39.0],[614871.7014081,9763018.768836,-39.0],[614893.7947377,9763011.6761364,-39.0],[614889.0720227,9762996.2288318,-39.0],[614986.5991521,9762966.1684703,-39.0],[614980.6808275,9762948.1397158,-39.0],[614966.5993275,9762952.1508158,-39.0],[614962.1380303,9762938.4517772,-39.0],[614957.4526711,9762923.1893836,-39.0]]]}},
{"type":"Feature","properties":{"Layer":"AAPP"},"geometry":{"type":"MultiLineString","coordinates":[[[614887.3336278,9762842.4255509,-122.4576815],[614912.3365079,9762936.1758714,-122.4576815],[614901.3449516,9762938.9087809,-122.4576815],[614922.1707788,9762986.0855793,-122.4576815]]]}},
{"type":"Feature","properties":{"Layer":"AAPP"},"geometry":{"type":"MultiLineString","coordinates":[[[614950.6063209,9763086.2288461,20.5449927],[615050.8105366,9763046.2951977,20.5449927]]]}},
{"type":"Feature","properties":{"Layer":"AAPP"},"geometry":{"type":"MultiLineString","coordinates":[[[614905.0795734,9763067.5251573,0.0],[614903.6590952,9763106.1197269,0.0],[614903.1728152,9763118.5914905,0.0],[614901.5452548,9763126.8155254,0.0],[614897.1153332,9763223.2609368,0.0]]]}},
{"type":"Feature","properties":{"Layer":"AAPP"},"geometry":{"type":"MultiLineString","coordinates":[[[614903.6068265,9763107.4602779,0.0],[614893.1773275,9763107.1894158,0.0]]]}},
{"type":"Feature","properties":{"Layer":"AAPP"},"geometry":{"type":"MultiLineString","coordinates":[[[614913.1184009,9762765.6598394,-122.4576815],[614910.0908428,9762766.9843358,-122.4576815]]]}},
{"type":"Feature","properties":{"Layer":"AAPP"},"geometry":{"type":"MultiLineString","coordinates":[[[614851.8600581,9762785.2374627,-122.4576815],[614872.497669,9762847.0382329,-122.4576815],[614941.7211954,9762830.3157158,-122.4576815],[614928.7865254,9762789.9027153,-122.4576815],[614925.6866068,9762790.8504556,-122.4576815],[614868.2599462,9762676.5532119,-122.4576815]]]}},
{"type":"Feature","properties":{"Layer":"AAPP"},"geometry":{"type":"MultiLineString","coordinates":[[[614917.4025924,9762774.3375344,-161.4576815],[614920.5037946,9762773.392096,-161.4576815],[614924.3639275,9762783.2659158,-161.4576815],[614946.6486086,9762776.5458053,-161.4576815]]]}},
{"type":"Feature","properties":{"Layer":"AAPP"},"geometry":{"type":"MultiLineString","coordinates":[[[615040.0632803,9762677.9519458,-122.4576815],[614897.323609,9762734.3991063,-122.4576815]]]}},
{"type":"Feature","properties":{"Layer":"AAPP"},"geometry":{"type":"MultiLineString","coordinates":[[[614851.8600581,9762785.2374627,-122.4576815],[614897.323609,9762734.3991063,-122.4576815]]]}},
{"type":"Feature","properties":{"Layer":"AAPP"},"geometry":{"type":"MultiLineString","coordinates":[[[614842.6140979,9762552.6112316,20.5449927],[614801.2276848,9762623.7212948,20.5449927],[614820.7696063,9762692.8252455,20.5449927],[614877.0643311,9762673.9090006,20.5449927]]]}},
{"type":"Feature","properties":{"Layer":"AAPP"},"geometry":{"type":"MultiLineString","coordinates":[[[614816.4697046,9762677.6199754,20.5449927],[614847.401101,9762668.091981,20.5449927]]]}},
{"type":"Feature","properties":{"Layer":"AAPP"},"geometry":{"type":"MultiLineString","coordinates":[[[614877.1106956,9762674.048427,20.5449927],[614854.4609072,9762605.9365324,20.5449927],[614839.4033118,9762589.054004,20.5449927],[614836.6439991,9762592.8628297,20.5449927],[614830.0216564,9762589.840821,20.5449927],[614831.6381175,9762586.6104,20.5449927],[614823.9803954,9762583.7277368,20.5449927]]]}},
{"type":"Feature","properties":{"Layer":"AAPP"},"geometry":{"type":"MultiLineString","coordinates":[[[614870.7980883,9762655.1959062,-58.8645501],[614901.5394386,9762645.7747763,-58.8645501]]]}},
{"type":"Feature","properties":{"Layer":"AAPP"},"geometry":{"type":"MultiLineString","coordinates":[[[614849.359736,9762719.0084033,-39.0],[614846.371757,9762719.7315872,-39.0],[614836.4367206,9762688.1587639,-39.0]]]}},
{"type":"Feature","properties":{"Layer":"AAPP"},"geometry":{"type":"MultiLineString","coordinates":[[[614823.9803954,9762583.7277368,-39.0],[614782.3992002,9762583.6793606,-39.0]]]}},
{"type":"Feature","properties":{"Layer":"AAPP"},"geometry":{"type":"MultiLineString","coordinates":[[[614986.0888275,9762656.9510158,0.0],[615032.4599127,9762646.9781963,0.0]]]}},
{"type":"Feature","properties":{"Layer":"AAPP"},"geometry":{"type":"MultiLineString","coordinates":[[[614678.5855726,9762528.8795236,20.5449927],[614674.6752279,9762538.236675,20.5449927]]]}},
{"type":"Feature","properties":{"Layer":"AAPP"},"geometry":{"type":"MultiLineString","coordinates":[[[614664.9673253,9762549.4269132,0.0],[614671.4390245,9762537.9267927,0.0]]]}},
{"type":"Feature","properties":{"Layer":"AAPP"},"geometry":{"type":"MultiLineString","coordinates":[[[614674.6752279,9762538.236675,0.0],[614672.960907,9762537.5752722,0.0]]]}},
{"type":"Feature","properties":{"Layer":"AAPP"},"geometry":{"type":"MultiLineString","coordinates":[[[614685.6772089,9762535.6576007,20.5449927],[614733.0878726,9762523.2032788,20.5449927],[614780.224758,9762514.2082074,20.5449927],[614819.6977147,9762521.5429867,20.5449927],[614854.3040087,9762522.9267175,20.5449927],[614842.6140979,9762552.6112316,20.5449927]]]}},
{"type":"Feature","properties":{"Layer":"AAPP"},"geometry":{"type":"MultiLineString","coordinates":[[[614696.9322904,9762532.0939721,59.5449927],[614695.9432226,9762529.3841974,59.5449927],[614696.7381192,9762531.561996,59.5449927]]]}},
{"type":"Feature","properties":{"Layer":"AAPP"},"geometry":{"type":"MultiLineString","coordinates":[[[614685.6772089,9762535.6576007,20.5449927],[614684.7845955,9762532.7335217,20.5449927],[614685.3890737,9762534.8165615,20.5449927]]]}},
{"type":"Feature","properties":{"Layer":"AAPP"},"geometry":{"type":"MultiLineString","coordinates":[[[614761.0595429,9762474.8961024,0.0],[614769.8470105,9762496.639049,0.0]]]}},
{"type":"Feature","properties":{"Layer":"AAPP"},"geometry":{"type":"MultiLineString","coordinates":[[[614774.8006051,9762450.5675191,-39.0],[614761.0595429,9762474.8961024,-39.0]]]}},
{"type":"Feature","properties":{"Layer":"AAPP"},"geometry":{"type":"MultiLineString","coordinates":[[[614761.0331714,9762474.162183,-39.0],[614744.8631261,9762480.3341559,-39.0]]]}},
{"type":"Feature","properties":{"Layer":"AAPP"},"geometry":{"type":"MultiLineString","coordinates":[[[614731.1723711,9762489.5699701,0.0],[614736.5630943,9762487.8322113,0.0]]]}},
{"type":"Feature","properties":{"Layer":"AAPP"},"geometry":{"type":"MultiLineString","coordinates":[[[614736.5630943,9762487.8322113,-39.0],[614744.8631261,9762480.3341559,-39.0]]]}},
{"type":"Feature","properties":{"Layer":"AAPP"},"geometry":{"type":"MultiLineString","coordinates":[[[614731.6927423,9762489.4022228,-39.0],[614732.1724521,9762490.9071212,-39.0]]]}},
{"type":"Feature","properties":{"Layer":"AAPP"},"geometry":{"type":"MultiLineString","coordinates":[[[614836.5414495,9762528.2257996,0.0],[614810.2589275,9762484.8396158,0.0]]]}},
{"type":"Feature","properties":{"Layer":"AAPP"},"geometry":{"type":"MultiLineString","coordinates":[[[614819.6753486,9762480.4259947,-39.0],[614830.7051615,9762466.1690903,-39.0]]]}},
{"type":"Feature","properties":{"Layer":"AAPP"},"geometry":{"type":"MultiLineString","coordinates":[[[614819.6753486,9762480.4259947,0.0],[614810.5057556,9762485.0015183,0.0]]]}},
{"type":"Feature","properties":{"Layer":"AAPP"},"geometry":{"type":"MultiLineString","coordinates":[[[614848.680984,9762469.6954108,-78.0],[614833.715454,9762452.3591249,-78.0]]]}},
{"type":"Feature","properties":{"Layer":"AAPP"},"geometry":{"type":"MultiLineString","coordinates":[[[614833.6209215,9762452.3801709,-39.0],[614827.6038362,9762450.7549194,-39.0]]]}},
{"type":"Feature","properties":{"Layer":"AAPP"},"geometry":{"type":"MultiLineString","coordinates":[[[614830.7069025,9762466.0158996,-39.0],[614827.6038362,9762450.7549194,-39.0]]]}},
{"type":"Feature","properties":{"Layer":"AAPP"},"geometry":{"type":"MultiLineString","coordinates":[[[614793.808768,9762646.9528181,0.0],[614806.6678275,9762643.0358158,0.0]]]}},
{"type":"Feature","properties":{"Layer":"AAPP"},"geometry":{"type":"MultiLineString","coordinates":[[[615040.1112967,9762678.1211696,0.0],[615005.4557242,9762537.1049049,0.0]]]}},
{"type":"Feature","properties":{"Layer":"AAPP"},"geometry":{"type":"MultiLineString","coordinates":[[[615157.4675512,9762907.8593219,-39.0],[615153.3878176,9762913.5207214,-39.0]]]}},
{"type":"Feature","properties":{"Layer":"AAPP"},"geometry":{"type":"MultiLineString","coordinates":[[[615018.6515083,9763016.790487,-39.0],[615031.0815998,9763049.3311509,-39.0],[615042.3749763,9763082.2835656,-39.0],[615052.5180338,9763115.6080366,-39.0],[615061.498554,9763149.2644215,-39.0]]]}},
{"type":"Feature","properties":{"Layer":"AAPP"},"geometry":{"type":"MultiLineString","coordinates":[[[615123.1041859,9762894.16583,-39.0],[615153.3878176,9762913.5207214,-39.0]]]}},
{"type":"Feature","properties":{"Layer":"AAPP"},"geometry":{"type":"MultiLineString","coordinates":[[[615952.3866794,9762239.8921427,0.0],[615918.5898721,9762240.0861058,0.0]]]}},
{"type":"Feature","properties":{"Layer":"AAPP"},"geometry":{"type":"MultiLineString","coordinates":[[[615919.0004341,9762235.4333402,-39.0],[615918.8790275,9762325.7140158,-39.0]]]}},
{"type":"Feature","properties":{"Layer":"AAPP"},"geometry":{"type":"MultiLineString","coordinates":[[[615911.6116275,9762262.615149,-39.0],[615871.4381275,9762262.7476221,-39.0]]]}},
{"type":"Feature","properties":{"Layer":"AAPP"},"geometry":{"type":"MultiLineString","coordinates":[[[615952.4844716,9762239.2899172,0.0],[615951.8410213,9762266.7244047,0.0]]]}},
{"type":"Feature","properties":{"Layer":"AAPP"},"geometry":{"type":"MultiLineString","coordinates":[[[615918.9243433,9762228.0242528,-0.2127179],[615918.9243433,9762233.2232169,-0.2127179]]]}},
{"type":"Feature","properties":{"Layer":"AAPP"},"geometry":{"type":"MultiLineString","coordinates":[[[615988.283843,9762159.512169,0.0],[615988.283843,9762131.1765156,0.0]]]}},
{"type":"Feature","properties":{"Layer":"AAPP"},"geometry":{"type":"MultiLineString","coordinates":[[[615988.835657,9762156.0646346,0.1989759],[615981.4215589,9762156.1063415,0.1989759]]]}},
{"type":"Feature","properties":{"Layer":"AAPP"},"geometry":{"type":"MultiLineString","coordinates":[[[616062.3403365,9762108.8672538,0.0],[616037.9366494,9762108.7983918,0.0]]]}},
{"type":"Feature","properties":{"Layer":"AAPP"},"geometry":{"type":"MultiLineString","coordinates":[[[616037.9366494,9762108.7983918,-39.0],[616037.9795536,9762124.6124039,-39.0]]]}},
{"type":"Feature","properties":{"Layer":"AAPP"},"geometry":{"type":"MultiLineString","coordinates":[[[616246.3515078,9762088.0027787,-39.0],[616062.2943493,9762088.0027787,-39.0],[616062.2943493,9762131.1765156,-39.0],[615937.2249049,9762131.1765156,-39.0],[615937.8453352,9762240.0821205,-39.0]]]}},
{"type":"Feature","properties":{"Layer":"AAPP"},"geometry":{"type":"MultiLineString","coordinates":[[[616080.3418434,9762088.0027787,-78.0],[616080.3418434,9762018.4862087,-78.0],[616082.0592275,9761985.1626158,-78.0]]]}},
{"type":"Feature","properties":{"Layer":"AAPP"},"geometry":{"type":"MultiLineString","coordinates":[[[616086.1316275,9762088.5795158,0.0],[616085.9577173,9762075.4517151,0.0]]]}},
{"type":"Feature","properties":{"Layer":"AAPP"},"geometry":{"type":"MultiLineString","coordinates":[[[615307.1883961,9762722.2144957,148.2109206],[615290.4173275,9762715.3601158,148.2109206]]]}},
{"type":"Feature","properties":{"Layer":"AAPP"},"geometry":{"type":"MultiLineString","coordinates":[[[615249.4289275,9762717.5547158,-148.2109206],[615241.8535422,9762729.0585878,-148.2109206]]]}},
{"type":"Feature","properties":{"Layer":"AAPP"},"geometry":{"type":"MultiLineString","coordinates":[[[615309.836268,9762701.4204433,-148.2109206],[615249.4289275,9762717.5547158,-148.2109206]]]}},
{"type":"Feature","properties":{"Layer":"AAPP"},"geometry":{"type":"MultiLineString","coordinates":[[[615199.5885321,9762417.3793927,-39.0],[615266.5035857,9762518.7060527,-39.0],[615307.5508143,9762544.3946623,-39.0],[615350.3947182,9762603.9285594,-39.0],[615395.1743842,9762666.8197069,-39.0],[615394.2563973,9762679.5804192,-39.0],[615400.2541638,9762691.2702288,-39.0],[615393.8337898,9762710.5347813,-39.0],[615386.7279118,9762723.7296115,-39.0],[615319.4048085,9762742.3405025,-39.0],[615299.8944674,9762658.9164249,-39.0],[615371.3839567,9762633.4231155,-39.0]]]}},
{"type":"Feature","properties":{"Layer":"AAPP"},"geometry":{"type":"MultiLineString","coordinates":[[[614855.8262759,9762797.1145795,0.0],[614773.0721873,9762838.3466921,0.0],[614733.391843,9762860.149466,0.0],[614721.6506343,9762863.3405031,0.0]]]}},
{"type":"Feature","properties":{"Layer":"AAPP"},"geometry":{"type":"MultiLineString","coordinates":[[[614941.0238438,9763055.5300324,143.7780855],[614951.1021308,9763086.6883537,143.7780855]]]}},
{"type":"Feature","properties":{"Layer":"AAPP"},"geometry":{"type":"MultiLineString","coordinates":[[[615091.9165664,9762470.5272857,0.0],[615104.0472522,9762487.2083103,0.0]]]}},
{"type":"Feature","properties":{"Layer":"AAPP"},"geometry":{"type":"MultiLineString","coordinates":[[[615096.550202,9762461.81566,0.0],[615091.9165664,9762470.5272857,0.0]]]}},
{"type":"Feature","properties":{"Layer":"AAPP"},"geometry":{"type":"MultiLineString","coordinates":[[[615367.280829,9762632.1076223,0.0],[615366.9238558,9762633.8812772,0.0]]]}},
{"type":"Feature","properties":{"Layer":"AAPP"},"geometry":{"type":"MultiLineString","coordinates":[[[615574.4200507,9762261.1413106,0.0],[615572.1901308,9762270.1695017,0.0]]]}},
{"type":"Feature","properties":{"Layer":"AAPP"},"geometry":{"type":"MultiLineString","coordinates":[[[615221.882184,9762403.6731202,0.0],[615226.3902126,9762410.5633561,0.0]]]}},
{"type":"Feature","properties":{"Layer":"AAPP"},"geometry":{"type":"MultiLineString","coordinates":[[[616062.2943493,9762131.1765156,-39.0],[616062.4385899,9762136.3473366,-39.0]]]}},
{"type":"Feature","properties":{"Layer":"AAPP"},"geometry":{"type":"MultiLineString","coordinates":[[[616232.1303852,9762088.0027787,-38.7872821],[616232.1303852,9762164.0836036,-38.7872821]]]}},
{"type":"Feature","properties":{"Layer":"AAPP"},"geometry":{"type":"MultiLineString","coordinates":[[[616154.3229285,9762163.9045396,-38.7872821],[616250.7639654,9762163.5323968,-38.7872821]]]}},
{"type":"Feature","properties":{"Layer":"AAPP"},"geometry":{"type":"MultiLineString","coordinates":[[[616154.0070443,9762088.0027787,-39.0],[616154.0070443,9762164.0836036,-39.0]]]}},
{"type":"Feature","properties":{"Layer":"AAPP"},"geometry":{"type":"MultiLineString","coordinates":[[[616355.9545561,9762098.1542699,39.0],[616356.0,9762093.93,39.0]]]}},
{"type":"Feature","properties":{"Layer":"AAPP"},"geometry":{"type":"MultiLineString","coordinates":[[[614958.4561437,9762923.2571983,71.886838],[614955.7462338,9762914.5927181,71.886838]]]}},
{"type":"Feature","properties":{"Layer":"AAPP"},"geometry":{"type":"MultiLineString","coordinates":[[[614893.2525737,9762726.2964568,0.0],[614887.3895439,9762728.3916451,0.0]]]}},
{"type":"Feature","properties":{"Layer":"AAPP"},"geometry":{"type":"MultiLineString","coordinates":[[[615136.5443977,9762463.5029324,0.0],[615144.7441206,9762476.0297243,0.0],[615040.0632803,9762677.9519458,0.0],[615054.5310086,9762728.9404247,0.0],[615054.1816978,9762731.4451852,0.0],[615065.8440575,9762789.8186874,0.0]]]}},
{"type":"Feature","properties":{"Layer":"AAPP"},"geometry":{"type":"MultiLineString","coordinates":[[[614904.2671936,9762748.4469199,0.0],[614855.8262759,9762797.1145795,0.0]]]}},
{"type":"Feature","properties":{"Layer":"AAPP"},"geometry":{"type":"MultiLineString","coordinates":[[[615005.9152685,9762551.4240256,0.0],[615008.8077663,9762550.443863,0.0]]]}},
{"type":"Feature","properties":{"Layer":"AAPP"},"geometry":{"type":"MultiLineString","coordinates":[[[615792.4087168,9762596.572696,0.0],[615791.9980623,9762577.5634161,0.0]]]}},
{"type":"Feature","properties":{"Layer":"AAPP"},"geometry":{"type":"MultiLineString","coordinates":[[[615457.9071597,9763018.7658747,0.0],[615451.6347959,9763013.1961916,0.0]]]}},
{"type":"Feature","properties":{"Layer":"AAPP"},"geometry":{"type":"MultiLineString","coordinates":[[[615408.8936487,9762985.3695003,0.0],[615400.424154,9762995.7779838,0.0]]]}},
{"type":"Feature","properties":{"Layer":"AAPP"},"geometry":{"type":"MultiLineString","coordinates":[[[615400.4737238,9762995.1061996,0.0],[615403.9519472,9763001.4487709,0.0]]]}},
{"type":"Feature","properties":{"Layer":"AAPP"},"geometry":{"type":"MultiLineString","coordinates":[[[615462.3841418,9763010.515836,0.0],[615448.8043854,9763013.8884402,0.0]]]}},
{"type":"Feature","properties":{"Layer":"AAPP"},"geometry":{"type":"MultiLineString","coordinates":[[[615106.0550948,9762552.8344488,20.5449927],[615111.0,9762556.0,20.5449927]]]}},
{"type":"Feature","properties":{"Layer":"AAPP"},"geometry":{"type":"MultiLineString","coordinates":[[[616250.7639654,9762163.5323968,0.0],[616250.6462931,9762179.4064547,0.0]]]}},
{"type":"Feature","properties":{"Layer":"AAPP"},"geometry":{"type":"MultiLineString","coordinates":[[[615066.3244253,9762772.2618486,0.0],[615062.5016451,9762773.0889414,0.0]]]}},
{"type":"Feature","properties":{"Layer":"AAPP"},"geometry":{"type":"MultiLineString","coordinates":[[[617442.8913516,9762917.8992637,0.0],[617436.3668569,9762912.2385193,0.0],[617431.8126046,9762908.6993817,0.0],[617428.3700413,9762905.8414837,0.0]]]}},
{"type":"Feature","properties":{"Layer":"AAPP"},"geometry":{"type":"MultiLineString","coordinates":[[[615931.5411383,9762587.0769755,0.0],[615984.7381314,9762574.1296641,0.0],[616179.4981214,9762599.4987484,0.0],[616573.9571327,9762434.1210526,0.0],[616652.9848412,9762446.270762,0.0]]]}},
{"type":"Feature","properties":{"Layer":"AAPP"},"geometry":{"type":"MultiLineString","coordinates":[[[617192.8453007,9762631.9288979,0.0],[617312.692802,9762760.9797407,0.0]]]}},
{"type":"Feature","properties":{"Layer":"AAPP"},"geometry":{"type":"MultiLineString","coordinates":[[[617312.692802,9762760.9797407,0.0],[617420.0625823,9762876.5946722,0.0],[617429.0814587,9762886.3061271,0.0]]]}},
{"type":"Feature","properties":{"Layer":"AAPP"},"geometry":{"type":"MultiLineString","coordinates":[[[617020.8947421,9762502.8331811,0.0],[617081.6272602,9762512.1701903,0.0],[617192.8453007,9762631.9288979,0.0]]]}},
{"type":"Feature","properties":{"Layer":"AAPP"},"geometry":{"type":"MultiLineString","coordinates":[[[616652.9848412,9762446.270762,0.0],[617020.8947421,9762502.8331811,0.0]]]}},
{"type":"Feature","properties":{"Layer":"AAPP"},"geometry":{"type":"MultiLineString","coordinates":[[[615910.2940919,9762574.1194355,0.0],[615914.7398629,9762579.1867676,0.0]]]}},
{"type":"Feature","properties":{"Layer":"AAPP"},"geometry":{"type":"MultiLineString","coordinates":[[[615918.3437054,9762581.8823246,0.0],[615914.7398629,9762579.1867676,0.0]]]}}
]
}
