{
"type": "FeatureCollection",
"name": "valvulas",
"crs": { "type": "name", "properties": { "name": "urn:ogc:def:crs:EPSG::32717" } },
"xy_coordinate_resolution": 1e-07,
"features": [
{"type":"Feature","properties":{"Layer":"VALVULAS_PL","RUBRO":31,"UBICACION":"TANQUES PROSPERINA","CAMARA":"CAMARA #2","DIAMETRO":"200 mm","TIPO_VALV":"MARIPOSA WAFER","MARCA":"COVNA","NORTE":9762909.377,"ESTE":617423.402},"geometry":{"type":"MultiLineString","coordinates":[[[617420.5904666,9762909.3765341,0.0],[617426.2142677,9762909.3765341,0.0]]]}},
{"type":"Feature","properties":{"Layer":"VALVULAS_PL","RUBRO":31,"UBICACION":"TANQUES PROSPERINA","CAMARA":"CAMARA #1","DIAMETRO":"200 mm","TIPO_VALV":"MARIPOSA WAFER","MARCA":"COVNA","NORTE":9762904.709000001,"ESTE":617412.902},"geometry":{"type":"MultiLineString","coordinates":[[[617410.0898104,9762904.7090425,0.0],[617415.7136114,9762904.7090425,0.0]]]}},
{"type":"Feature","properties":{"Layer":"VALVULAS_PL","RUBRO":25,"UBICACION":"LINEA DE IMPULSION","CAMARA":"V4'","DIAMETRO":"200 mm","TIPO_VALV":"COMPUERTA/DESAGUE","MARCA":"ALLIGATOR","NORTE":9762706.596000001,"ESTE":617270.264},"geometry":{"type":"MultiLineString","coordinates":[[[617190.8319412,9762629.965949,0.0],[617194.8586601,9762633.8918468,0.0]]]}},
{"type":"Feature","properties":{"Layer":"VALVULAS_PL","RUBRO":null,"UBICACION":null,"CAMARA":null,"DIAMETRO":null,"TIPO_VALV":null,"MARCA":null,"NORTE":null,"ESTE":null},"geometry":{"type":"MultiLineString","coordinates":[[[615565.7953042,9762259.4217664,0.0],[615571.2520543,9762260.782287,0.0]]]}},
{"type":"Feature","properties":{"Layer":"VALVULAS_PL","RUBRO":29,"UBICACION":"CAMPUS ESPOL","CAMARA":"V29","DIAMETRO":"400 mm","TIPO_VALV":"MARIPOSA","MARCA":"ALLIGATOR","NORTE":9762572.299000001,"ESTE":615911.692},"geometry":{"type":"MultiLineString","coordinates":[[[615916.0674563,9762580.2313677,0.0],[615920.6172069,9762583.536955,0.0]]]}},
{"type":"Feature","properties":{"Layer":"VALVULAS_PL","RUBRO":25,"UBICACION":"CAMPUS ESPOL","CAMARA":"V28'","DIAMETRO":"200 mm","TIPO_VALV":"COMPUERTA/DESAGUE","MARCA":"ALLIGATOR","NORTE":9762468.583000001,"ESTE":615813.591},"geometry":{"type":"MultiLineString","coordinates":[[[615819.700239,9762474.4252248,0.0],[615819.2100924,9762480.0276256,0.0]]]}},
{"type":"Feature","properties":{"Layer":"VALVULAS_PL","RUBRO":27,"UBICACION":"CAMPUS ESPOL","CAMARA":"V27","DIAMETRO":"315 mm","TIPO_VALV":"COMPUERTA","MARCA":"ALLIGATOR","NORTE":9762469.953,"ESTE":615814.86},"geometry":{"type":"MultiLineString","coordinates":[[[615832.9687893,9762471.0270007,97.365],[615832.4786428,9762476.6294015,97.365]]]}},
{"type":"Feature","properties":{"Layer":"VALVULAS_PL","RUBRO":26,"UBICACION":"CAMPUS ESPOL","CAMARA":"V25","DIAMETRO":"200 mm","TIPO_VALV":"COMPUERTA","MARCA":"ALLIGATOR","NORTE":9762238.837,"ESTE":615915.193},"geometry":{"type":"MultiLineString","coordinates":[[[615918.9968843,9762235.2611538,0.0],[615918.9968843,9762240.8849549,0.0]]]}},
{"type":"Feature","properties":{"Layer":"VALVULAS_PL","RUBRO":21,"UBICACION":"CAMPUS ESPOL","CAMARA":"V23'","DIAMETRO":"110 mm","TIPO_VALV":"COMPUERTA","MARCA":"APOLO","NORTE":9762241.786,"ESTE":615936.412},"geometry":{"type":"MultiLineString","coordinates":[[[615938.0,9762235.1880995,0.0],[615938.0,9762240.8119005,0.0]]]}},
{"type":"Feature","properties":{"Layer":"VALVULAS_PL","RUBRO":26,"UBICACION":"CAMPUS ESPOL","CAMARA":"V23","DIAMETRO":"200 mm","TIPO_VALV":"COMPUERTA","MARCA":"ALLIGATOR","NORTE":9762242.971000001,"ESTE":615936.972},"geometry":{"type":"MultiLineString","coordinates":[[[615939.2499753,9762239.9675355,0.0],[615944.8737763,9762239.9675355,0.0]]]}},
{"type":"Feature","properties":{"Layer":"VALVULAS_PL","RUBRO":26,"UBICACION":"CAMPUS ESPOL","CAMARA":"V89'''","DIAMETRO":"200 mm","TIPO_VALV":"COMPUERTA","MARCA":"ALLIGATOR","NORTE":9762151.63,"ESTE":616050.787},"geometry":{"type":"MultiLineString","coordinates":[[[616062.2943493,9762137.2440382,0.0],[616062.2943493,9762142.8678392,0.0]]]}},
{"type":"Feature","properties":{"Layer":"VALVULAS_PL","RUBRO":21,"UBICACION":"CAMPUS ESPOL","CAMARA":"V13","DIAMETRO":"110 mm","TIPO_VALV":"COMPUERTA","MARCA":"APOLO","NORTE":9762157.581,"ESTE":616229.881},"geometry":{"type":"MultiLineString","coordinates":[[[616228.272086,9762163.622999,0.0],[616233.895887,9762163.622999,0.0]]]}},
{"type":"Feature","properties":{"Layer":"VALVULAS_PL","RUBRO":21,"UBICACION":"CAMPUS ESPOL","CAMARA":"V12","DIAMETRO":"110 mm","TIPO_VALV":"COMPUERTA","MARCA":"APOLO","NORTE":9762165.939,"ESTE":616248.386},"geometry":{"type":"MultiLineString","coordinates":[[[616250.7917484,9762172.9891087,0.0],[616250.7917484,9762178.6129098,0.0]]]}},
{"type":"Feature","properties":{"Layer":"VALVULAS_PL","RUBRO":18,"UBICACION":"CAMPUS ESPOL","CAMARA":"V80","DIAMETRO":"90 mm","TIPO_VALV":"COMPUERTA","MARCA":"APOLO","NORTE":9762077.87,"ESTE":616074.079},"geometry":{"type":"MultiLineString","coordinates":[[[616080.1904363,9762073.8562488,0.0],[616080.1904363,9762079.4800498,0.0]]]}},
{"type":"Feature","properties":{"Layer":"VALVULAS_PL","RUBRO":25,"UBICACION":"CAMPUS ESPOL","CAMARA":"V41","DIAMETRO":"200 mm","TIPO_VALV":"COMPUERTA","MARCA":"ALLIGATOR","NORTE":9762459.785,"ESTE":615134.646},"geometry":{"type":"MultiLineString","coordinates":[[[615135.5037447,9762464.3229591,100.399],[615140.0962553,9762461.0770409,100.399]]]}},
{"type":"Feature","properties":{"Layer":"VALVULAS_PL","RUBRO":26,"UBICACION":"CAMPUS ESPOL","CAMARA":"V34","DIAMETRO":"200 mm","TIPO_VALV":"COMPUERTA","MARCA":"ALLIGATOR","NORTE":9762436.439,"ESTE":615207.118},"geometry":{"type":"MultiLineString","coordinates":[[[615207.40506,9762429.764775,96.94],[615210.50414,9762434.457625,96.94]]]}},
{"type":"Feature","properties":{"Layer":"VALVULAS_PL","RUBRO":23,"UBICACION":"CAMPUS ESPOL","CAMARA":"V32","DIAMETRO":"160 mm","TIPO_VALV":"COMPUERTA","MARCA":"ALLIGATOR","NORTE":9762638.338,"ESTE":615368.749},"geometry":{"type":"MultiLineString","coordinates":[[[615363.1277938,9762636.7107822,85.353],[615368.1925158,9762634.2662517,85.353]]]}},
{"type":"Feature","properties":{"Layer":"VALVULAS_PL","RUBRO":21,"UBICACION":"CAMPUS ESPOL","CAMARA":"V31","DIAMETRO":"110 mm","TIPO_VALV":"COMPUERTA","MARCA":"APOLO","NORTE":9762638.522,"ESTE":615370.241},"geometry":{"type":"MultiLineString","coordinates":[[[615370.1225618,9762631.6354816,85.127],[615373.2466293,9762636.3118303,85.127]]]}},
{"type":"Feature","properties":{"Layer":"VALVULAS_PL","RUBRO":20,"UBICACION":"CAMPUS ESPOL","CAMARA":"V35","DIAMETRO":"110 mm","TIPO_VALV":"COMPUERTA","MARCA":"APOLO","NORTE":9762537.879000001,"ESTE":615000.873},"geometry":{"type":"MultiLineString","coordinates":[[[615309.6241115,9762701.4408577,0.0],[615311.0796583,9762706.8730324,0.0]]]}},
{"type":"Feature","properties":{"Layer":"VALVULAS_PL","RUBRO":18,"UBICACION":"CAMPUS ESPOL","CAMARA":"V85","DIAMETRO":"90 mm","TIPO_VALV":"COMPUERTA","MARCA":"APOLO","NORTE":9762705.567,"ESTE":615308.239},"geometry":{"type":"MultiLineString","coordinates":[[[615310.9841789,9762706.9517202,0.0],[615312.4012829,9762712.3941956,0.0]]]}},
{"type":"Feature","properties":{"Layer":"VALVULAS_PL","RUBRO":21,"UBICACION":"CAMPUS ESPOL","CAMARA":"V52","DIAMETRO":"110 mm","TIPO_VALV":"COMPUERTA","MARCA":"APOLO","NORTE":9762699.751,"ESTE":615310.211},"geometry":{"type":"MultiLineString","coordinates":[[[614997.1928512,9762540.6533565,0.0],[615002.4071488,9762538.5466435,0.0]]]}},
{"type":"Feature","properties":{"Layer":"VALVULAS_PL","RUBRO":22,"UBICACION":"CAMPUS ESPOL","CAMARA":"V51","DIAMETRO":"160 mm","TIPO_VALV":"COMPUERTA","MARCA":"APOLO","NORTE":9762556.626,"ESTE":614992.459},"geometry":{"type":"MultiLineString","coordinates":[[[615008.5349809,9762550.0752444,0.0],[615009.9905278,9762555.5074191,0.0]]]}},
{"type":"Feature","properties":{"Layer":"VALVULAS_PL","RUBRO":20,"UBICACION":"CAMPUS ESPOL","CAMARA":"V54","DIAMETRO":"110 mm","TIPO_VALV":"COMPUERTA","MARCA":"APOLO","NORTE":9762585.266000001,"ESTE":614814.838},"geometry":{"type":"MultiLineString","coordinates":[[[614823.1775157,9762585.5383894,198.5430073],[614820.2551169,9762590.3432539,198.5430073]]]}},
{"type":"Feature","properties":{"Layer":"VALVULAS_PL","RUBRO":21,"UBICACION":"CAMPUS ESPOL","CAMARA":"V53","DIAMETRO":"110 mm","TIPO_VALV":"COMPUERTA","MARCA":"APOLO","NORTE":9762619.644,"ESTE":614860.539},"geometry":{"type":"MultiLineString","coordinates":[[[614856.2770386,9762611.6489523,0.0],[614858.2778119,9762616.9048103,0.0]]]}},
{"type":"Feature","properties":{"Layer":"VALVULAS_PL","RUBRO":21,"UBICACION":"CAMPUS ESPOL","CAMARA":"V58","DIAMETRO":"110 mm","TIPO_VALV":"COMPUERTA","MARCA":"APOLO","NORTE":9762672.608,"ESTE":614863.334},"geometry":{"type":"MultiLineString","coordinates":[[[614864.357678,9762677.9617267,0.0],[614869.6423223,9762676.0382734,0.0]]]}},
{"type":"Feature","properties":{"Layer":"VALVULAS_PL","RUBRO":25,"UBICACION":"CAMPUS ESPOL","CAMARA":"V50","DIAMETRO":"200 mm","TIPO_VALV":"COMPUERTA","MARCA":"ALLIGATOR","NORTE":9762671.573000001,"ESTE":615024.045},"geometry":{"type":"MultiLineString","coordinates":[[[615028.0645512,9762682.6776565,0.0],[615033.2788488,9762680.5709435,0.0]]]}},
{"type":"Feature","properties":{"Layer":"VALVULAS_PL","RUBRO":18,"UBICACION":"CAMPUS ESPOL","CAMARA":"V60","DIAMETRO":"90 mm","TIPO_VALV":"COMPUERTA","MARCA":"APOLO","NORTE":9762744.404,"ESTE":614895.972},"geometry":{"type":"MultiLineString","coordinates":[[[614886.7831591,9762746.017972,0.0],[614890.7263575,9762742.0081933,0.0]]]}},
{"type":"Feature","properties":{"Layer":"VALVULAS_PL","RUBRO":21,"UBICACION":"CAMPUS ESPOL","CAMARA":"V62","DIAMETRO":"110 mm","TIPO_VALV":"COMPUERTA","MARCA":"APOLO","NORTE":9762742.957,"ESTE":614899.588},"geometry":{"type":"MultiLineString","coordinates":[[[614899.8170537,9762753.0508346,77.286],[614903.760252,9762749.041056,77.286]]]}},
{"type":"Feature","properties":{"Layer":"VALVULAS_PL","RUBRO":18,"UBICACION":"CAMPUS ESPOL","CAMARA":"V71","DIAMETRO":"90 mm","TIPO_VALV":"COMPUERTA","MARCA":"APOLO","NORTE":9762808.069,"ESTE":614847.727},"geometry":{"type":"MultiLineString","coordinates":[[[614837.5079012,9762806.2416848,0.0],[614842.5521117,9762803.7549913,0.0]]]}},
{"type":"Feature","properties":{"Layer":"VALVULAS_PL","RUBRO":18,"UBICACION":"CAMPUS ESPOL","CAMARA":"V70","DIAMETRO":"90 mm","TIPO_VALV":"COMPUERTA","MARCA":"APOLO","NORTE":9762845.423,"ESTE":614874.525},"geometry":{"type":"MultiLineString","coordinates":[[[614880.7043127,9762844.9697734,0.0],[614886.1364873,9762843.5142266,0.0]]]}},
{"type":"Feature","properties":{"Layer":"VALVULAS_PL","RUBRO":21,"UBICACION":"CAMPUS ESPOL","CAMARA":"V63","DIAMETRO":"110 mm","TIPO_VALV":"COMPUERTA","MARCA":"APOLO","NORTE":9762837.889,"ESTE":614951.818},"geometry":{"type":"MultiLineString","coordinates":[[[614945.0965002,9762829.3627183,0.0],[614950.3811446,9762827.4392651,0.0]]]}},
{"type":"Feature","properties":{"Layer":"VALVULAS_PL","RUBRO":21,"UBICACION":"CAMPUS ESPOL","CAMARA":"V67","DIAMETRO":"110 mm","TIPO_VALV":"COMPUERTA","MARCA":"APOLO","NORTE":9762918.835000001,"ESTE":614981.219},"geometry":{"type":"MultiLineString","coordinates":[[[614987.2131874,9762904.3925843,0.0],[614989.5899084,9762909.489479,0.0]]]}},
{"type":"Feature","properties":{"Layer":"VALVULAS_PL","RUBRO":16,"UBICACION":"CAMPUS ESPOL","CAMARA":"V46","DIAMETRO":"90 mm","TIPO_VALV":"COMPUERTA","MARCA":"APOLO","NORTE":9762789.509,"ESTE":615071.517},"geometry":{"type":"MultiLineString","coordinates":[[[615071.2667119,9762790.2470803,0.0],[615065.9055736,9762791.9457075,0.0]]]}},
{"type":"Feature","properties":{"Layer":"VALVULAS_PL","RUBRO":23,"UBICACION":"CAMPUS ESPOL","CAMARA":"V45","DIAMETRO":"160 mm","TIPO_VALV":"COMPUERTA","MARCA":"ALLIGATOR","NORTE":9762800.811000001,"ESTE":615064.589},"geometry":{"type":"MultiLineString","coordinates":[[[615067.632573,9762797.0918217,0.0],[615065.9720521,9762791.1667097,0.0]]]}},
{"type":"Feature","properties":{"Layer":"VALVULAS_PL","RUBRO":21,"UBICACION":"CAMPUS ESPOL","CAMARA":"V65","DIAMETRO":"110 mm","TIPO_VALV":"COMPUERTA","MARCA":"APOLO","NORTE":9762841.888,"ESTE":614953.462},"geometry":{"type":"MultiLineString","coordinates":[[[614951.9907763,9762832.4151851,0.0],[614949.8962121,9762827.6157661,0.0]]]}}
]
}
