{
"type": "FeatureCollection",
"name": "vias_mitad_principales",
"crs": { "type": "name", "properties": { "name": "urn:ogc:def:crs:EPSG::32717" } },
"xy_coordinate_resolution": 1e-07,
"features": [
{"type":"Feature","properties":{"Layer":"VIA ESPOL_ORIGINAL"},"geometry":{"type":"MultiLineString","coordinates":[[[615745.772464,9762390.9331881,0.0],[615747.1682156,9762396.0054125,0.0]]]}},
{"type":"Feature","properties":{"Layer":"VIA ESPOL_ORIGINAL"},"geometry":{"type":"MultiLineString","coordinates":[[[615118.2791399,9762881.5878644,0.0],[615133.0936561,9762858.0009816,0.0],[615141.3482861,9762848.5609961,0.0],[615161.4485406,9762834.5702558,0.0],[615175.7293432,9762828.9448271,0.0],[615186.8681158,9762825.8644146,0.0],[615204.9640336,9762823.7939116,0.0],[615224.8850439,9762825.4709132,0.0],[615253.6868922,9762836.8668295,0.0],[615286.4246,9762862.2342003,0.0],[615313.5871542,9762884.321731,0.0],[615352.0662476,9762915.6114305,0.0],[615370.34556,9762930.4754551,0.0],[615469.4785728,9763008.5758837,0.0],[615480.6328867,9763013.6850901,0.0],[615488.2183873,9763015.4175454,0.0],[615499.5966282,9763014.6596,0.0],[615510.4330405,9763011.0864149,0.0],[615516.8806969,9763007.1342648,0.0],[615524.9741544,9762998.395882,0.0],[615537.2734919,9762982.7496972,0.0],[615602.1532495,9762898.0933687,0.0],[615607.7397518,9762888.5701261,0.0],[615613.5267776,9762875.0356129,0.0],[615616.9884004,9762861.129398,0.0],[615617.8506575,9762850.0520895,0.0],[615614.6348811,9762783.7378253,0.0],[615616.1499477,9762770.3538809,0.0],[615619.6477486,9762757.6844228,0.0],[615625.956288,9762743.2050398,0.0],[615631.8600702,9762733.3415327,0.0],[615639.1872507,9762725.0189577,0.0],[615645.0205619,9762719.7490562,0.0],[615750.6864309,9762635.8386586,0.0],[615762.9176638,9762623.9403708,0.0],[615768.3873495,9762617.6100234,0.0],[615775.1559158,9762607.2624972,0.0],[615782.3455233,9762592.3905511,0.0],[615786.806052,9762576.4546626,0.0],[615788.5094192,9762562.890869,0.0],[615789.0526417,9762553.7193121,0.0],[615785.3200886,9762530.5841754,0.0],[615747.1682156,9762396.0054125,0.0]]]}},
{"type":"Feature","properties":{"Layer":"VIA ESPOL_ORIGINAL"},"geometry":{"type":"MultiLineString","coordinates":[[[615742.1321233,9762377.7040265,0.0],[615745.772464,9762390.9331881,0.0]]]}},
{"type":"Feature","properties":{"Layer":"VIA ESPOL_ORIGINAL"},"geometry":{"type":"MultiLineString","coordinates":[[[615742.1321233,9762377.7040265,0.0],[615740.8318881,9762363.860938,0.0]]]}},
{"type":"Feature","properties":{"Layer":"VIA ESPOL_ORIGINAL"},"geometry":{"type":"MultiLineString","coordinates":[[[615742.1321233,9762377.7040265,0.0],[615736.2607665,9762364.8812818,0.0]]]}},
{"type":"Feature","properties":{"Layer":"VIA ESPOL_ORIGINAL"},"geometry":{"type":"MultiLineString","coordinates":[[[615665.4597344,9762295.8365487,0.0],[615676.7593267,9762302.2096552,0.0],[615697.9231592,9762315.3380442,0.0],[615709.5333456,9762326.8486594,0.0],[615716.0210147,9762334.3733921,0.0],[615729.6380349,9762353.0109188,0.0],[615736.2607665,9762364.8812818,0.0]]]}},
{"type":"Feature","properties":{"Layer":"VIA ESPOL_ORIGINAL"},"geometry":{"type":"MultiLineString","coordinates":[[[615764.7128473,9762272.6560343,0.0],[615760.2280396,9762281.6662757,0.0],[615749.1143293,9762303.5456552,0.0],[615745.3429636,9762316.2894001,0.0],[615742.422458,9762329.6650917,0.0],[615740.8318881,9762346.9580025,0.0],[615740.8318881,9762363.860938,0.0]]]}},
{"type":"Feature","properties":{"Layer":"VIA ESPOL_ORIGINAL"},"geometry":{"type":"MultiLineString","coordinates":[[[615665.4597344,9762295.8365487,0.0],[615658.0608221,9762290.9584783,0.0]]]}},
{"type":"Feature","properties":{"Layer":"VIA ESPOL_ORIGINAL"},"geometry":{"type":"MultiLineString","coordinates":[[[617098.698298,9763186.5992762,0.0],[617093.6031278,9763165.5817209,0.0],[617090.2227289,9763148.1425424,0.0],[617086.370402,9763128.2687295,0.0],[617087.4258915,9763114.597619,0.0],[617100.1471188,9763073.533936,0.0],[617110.4855538,9763043.9997462,0.0],[617119.6554856,9763014.9614527,0.0],[617129.8064795,9762985.566447,0.0],[617136.1456023,9762964.7062481,0.0],[617138.6661511,9762946.9099804,0.0],[617138.6661511,9762928.7832183,0.0],[617137.0011998,9762916.9570375,0.0],[617132.6884251,9762901.3208196,0.0],[617123.3271539,9762880.7622543,0.0],[617115.8242419,9762870.070539,0.0],[617107.0830337,9762859.7228045,0.0],[617082.0057947,9762837.9380264,0.0],[617018.77999,9762785.1267029,0.0],[616990.6795284,9762761.7811777,0.0],[616944.5464005,9762735.7982598,0.0],[616871.0136065,9762696.682188,0.0],[616848.5211602,9762683.6769292,0.0],[616838.3754371,9762675.6183478,0.0],[616829.7912784,9762666.511332,0.0],[616818.6899919,9762653.0737431,0.0],[616797.3690123,9762625.4754677,0.0],[616785.5396812,9762609.7058272,0.0],[616778.2380536,9762596.5612559,0.0],[616772.8201645,9762582.497512,0.0],[616766.5104682,9762554.4074653,0.0],[616760.7476215,9762524.5161233,0.0],[616749.2542483,9762464.9010805,0.0],[616746.7167535,9762448.6718424,0.0],[616746.7167535,9762435.3710212,0.0],[616749.6001908,9762416.7099346,0.0],[616752.0109482,9762408.6526444,0.0],[616756.8333381,9762396.2379289,0.0],[616769.9547472,9762372.9037684,0.0],[616777.0440518,9762356.3901135,0.0],[616779.7381785,9762347.6625315,0.0],[616781.901388,9762338.4746421,0.0],[616783.2495154,9762327.5110677,0.0],[616783.8342941,9762318.837779,0.0],[616783.1590966,9762305.0697109,0.0],[616781.3851495,9762291.7210376,0.0],[616778.2215053,9762278.7974981,0.0],[616771.4472743,9762261.7096331,0.0],[616762.6784193,9762246.5068931,0.0],[616751.3255871,9762232.2187269,0.0],[616741.4669129,9762222.729725,0.0],[616734.7803758,9762217.0482004,0.0],[616723.3308993,9762209.4712511,0.0],[616715.8624092,9762205.1476321,0.0],[616683.9709283,9762190.0598372,0.0],[616608.245337,9762154.2342139,0.0],[616521.0731354,9762112.3238256,0.0],[616495.5089573,9762099.6914565,0.0],[616420.1968087,9762069.7144069,0.0],[616368.3475705,9762049.0764725,0.0],[616264.6100484,9762007.4616181,0.0],[616220.0352277,9761989.6688377,0.0],[616197.9467967,9761981.2417493,0.0],[616182.1298647,9761974.5878114,0.0],[616165.3178755,9761967.0598951,0.0],[616149.3800157,9761963.2111697,0.0],[616142.0820344,9761962.0893649,0.0],[616130.5884208,9761960.9970785,0.0],[616123.3790798,9761961.4694181,0.0],[616115.7142843,9761962.4760351,0.0],[616106.377577,9761964.2473126,0.0],[616096.0851392,9761967.5609842,0.0],[616083.3429413,9761973.9205759,0.0],[616074.5380755,9761979.7362589,0.0],[616064.6339904,9761988.1940915,0.0],[616037.1180874,9762013.9559933,0.0],[616000.3723014,9762048.7821276,0.0],[615953.5433714,9762093.1646481,0.0],[615921.8448383,9762123.2072051,0.0],[615857.0730534,9762184.5952205,0.0],[615776.2454289,9762260.6483249,0.0],[615756.7171572,9762273.5439028,0.0],[615734.4802036,9762283.8194642,0.0],[615716.4109466,9762288.7534258,0.0],[615701.2439362,9762292.13808,0.0],[615677.8997816,9762293.1473008,0.0],[615665.8910317,9762292.1941474,0.0],[615650.2306125,9762289.7228092,0.0],[615624.5219237,9762282.7701463,0.0],[615483.2302523,9762241.4910582,0.0],[615467.8988746,9762238.9476956,0.0],[615452.681522,9762239.2337899,0.0],[615441.6720086,9762241.0509265,0.0],[615426.6249372,9762245.6941331,0.0],[615414.2418004,9762251.4121533,0.0],[615402.4119197,9762260.0548353,0.0],[615384.8100749,9762275.6747635,0.0],[615337.8352884,9762318.3510939,0.0],[615293.9685006,9762358.203825,0.0],[615275.5267307,9762373.1827039,0.0],[615269.2893195,9762378.2488894,0.0],[615255.8577301,9762387.1857539,0.0],[615155.1772915,9762457.5167503,0.0],[615086.569172,9762505.3140702,0.0],[615071.3373627,9762514.9646734,0.0],[615051.1363411,9762526.2055851,0.0],[615034.0065848,9762534.081003,0.0],[615007.3379604,9762543.5404505,0.0],[614983.6511814,9762549.1756791,0.0],[614971.6438964,9762551.6287001,0.0],[614951.6782775,9762554.2445718,0.0],[614927.3369125,9762555.2157171,0.0],[614906.8368599,9762554.4092644,0.0],[614883.1084727,9762551.7211042,0.0],[614859.7271773,9762547.6145204,0.0],[614839.1374557,9762545.4488952,0.0],[614831.1881978,9762545.0665152,0.0],[614819.8841342,9762545.0665152,0.0],[614808.2488523,9762546.0218297,0.0],[614795.7701299,9762549.071478,0.0],[614786.2729656,9762552.5726515,0.0],[614772.7336477,9762560.0366919,0.0],[614766.5946208,9762564.8795709,0.0],[614758.452832,9762572.4517015,0.0],[614751.18782,9762581.5257321,0.0],[614743.0460121,9762594.6674395,0.0],[614733.045108,9762616.1173444,0.0],[614726.3911399,9762633.7464707,0.0],[614721.4149577,9762648.9351111,0.0],[614717.6337118,9762664.4189941,0.0],[614714.656347,9762683.9780202,0.0],[614713.3082285,9762702.4788094,0.0],[614713.3082285,9762722.4229555,0.0],[614715.3354039,9762741.7803152,0.0],[614719.3199789,9762765.4601661,0.0],[614726.9435151,9762800.0216307,0.0],[614731.0620948,9762818.6933004,0.0],[614736.1252331,9762841.6471462,0.0],[614739.9833057,9762863.3904277,0.0],[614746.5430858,9762895.0340964,0.0],[614751.5850122,9762919.3558028,0.0],[614758.273111,9762942.6259825,0.0],[614766.1048206,9762961.4287576,0.0],[614776.2024976,9762979.2463986,0.0],[614790.4312121,9762998.641577,0.0],[614809.1692946,9763017.2935722,0.0],[614812.2464024,9763020.0065149,0.0],[614815.2906078,9763022.2919679,0.0],[614818.3532215,9763024.591241,0.0],[614821.551011,9763026.8922632,0.0],[614827.0238882,9763030.797476,0.0],[614838.0308762,9763037.5929342,0.0],[614841.3247497,9763039.4269374,0.0],[614844.7109523,9763041.3063082,0.0],[614855.6794728,9763046.3856606,0.0],[614859.0183726,9763047.856314,0.0],[614862.6555804,9763049.26359,0.0],[614866.325456,9763050.6835056,0.0],[614873.6424583,9763053.1600887,0.0],[614877.4679199,9763054.1016506,0.0],[614881.1050363,9763054.996855,0.0],[614892.3539241,9763057.7629967,0.0],[614903.5554356,9763059.4974218,0.0],[614911.1770702,9763060.3803938,0.0],[614918.7071344,9763061.0038529,0.0],[614922.4903343,9763061.0038529,0.0],[614926.5220639,9763060.8107002,0.0],[614931.9832148,9763060.2434902,0.0],[614938.9254321,9763059.5224525,0.0],[614946.835919,9763057.6340218,0.0],[614954.6487887,9763055.0796245,0.0],[614961.5999439,9763052.2669226,0.0],[614968.2712569,9763048.6637964,0.0],[614978.7267273,9763041.4598321,0.0],[614987.8705097,9763032.690288,0.0],[615025.5795171,9762989.3478575,0.0],[615074.2756764,9762931.631143,0.0]]]}},
{"type":"Feature","properties":{"Layer":"VIA ESPOL_ORIGINAL"},"geometry":{"type":"MultiLineString","coordinates":[[[615764.7128473,9762272.6560343,0.0],[615767.9693948,9762266.1134395,0.0]]]}},
{"type":"Feature","properties":{"Layer":"VIA ESPOL_ORIGINAL"},"geometry":{"type":"MultiLineString","coordinates":[[[617109.5389104,9763183.9712463,0.0],[617105.6684462,9763164.7834394,0.0],[617102.0681326,9763147.8221237,0.0],[617098.1509051,9763129.2734599,0.0],[617099.2063946,9763115.6023494,0.0],[617111.927622,9763074.5386663,0.0],[617122.2660569,9763045.0044765,0.0],[617131.4359887,9763015.966183,0.0],[617141.5869826,9762986.5711773,0.0],[617147.9261054,9762965.7109784,0.0],[617150.4682467,9762945.3810693,0.0],[617149.820581,9762927.2543072,0.0],[617147.5385478,9762911.7896624,0.0],[617143.2257732,9762896.1534445,0.0],[617133.8645019,9762875.5948792,0.0],[617124.573433,9762862.3550247,0.0],[617115.8322248,9762852.0072902,0.0],[617087.9551333,9762827.5220851,0.0],[617024.7293286,9762774.7107615,0.0],[616996.6288671,9762751.3652364,0.0],[616950.4957391,9762725.3823185,0.0],[616876.9629451,9762686.2662467,0.0],[616860.1738802,9762677.1200216,0.0],[616848.8585821,9762669.9035265,0.0],[616840.2744234,9762660.7965108,0.0],[616829.1731369,9762647.3589218,0.0],[616811.3675091,9762624.3109837,0.0],[616804.4017251,9762615.1608871,0.0],[616796.0228263,9762603.9910059,0.0],[616790.2851699,9762594.430384,0.0],[616784.6054249,9762580.7560567,0.0],[616777.6963645,9762552.9402991,0.0],[616771.9335178,9762523.0489571,0.0],[616760.7893651,9762465.2452878,0.0],[616758.2518702,9762449.0160497,0.0],[616758.2518702,9762435.7152285,0.0],[616761.1353075,9762419.7248809,0.0],[616763.5460649,9762411.6675907,0.0],[616768.3684548,9762399.2528753,0.0],[616781.5204159,9762375.9187147,0.0],[616788.0971353,9762359.4050598,0.0],[616791.9264481,9762344.9386622,0.0],[616794.0543406,9762335.7507728,0.0],[616795.1190889,9762324.4744116,0.0],[616795.5105792,9762316.1139097,0.0],[616794.554007,9762302.3458415,0.0],[616792.7800598,9762288.9971682,0.0],[616789.0329849,9762273.8011554,0.0],[616781.5931013,9762256.7132905,0.0],[616775.9681819,9762246.1191907,0.0],[616767.4465188,9762233.7748951,0.0],[616753.8838372,9762217.9587268,0.0],[616743.2643795,9762208.9869685,0.0],[616736.0300114,9762204.3162024,0.0],[616724.5805349,9762196.7392531,0.0],[616717.1120448,9762192.4156341,0.0],[616685.2205638,9762177.3278393,0.0],[616609.4949726,9762141.5022159,0.0],[616522.322771,9762099.5918276,0.0],[616496.7585929,9762086.9594586,0.0],[616421.4464443,9762056.9824089,0.0],[616369.5972061,9762036.3444745,0.0],[616265.859684,9761994.7296202,0.0],[616221.0083648,9761977.1338978,0.0],[616199.1202699,9761968.4298983,0.0],[616182.3624482,9761961.8057017,0.0],[616165.550459,9761955.329389,0.0],[616149.6125992,9761951.4806636,0.0],[616142.3146179,9761950.3588588,0.0],[616130.8210043,9761949.2665723,0.0],[616122.4645407,9761949.7323393,0.0],[616114.3055467,9761950.3311739,0.0],[616106.5139674,9761951.9280762,0.0],[616098.2536969,9761954.1238206,0.0],[616087.9612591,9761957.9269409,0.0],[616075.2190611,9761965.3843384,0.0],[616066.4141954,9761971.2000215,0.0],[616056.5101103,9761979.6578541,0.0],[616028.9942073,9762005.4197559,0.0],[615992.2484213,9762040.2458901,0.0],[615945.4194913,9762084.6284106,0.0],[615913.7209581,9762114.6709677,0.0],[615854.5189459,9762171.7974023,0.0],[615774.8980562,9762245.5395891,0.0],[615756.1670793,9762259.8749353,0.0],[615735.0047195,9762271.7690949,0.0],[615716.9354626,9762276.7030564,0.0],[615700.9947412,9762280.0877107,0.0],[615681.5424063,9762281.0969315,0.0],[615669.5336564,9762280.1437781,0.0],[615653.8732373,9762277.6724399,0.0],[615628.1645484,9762270.7197769,0.0],[615486.872877,9762229.4406888,0.0],[615471.5414993,9762226.8973263,0.0],[615456.3241467,9762227.1834206,0.0],[615444.6151601,9762227.9097834,0.0],[615422.8008722,9762233.8860093,0.0],[615410.4177355,9762239.6040295,0.0],[615398.5878547,9762248.2467115,0.0],[615380.98601,9762263.8666396,0.0],[615332.8770122,9762306.5429701,0.0],[615289.075668,9762345.3359534,0.0],[615271.1584431,9762360.8020586,0.0],[615264.7481279,9762365.736911,0.0],[615248.8119326,9762377.116385,0.0],[615148.131494,9762447.4473814,0.0],[615079.5233745,9762495.2447013,0.0],[615064.2915652,9762504.8953045,0.0],[615044.0905436,9762516.1362162,0.0],[615026.9607873,9762524.0116341,0.0],[615000.2921629,9762532.6293735,0.0],[614976.6053838,9762538.3566994,0.0],[614964.5980989,9762540.6881789,0.0],[614950.0504817,9762542.0059683,0.0],[614925.7091167,9762542.9771136,0.0],[614905.2090641,9762542.1706609,0.0],[614881.4806769,9762539.4825007,0.0],[614858.0993815,9762535.3759169,0.0],[614837.5096599,9762533.2102917,0.0],[614829.5604021,9762532.8279117,0.0],[614818.2563384,9762532.8279117,0.0],[614806.6210565,9762533.7832262,0.0],[614794.1423341,9762536.8328745,0.0],[614784.6451698,9762540.334048,0.0],[614771.1058519,9762546.7036154,0.0],[614763.4375982,9762551.8815737,0.0],[614754.9800941,9762558.8491738,0.0],[614742.1453954,9762573.8679054,0.0],[614735.8837932,9762582.428836,0.0],[614732.4332806,9762588.9987856,0.0],[614722.4323765,9762610.4486905,0.0],[614715.7784084,9762628.0778167,0.0],[614710.8022262,9762643.2664571,0.0],[614707.0209802,9762658.7503402,0.0],[614704.0436155,9762678.3093663,0.0],[614702.695497,9762696.8101555,0.0],[614701.4134609,9762722.8147034,0.0],[614703.3660735,9762742.1720631,0.0],[614707.4487998,9762765.851914,0.0],[614715.0016118,9762800.7752262,0.0],[614718.3532566,9762819.085049,0.0],[614723.4124896,9762842.0388941,0.0],[614725.6806186,9762853.6377326,0.0],[614729.3519575,9762872.0061423,0.0],[614734.5107313,9762896.891508,0.0],[614739.5526577,9762921.2132144,0.0],[614746.2407564,9762944.4833941,0.0],[614754.0724661,9762963.2861692,0.0],[614764.170143,9762981.1038102,0.0],[614777.2890227,9763002.2210811,0.0],[614801.7310207,9763026.7126534,0.0],[614810.9149477,9763034.0103223,0.0],[614819.5856144,9763040.2165572,0.0],[614830.6709613,9763047.0603925,0.0],[614833.9648348,9763048.8943956,0.0],[614837.3510374,9763050.7737665,0.0],[614848.3195579,9763055.8531189,0.0],[614851.4473113,9763057.2605384,0.0],[614855.084519,9763058.6678144,0.0],[614866.071397,9763062.564313,0.0],[614869.8968586,9763063.505875,0.0],[614873.533975,9763064.4010794,0.0],[614884.7828628,9763067.167221,0.0],[614902.9805738,9763071.9053488,0.0],[614922.5345294,9763073.3672503,0.0],[614936.8939503,9763072.0728953,0.0],[614955.4011537,9763067.8840737,0.0],[614967.3724119,9763063.2229609,0.0],[614984.834417,9763052.149048,0.0],[614988.0221933,9763049.8023773,0.0],[614996.82331,9763040.926006,0.0],[615035.3037444,9762997.1520609,0.0],[615078.282288,9762945.7927846,0.0],[615082.9544166,9762938.9534815,0.0]]]}},
{"type":"Feature","properties":{"Layer":"VIA ESPOL_ORIGINAL"},"geometry":{"type":"MultiLineString","coordinates":[[[615082.9439707,9762938.9687728,0.0],[615100.1676514,9762912.8092931,0.0]]]}},
{"type":"Feature","properties":{"Layer":"VIA ESPOL_ORIGINAL"},"geometry":{"type":"MultiLineString","coordinates":[[[615074.2756764,9762931.631143,0.0],[615094.5906946,9762908.0124213,0.0]]]}},
{"type":"Feature","properties":{"Layer":"VIA ESPOL_ORIGINAL"},"geometry":{"type":"MultiLineString","coordinates":[[[615094.5906946,9762908.0124213,0.0],[615107.7503783,9762895.9316018,0.0]]]}},
{"type":"Feature","properties":{"Layer":"VIA ESPOL_ORIGINAL"},"geometry":{"type":"MultiLineString","coordinates":[[[615107.7503783,9762895.9316018,0.0],[615100.1676514,9762912.8092931,0.0]]]}},
{"type":"Feature","properties":{"Layer":"VIA ESPOL_ORIGINAL"},"geometry":{"type":"MultiLineString","coordinates":[[[615118.2791399,9762881.5878644,0.0],[615107.7503783,9762895.9316018,0.0]]]}}
]
}
