{
"type": "FeatureCollection",
"name": "vias_mitad_secundarias",
"crs": { "type": "name", "properties": { "name": "urn:ogc:def:crs:EPSG::32717" } },
"xy_coordinate_resolution": 1e-07,
"features": [
{"type":"Feature","properties":{"Layer":"VIA ESPOL_ORIGINAL"},"geometry":{"type":"MultiLineString","coordinates":[[[614712.2367927,9762803.5940627,0.0],[614697.1791573,9762809.6503603,0.0]]]}},
{"type":"Feature","properties":{"Layer":"VIA ESPOL_ORIGINAL"},"geometry":{"type":"MultiLineString","coordinates":[[[614682.629148,9762818.8953539,0.0],[614697.1791573,9762809.6503603,0.0]]]}},
{"type":"Feature","properties":{"Layer":"VIA ESPOL_ORIGINAL"},"geometry":{"type":"MultiLineString","coordinates":[[[614682.629148,9762818.8953539,0.0],[614665.6336388,9762829.8909455,0.0],[614649.1098457,9762840.2438223,0.0],[614627.3850823,9762854.0907857,0.0],[614609.5487628,9762865.2151105,0.0],[614599.90537,9762871.2051705,0.0],[614594.9627702,9762873.2668204,0.0],[614586.6678215,9762876.4881492,0.0],[614569.1681442,9762883.2573518,0.0],[614563.6404189,9762885.4152118,0.0],[614559.6673719,9762887.4435985,0.0],[614555.0465311,9762890.2056544,0.0],[614552.1020297,9762892.2047197,0.0],[614546.9197835,9762896.8225413,0.0],[614542.5961865,9762901.2800883,0.0],[614538.9686186,9762905.8547547,0.0],[614527.735635,9762921.404496,0.0],[614513.3448792,9762942.4835671,0.0],[614499.9018617,9762961.9682202,0.0],[614490.2800586,9762975.2861147,0.0],[614484.9299714,9762982.1975598,0.0],[614477.7430403,9762990.9145021,0.0],[614474.2633142,9762994.9570414,0.0],[614467.556291,9763001.8849405,0.0],[614460.6838274,9763008.0139581,0.0],[614453.8932963,9763013.5008273,0.0],[614447.0147264,9763018.6385204,0.0],[614420.9949771,9763036.1219335,0.0],[614396.836902,9763052.4055404,0.0],[614392.1691161,9763055.3319562,0.0],[614385.5141391,9763059.1136914,0.0],[614380.5424631,9763061.1780596,0.0],[614374.6716292,9763063.3139229,0.0],[614366.6128912,9763066.0476617,0.0],[614358.8442854,9763068.2544611,0.0],[614350.8294318,9763070.1672084,0.0],[614344.7683122,9763071.5712902,0.0],[614336.4739637,9763073.4023559,0.0],[614325.791208,9763075.4483823,0.0],[614316.6020976,9763077.1274419,0.0],[614308.0529945,9763078.4253988,0.0],[614299.4400827,9763079.4278538,0.0],[614285.1272836,9763080.6767429,0.0],[614263.4187838,9763082.2410315,0.0],[614164.8887715,9763089.639251,0.0],[614148.5191664,9763090.83137,0.0],[614142.9271974,9763091.1237458,0.0],[614137.5128664,9763091.0941525,0.0],[614130.5735034,9763090.6481849,0.0],[614122.7861886,9763089.5432674,0.0],[614100.3061784,9763085.3832084,0.0]]]}},
{"type":"Feature","properties":{"Layer":"VIA ESPOL_ORIGINAL"},"geometry":{"type":"MultiLineString","coordinates":[[[615246.8620897,9762497.6550019,0.0],[615257.3004673,9762513.5309863,0.0],[615261.091141,9762518.7174688,0.0],[615263.0065132,9762521.1082053,0.0],[615265.1022028,9762523.7564965,0.0],[615266.8372575,9762526.4224822,0.0],[615269.0090812,9762529.0353841,0.0],[615270.7000582,9762531.6089648,0.0],[615272.2467814,9762534.6996208,0.0],[615273.2405309,9762537.6054666,0.0],[615274.3104146,9762540.8789668,0.0],[615275.1559031,9762546.6395407,0.0],[615275.1559031,9762554.6571586,0.0],[615274.562859,9762565.067479,0.0],[615272.655501,9762573.5215636,0.0],[615270.6239242,9762582.2017457,0.0],[615267.750866,9762591.0647721,0.0],[615263.7438112,9762599.7174293,0.0],[615262.2331516,9762602.3834151,0.0],[615260.3257936,9762604.9510975,0.0],[615258.3222662,9762607.6819634,0.0],[615255.9821463,9762609.927211,0.0],[615252.1473949,9762613.5585352,0.0],[615246.0246153,9762618.2810262,0.0],[615239.561236,9762621.3264627,0.0],[615231.723437,9762623.0015511,0.0],[615220.5377437,9762624.3129172,0.0],[615215.8875567,9762625.2910352,0.0],[615188.888022,9762630.872697,0.0],[615180.7386339,9762632.5394632,0.0],[615169.820674,9762634.8348845,0.0],[615160.3177218,9762637.1729561,0.0],[615151.652466,9762640.4002537,0.0],[615142.7387728,9762644.834716,0.0],[615129.5426519,9762651.8763661,0.0],[615116.3683456,9762659.0513405,0.0],[615107.460663,9762664.7735762,0.0],[615103.213185,9762668.7676396,0.0],[615101.7445994,9762670.8093993,0.0],[615099.3436226,9762675.6089845,0.0],[615098.1360535,9762678.3753366,0.0],[615096.4028624,9762682.8208262,0.0]]]}},
{"type":"Feature","properties":{"Layer":"VIA ESPOL_ORIGINAL"},"geometry":{"type":"MultiLineString","coordinates":[[[615246.8620897,9762497.6550019,0.0],[615253.4023611,9762516.8976532,0.0],[615256.0062317,9762528.7750393,0.0],[615256.7073682,9762536.1068481,0.0],[615257.0396673,9762545.1968034,0.0],[615256.0990286,9762553.3870979,0.0],[615253.8032485,9762562.1429848,0.0],[615251.4826123,9762568.7384581,0.0]]]}},
{"type":"Feature","properties":{"Layer":"VIA ESPOL_ORIGINAL"},"geometry":{"type":"MultiLineString","coordinates":[[[615254.4754937,9762503.2818833,0.0],[615260.650365,9762508.6649725,0.0],[615263.8520017,9762511.2818065,0.0],[615266.877328,9762513.7649481,0.0],[615270.2152046,9762516.314936,0.0],[615273.2565592,9762518.1984274,0.0],[615275.9412858,9762519.7752124,0.0],[615278.9065063,9762521.4168777,0.0],[615282.1281783,9762523.0782036,0.0],[615284.9491448,9762524.4052983,0.0],[615288.106704,9762525.940796,0.0],[615291.2201855,9762527.4959543,0.0],[615294.5660762,9762529.2870406,0.0],[615297.5793813,9762531.0427377,0.0],[615300.777011,9762533.0048718,0.0],[615303.9546054,9762534.9650397,0.0],[615306.9198259,9762537.0333414,0.0],[615309.8489829,9762539.2373015,0.0],[615312.6018295,9762541.7086467,0.0],[615315.1182598,9762544.3097523,0.0],[615317.6346902,9762547.2942407,0.0],[615319.9587819,9762550.3278809,0.0],[615326.6545704,9762560.1818045,0.0],[615331.1144223,9762566.8428368,0.0],[615351.2578864,9762596.6660946,0.0],[615368.4601723,9762621.5623906,0.0],[615394.9788604,9762660.7382253,0.0],[615396.633774,9762663.5772249,0.0],[615397.7156788,9762666.433919,0.0],[615398.605245,9762669.4223396,0.0],[615399.5268676,9762672.8649215,0.0],[615399.2824372,9762677.3672131,0.0],[615398.4088993,9762682.7404719,0.0],[615396.8020703,9762687.675298,0.0],[615395.9285324,9762690.3609444,0.0],[615395.1952414,9762693.0839461,0.0],[615394.5340774,9762695.9091832,0.0],[615394.1734424,9762698.5378137,0.0],[615393.9330192,9762701.162512,0.0],[615394.1769608,9762706.0552013,0.0]]]}},
{"type":"Feature","properties":{"Layer":"VIA ESPOL_ORIGINAL"},"geometry":{"type":"MultiLineString","coordinates":[[[615246.8620897,9762497.6550019,0.0],[615248.9657934,9762499.8294711,0.0],[615254.4754937,9762503.2818833,0.0]]]}},
{"type":"Feature","properties":{"Layer":"VIA ESPOL_ORIGINAL"},"geometry":{"type":"MultiLineString","coordinates":[[[615201.2176164,9762429.8257744,0.0],[615215.2103645,9762450.1941643,0.0],[615216.832322,9762452.6604923,0.0],[615219.9066326,9762457.6239284,0.0],[615221.765906,9762460.168018,0.0],[615233.482534,9762477.7918353,0.0],[615240.0861602,9762487.8482638,0.0],[615246.8620897,9762497.6550019,0.0]]]}},
{"type":"Feature","properties":{"Layer":"VIA ESPOL_ORIGINAL"},"geometry":{"type":"MultiLineString","coordinates":[[[615648.6649603,9762272.9207906,0.0],[615649.4290013,9762268.0207779,0.0],[615650.2108028,9762263.6944821,0.0],[615651.5794153,9762254.8624752,0.0],[615653.0197696,9762244.8664782,0.0],[615654.2062683,9762236.4551693,0.0],[615655.4553112,9762226.6827786,0.0],[615656.2573475,9762217.624514,0.0],[615656.4026707,9762210.2260621,0.0],[615655.0322186,9762203.0406107,0.0],[615651.4175364,9762192.0229185,0.0],[615649.548571,9762186.2639516,0.0],[615647.401836,9762179.4594263,0.0],[615646.0755328,9762172.6849509,0.0],[615645.8106401,9762164.3319741,0.0],[615646.9419528,9762158.0692301,0.0],[615650.3929166,9762150.6018403,0.0],[615654.325838,9762144.5547482,0.0],[615658.4224778,9762138.2319045,0.0],[615663.0948914,9762131.3062959,0.0],[615668.4313764,9762123.805321,0.0],[615672.8517741,9762116.4086368,0.0],[615674.777765,9762109.4750739,0.0],[615675.7251245,9762103.618003,0.0],[615675.5503689,9762098.5130623,0.0],[615674.5827745,9762092.5676095,0.0],[615673.4459432,9762087.6765531,0.0],[615671.7443752,9762081.9555904,0.0],[615669.5902822,9762076.4591178,0.0],[615667.2375196,9762072.2212039,0.0],[615663.9061255,9762067.9523564,0.0],[615657.8338273,9762063.771007,0.0],[615651.702664,9762060.7509962,0.0],[615645.2734965,9762058.2727667,0.0],[615637.9153648,9762056.9567597,0.0],[615630.5443563,9762056.5935099,0.0],[615623.59828,9762057.0354196,0.0],[615615.4638654,9762058.9868928,0.0]]]}},
{"type":"Feature","properties":{"Layer":"VIA ESPOL_EJE"},"geometry":{"type":"MultiLineString","coordinates":[[[616063.7291154,9761969.249199,0.0],[616058.0940825,9761957.1190023,0.0],[616050.6639988,9761943.1898954,0.0],[616040.9544183,9761927.3039053,0.0],[616029.1186255,9761913.6985419,0.0],[616006.0472242,9761900.4165454,0.0],[615978.0891547,9761888.1172297,0.0],[615943.085821,9761874.1743399,0.0],[615893.5626653,9761854.2728243,0.0],[615847.149955,9761836.475223,0.0],[615816.3937997,9761823.831379,0.0],[615796.3251014,9761816.9054536,0.0],[615775.5657006,9761809.7412224,0.0]]]}},
{"type":"Feature","properties":{"Layer":"VIA ESPOL_EJE"},"geometry":{"type":"MultiLineString","coordinates":[[[616477.0118906,9762548.431789,0.0],[616488.601215,9762546.7196616,0.0],[616510.6996326,9762546.0931991,0.0],[616522.5693503,9762545.814488,0.0],[616533.3616297,9762540.2221876,0.0],[616540.6047232,9762532.6695524,0.0],[616549.902255,9762519.1768768,0.0],[616554.4575576,9762513.2580777,0.0],[616561.7910705,9762510.5743165,0.0],[616579.2046301,9762510.2687663,0.0],[616600.2401253,9762509.9589808,0.0],[616616.4018209,9762509.6736294,0.0],[616628.6730874,9762508.6327573,0.0],[616635.8899983,9762502.981611,0.0],[616641.1059109,9762491.5427218,0.0],[616647.2753772,9762476.6816023,0.0],[616653.4308011,9762461.2089753,0.0],[616662.3031541,9762445.2639034,0.0],[616668.1383417,9762436.4005514,0.0],[616676.1429924,9762426.7034699,0.0],[616687.4786084,9762416.8984525,0.0],[616705.3944663,9762408.3567967,0.0],[616715.2865302,9762402.5853729,0.0],[616718.8823385,9762400.5609048,0.0],[616720.7170744,9762399.0987451,0.0],[616724.5255693,9762396.0850774,0.0],[616726.4307393,9762394.9263765,0.0],[616734.277715,9762391.1668367,0.0],[616742.1770983,9762386.9775022,0.0],[616749.5491462,9762381.3221929,0.0],[616754.4505002,9762376.7834097,0.0],[616762.3126354,9762369.1235742,0.0],[616765.6737916,9762365.7187572,0.0],[616771.7898533,9762359.9288262,0.0]]]}},
{"type":"Feature","properties":{"Layer":"VIA ESPOL_EJE"},"geometry":{"type":"MultiLineString","coordinates":[[[616743.5082971,9762441.8777713,0.0],[616742.0926113,9762438.8510679,0.0],[616739.0682932,9762434.7429432,0.0],[616735.3181244,9762429.4924921,0.0],[616731.4203207,9762424.248259,0.0],[616726.5403554,9762417.6860523,0.0],[616721.1893512,9762410.5059337,0.0],[616715.2865302,9762402.5853729,0.0]]]}}
]
}
