{
"type": "FeatureCollection",
"name": "vias_principales",
"crs": { "type": "name", "properties": { "name": "urn:ogc:def:crs:EPSG::32717" } },
"xy_coordinate_resolution": 1e-07,
"features": [
{"type":"Feature","properties":{"Layer":"VIA ESPOL_ORIGINAL"},"geometry":{"type":"MultiPolygon","coordinates":[[[[615778.5277596,9762263.5332977,0.0],[615859.5894569,9762187.2599473,0.0],[615924.3660431,9762125.8673814,0.0],[615956.0645763,9762095.8248243,0.0],[616002.8935063,9762051.4423038,0.0],[616039.6311853,9762016.623853,0.0],[616067.0778003,9761990.9268224,0.0],[616076.7464786,9761982.6700212,0.0],[616085.1779747,9761977.1009517,0.0],[616097.4730468,9761970.9645192,0.0],[616107.2842266,9761967.8057896,0.0],[616116.2949379,9761966.0963571,0.0],[616123.7378885,9761965.1188751,0.0],[616130.5345096,9761964.6735759,0.0],[616141.6298633,9761965.728014,0.0],[616148.6701655,9761966.8102098,0.0],[616164.128754,9761970.5431993,0.0],[616180.6701548,9761977.949954,0.0],[616196.5825784,9761984.6440637,0.0],[616218.7025561,9761993.0831877,0.0],[616263.2483901,9762010.8643976,0.0],[616366.9875696,9762052.4799168,0.0],[616418.8413854,9762073.1196733,0.0],[616494.0170153,9762103.0423834,0.0],[616519.4672066,9762115.6184266,0.0],[616606.6675779,9762157.5423583,0.0],[616682.4035324,9762193.3728844,0.0],[616714.1576486,9762208.3956923,0.0],[616721.3997001,9762212.5882226,0.0],[616732.5745443,9762219.9834279,0.0],[616739.0071272,9762225.4491685,0.0],[616748.6079687,9762234.6900058,0.0],[616759.6395541,9762248.5738651,0.0],[616768.1387446,9762263.3090825,0.0],[616774.7214579,9762279.9138477,0.0],[616777.778071,9762292.4001635,0.0],[616779.5058538,9762305.401457,0.0],[616780.163133,9762318.8041512,0.0],[616779.5994958,9762327.1638746,0.0],[616778.2880545,9762337.829101,0.0],[616776.1992627,9762346.7009131,0.0],[616773.5994051,9762355.123112,0.0],[616766.6641155,9762371.2780081,0.0],[616753.5111424,9762394.6682996,0.0],[616748.541571,9762407.4619176,0.0],[616746.0165841,9762415.9009884,0.0],[616743.0516461,9762435.0895324,0.0],[616743.0516461,9762448.9566381,0.0],[616745.6431459,9762465.5312793,0.0],[616757.1487869,9762525.209954,0.0],[616762.9222153,9762555.1561826,0.0],[616769.303211,9762583.5636461,0.0],[616774.9098914,9762598.1174538,0.0],[616782.457401,9762611.704668,0.0],[616794.452718,9762627.6955837,0.0],[616815.8262339,9762655.3618631,0.0],[616827.0420215,9762668.9380503,0.0],[616835.8893205,9762678.3242341,0.0],[616846.4529336,9762686.7147387,0.0],[616869.235116,9762699.8875245,0.0],[616942.7862071,9762739.0133296,0.0],[616988.592259,9762764.812033,0.0],[617016.4341441,9762787.9427359,0.0],[617079.6289769,9762840.7281892,0.0],[617104.4658013,9762862.3041174,0.0],[617112.9184523,9762872.3102614,0.0],[617120.1321657,9762882.5898663,0.0],[617129.2324778,9762902.5753314,0.0],[617133.4049529,9762917.7028851,0.0],[617135.0010438,9762929.0399488,0.0],[617135.0010438,9762946.651718,0.0],[617132.5564493,9762963.9117126,0.0],[617126.3196948,9762984.4350473,0.0],[617116.1751982,9763013.8112384,0.0],[617107.0075901,9763042.8421731,0.0],[617096.6658481,9763072.3858105,0.0],[617083.8032992,9763113.9056746,0.0],[617082.678062,9763128.4801841,0.0],[617086.6245958,9763148.8400022,0.0],[617090.0211687,9763166.3626206,0.0],[617095.1363633,9763187.4627764,0.0],[617102.2602327,9763185.735776,0.0],[617097.1850869,9763164.8008212,0.0],[617093.8208619,9763147.4450827,0.0],[617090.062742,9763128.057275,0.0],[617091.0484838,9763115.2895635,0.0],[617103.6283896,9763074.6820615,0.0],[617113.9635174,9763045.1573193,0.0],[617123.1357731,9763016.111667,0.0],[617133.2932642,9762986.6978467,0.0],[617139.7347553,9762965.5007836,0.0],[617142.3312584,9762947.1682427,0.0],[617142.3312584,9762928.5264877,0.0],[617140.5974466,9762916.2111899,0.0],[617136.1443725,9762900.0663078,0.0],[617126.522142,9762878.9346422,0.0],[617118.7300315,9762867.8308165,0.0],[617109.700266,9762857.1414915,0.0],[617084.3826125,9762835.1478636,0.0],[617021.1258358,9762782.3106698,0.0],[616992.7667979,9762758.7503225,0.0],[616946.3065938,9762732.5831901,0.0],[616872.7920971,9762693.4768516,0.0],[616850.5893868,9762680.6391197,0.0],[616840.8615537,9762672.9124615,0.0],[616832.5405353,9762664.0846137,0.0],[616821.5537499,9762650.785623,0.0],[616800.2853066,9762623.2553516,0.0],[616788.6219615,9762607.7069864,0.0],[616781.5662157,9762595.0050579,0.0],[616776.3371179,9762581.4313779,0.0],[616770.098721,9762553.658748,0.0],[616764.3464561,9762523.8222925,0.0],[616752.8653507,9762464.2708816,0.0],[616750.3818608,9762448.3870466,0.0],[616750.3818608,9762435.6525099,0.0],[616753.1837975,9762417.5188807,0.0],[616755.4803253,9762409.8433712,0.0],[616760.1555338,9762397.8075583,0.0],[616773.245379,9762374.5295287,0.0],[616780.4886985,9762357.657115,0.0],[616783.2770943,9762348.6241499,0.0],[616785.5147215,9762339.1201833,0.0],[616786.899535,9762327.8582608,0.0],[616787.5054552,9762318.8714069,0.0],[616786.8123395,9762304.7379647,0.0],[616784.9922279,9762291.0419116,0.0],[616781.7215527,9762277.6811485,0.0],[616774.7558039,9762260.1101838,0.0],[616765.7172845,9762244.4399211,0.0],[616754.0432055,9762229.7474481,0.0],[616743.9266986,9762220.0102815,0.0],[616736.9862073,9762214.1129729,0.0],[616725.2620984,9762206.3542795,0.0],[616717.5671698,9762201.8995719,0.0],[616685.5383241,9762186.7467901,0.0],[616609.8230961,9762150.9260695,0.0],[616522.6790643,9762109.0292246,0.0],[616497.0008993,9762096.3405297,0.0],[616421.5522319,9762066.3091405,0.0],[616369.7075715,9762045.6730281,0.0],[616265.9717067,9762004.0588387,0.0],[616221.3678994,9761986.2544878,0.0],[616199.311015,9761977.8394349,0.0],[616183.5895745,9761971.2256688,0.0],[616166.5069971,9761963.576591,0.0],[616150.089866,9761959.6121296,0.0],[616142.5342056,9761958.4507158,0.0],[616130.6423321,9761957.3205811,0.0],[616123.0202711,9761957.8199612,0.0],[616115.1336306,9761958.855713,0.0],[616105.4709273,9761960.6888356,0.0],[616094.6972316,9761964.1574492,0.0],[616081.5079078,9761970.7402,0.0],[616072.3296725,9761976.8024966,0.0],[616062.1901804,9761985.4613607,0.0],[616034.6049895,9762011.2881337,0.0],[615997.8510966,9762046.1219513,0.0],[615951.0221666,9762090.5044719,0.0],[615919.3236334,9762120.5470289,0.0],[615854.5566499,9762181.9304937,0.0],[615773.9630982,9762257.7633521,0.0],[615754.9284802,9762270.3329437,0.0],[615733.2200809,9762280.3642634,0.0],[615715.5286049,9762285.1950687,0.0],[615700.7619134,9762288.4903882,0.0],[615677.965874,9762289.4759127,0.0],[615666.3223289,9762288.5517462,0.0],[615650.9968949,9762286.1332713,0.0],[615625.5143409,9762279.2417643,0.0],[615484.0469969,9762237.9113525,0.0],[615468.1665758,9762235.2769077,0.0],[615452.3468965,9762235.5743261,0.0],[615440.8293595,9762237.4753127,0.0],[615425.310514,9762242.2640988,0.0],[615412.3741845,9762248.2375605,0.0],[615400.1093449,9762257.198015,0.0],[615382.3613814,9762272.9476094,0.0],[615335.3707565,9762315.6383289,0.0],[615291.5790462,9762355.4228525,0.0],[615273.2160112,9762370.3377809,0.0],[615267.1139108,9762375.2940635,0.0],[615253.7928812,9762384.1573657,0.0],[615153.0803069,9762454.5108107,0.0],[615084.539876,9762502.260974,0.0],[615069.4639927,9762511.8127853,0.0],[615049.4773366,9762522.9344126,0.0],[615032.6256777,9762530.6819751,0.0],[615006.2982168,9762540.0204107,0.0],[614982.8600362,9762545.5964963,0.0],[614971.0382596,9762548.011619,0.0],[614951.3665215,9762550.5889868,0.0],[614927.335891,9762551.5477347,0.0],[614907.1155595,9762550.752286,0.0],[614883.6322579,9762548.0918912,0.0],[614860.2364838,9762543.9827645,0.0],[614839.4174201,9762541.7930171,0.0],[614831.2762975,9762541.4014079,0.0],[614819.7339252,9762541.4014079,0.0],[614807.6601891,9762542.3927217,0.0],[614794.6977518,9762545.560584,0.0],[614784.7457147,9762549.2294485,0.0],[614770.7002711,9762556.972509,0.0],[614764.2076741,9762562.0943081,0.0],[614755.759853,9762569.9510587,0.0],[614748.1885996,9762579.4075861,0.0],[614739.8159975,9762592.9218189,0.0],[614729.6649188,9762614.6938177,0.0],[614722.9334781,9762632.5282013,0.0],[614717.8880095,9762647.9283221,0.0],[614714.0347546,9762663.707076,0.0],[614711.0113684,9762683.5684279,0.0],[614709.6431212,9762702.3454514,0.0],[614709.6431212,9762722.6143441,0.0],[614711.7021375,9762742.2757512,0.0],[614715.7210105,9762766.1594304,0.0],[614723.3644438,9762800.8110989,0.0],[614727.4830235,9762819.4827687,0.0],[614732.5297808,9762842.3623508,0.0],[614736.3837872,9762864.0827164,0.0],[614742.9542799,9762895.7780613,0.0],[614748.0242898,9762920.2352396,0.0],[614754.8087802,9762943.8407986,0.0],[614762.806778,9762963.042807,0.0],[614773.1199976,9762981.2407791,0.0],[614787.6441547,9763001.0386756,0.0],[614806.6622598,9763019.969407,0.0],[614809.9306707,9763022.8510127,0.0],[614813.0901271,9763025.222991,0.0],[614816.1824137,9763027.5445411,0.0],[614819.4162268,9763029.8714847,0.0],[614824.9945145,9763033.851914,0.0],[614836.1757668,9763040.7549589,0.0],[614839.5439728,9763042.6303498,0.0],[614843.0493776,9763044.5758789,0.0],[614854.1705871,9763049.7259392,0.0],[614857.6176886,9763051.2442512,0.0],[614861.3330503,9763052.6817658,0.0],[614865.0760964,9763054.1299918,0.0],[614872.6151043,9763056.6817171,0.0],[614876.5919686,9763057.6605438,0.0],[614880.2290849,9763058.5557482,0.0],[614891.6345443,9763061.3603915,0.0],[614903.063955,9763063.1301042,0.0],[614910.8148703,9763064.0280535,0.0],[614918.5556655,9763064.6689603,0.0],[614922.5780782,9763064.6689603,0.0],[614926.7992876,9763064.4667299,0.0],[614932.3618461,9763063.8889874,0.0],[614939.5429062,9763063.1431428,0.0],[614947.8325824,9763061.1641902,0.0],[614955.9071284,9763058.5242385,0.0],[614963.1629595,9763055.5882531,0.0],[614970.1874469,9763051.7943801,0.0],[614981.0499944,9763044.309934,0.0],[614990.5269219,9763035.2208799,0.0],[615028.3628503,9762991.7325673,0.0],[615077.0769422,9762933.9945985,0.0],[615071.4744106,9762929.2676876,0.0],[615022.7961838,9762986.9631477,0.0],[614985.2140976,9763030.1596961,0.0],[614976.4034602,9763038.6097302,0.0],[614966.3550668,9763045.5332128,0.0],[614960.0369282,9763048.945592,0.0],[614953.3904489,9763051.6350105,0.0],[614945.8392556,9763054.1038534,0.0],[614938.3079581,9763055.9017621,0.0],[614931.6045835,9763056.597993,0.0],[614926.2448402,9763057.1546706,0.0],[614922.4025903,9763057.3387456,0.0],[614918.8586034,9763057.3387456,0.0],[614911.53927,9763056.7327342,0.0],[614904.0469162,9763055.8647395,0.0],[614893.0733038,9763054.1656019,0.0],[614881.9809876,9763051.4379619,0.0],[614878.3438713,9763050.5427574,0.0],[614874.6698122,9763049.6384603,0.0],[614867.5748156,9763047.2370193,0.0],[614863.9781105,9763045.8454142,0.0],[614860.4190565,9763044.4683768,0.0],[614857.1883585,9763043.045382,0.0],[614846.372527,9763038.0367376,0.0],[614843.1055266,9763036.2235249,0.0],[614839.8859856,9763034.4309095,0.0],[614829.0532619,9763027.743038,0.0],[614823.6857952,9763023.9130417,0.0],[614820.5240294,9763021.6379409,0.0],[614817.4910886,9763019.3609449,0.0],[614814.5621342,9763017.1620172,0.0],[614811.6763294,9763014.6177374,0.0],[614793.2182695,9762996.2444783,0.0],[614779.2849976,9762977.2520181,0.0],[614769.4028632,9762959.8147083,0.0],[614761.7374417,9762941.4111664,0.0],[614755.1457346,9762918.4763661,0.0],[614750.1318918,9762894.2901315,0.0],[614743.5828242,9762862.6981391,0.0],[614739.7206854,9762840.9319416,0.0],[614734.6411661,9762817.9038322,0.0],[614730.5225864,9762799.2321624,0.0],[614722.9189473,9762764.7609018,0.0],[614718.9686702,9762741.2848793,0.0],[614716.9733358,9762722.2315669,0.0],[614716.9733358,9762702.6121675,0.0],[614718.3013256,9762684.3876126,0.0],[614721.232669,9762665.1309122,0.0],[614724.9419059,9762649.9419,0.0],[614729.8488018,9762634.96474,0.0],[614736.4252972,9762617.5408712,0.0],[614746.2760267,9762596.4130601,0.0],[614754.1870404,9762583.6438781,0.0],[614761.145811,9762574.9523442,0.0],[614768.9815676,9762567.6648337,0.0],[614774.7670242,9762563.1008748,0.0],[614787.8002164,9762555.9158546,0.0],[614796.8425079,9762552.582372,0.0],[614808.8375155,9762549.6509378,0.0],[614820.0343433,9762548.7316225,0.0],[614831.1000982,9762548.7316225,0.0],[614838.8574913,9762549.1047733,0.0],[614859.2178707,9762551.2462763,0.0],[614882.5846876,9762555.3503172,0.0],[614906.5581604,9762558.0662429,0.0],[614927.337934,9762558.8836995,0.0],[614951.9900335,9762557.9001569,0.0],[614972.2495332,9762555.2457812,0.0],[614984.4423265,9762552.7548619,0.0],[615008.377704,9762547.0604902,0.0],[615035.387492,9762537.480031,0.0],[615052.7953455,9762529.4767576,0.0],[615073.2107328,9762518.1165616,0.0],[615088.598468,9762508.3671665,0.0],[615157.274276,9762460.5226899,0.0],[615257.9225789,9762390.2141421,0.0],[615271.4647283,9762381.2037152,0.0],[615277.8374502,9762376.0276269,0.0],[615296.3579551,9762360.9847974,0.0],[615340.2998203,9762321.063859,0.0],[615387.2587685,9762278.4019175,0.0],[615404.7144944,9762262.9116556,0.0],[615416.1094164,9762254.5867461,0.0],[615427.9393603,9762249.1241675,0.0],[615442.5146578,9762244.6265403,0.0],[615453.0161474,9762242.8932538,0.0],[615467.6311734,9762242.6184835,0.0],[615482.4135077,9762245.0707638,0.0],[615623.5295065,9762286.2985283,0.0],[615649.4643301,9762293.3123471,0.0],[615661.0262916,9762299.9313381,0.0],[615667.9241032,9762303.512484,0.0],[615694.93947,9762317.8722684,0.0],[615704.2943855,9762326.6225916,0.0],[615734.6252375,9762366.2219125,0.0],[615741.8397562,9762391.8771064,0.0],[615749.1333712,9762390.126512,0.0],[615743.9540316,9762363.0694483,0.0],[615746.6303567,9762329.8777114,0.0],[615761.6054023,9762287.1918823,0.0],[615771.3011889,9762274.7958942,0.0],[615778.5277596,9762263.5332977,0.0]],[[615751.4714432,9762286.579696,0.0],[615737.5771485,9762329.9331459,0.0],[615738.4917826,9762364.4748648,0.0],[615737.0555133,9762357.6719481,0.0],[615715.8081173,9762327.212917,0.0],[615690.8876277,9762305.9842082,0.0],[615684.0995927,9762302.544848,0.0],[615677.8336891,9762296.818689,0.0],[615701.7259591,9762295.7857719,0.0],[615717.2932884,9762292.3117829,0.0],[615735.7403263,9762287.2746651,0.0],[615753.9447082,9762278.8625306,0.0],[615751.4714432,9762286.579696,0.0]]]]}},
{"type":"Feature","properties":{"Layer":"VIA ESPOL_ORIGINAL"},"geometry":{"type":"MultiPolygon","coordinates":[[[[615741.8397562,9762391.8771064,0.0],[615743.4637253,9762397.0556023,0.0],[615781.5544691,9762531.4187349,0.0],[615785.1838617,9762553.9144613,0.0],[615784.6731709,9762562.5367651,0.0],[615783.0211534,9762575.6916643,0.0],[615778.7298589,9762591.022939,0.0],[615771.7974956,9762605.3627667,0.0],[615765.3057455,9762615.2871069,0.0],[615760.1132011,9762621.2967044,0.0],[615748.1403121,9762632.9436806,0.0],[615642.530175,9762716.809821,0.0],[615636.4426846,9762722.3093518,0.0],[615628.7371814,9762731.0616445,0.0],[615622.5252283,9762741.4400157,0.0],[615616.0087588,9762756.3966406,0.0],[615612.357903,9762769.6204821,0.0],[615610.7738645,9762783.6137176,0.0],[615613.9929251,9762849.9957081,0.0],[615613.1744408,9762860.5106721,0.0],[615609.8649331,9762873.8058022,0.0],[615604.2951864,9762886.83215,0.0],[615598.9523976,9762895.9399371,0.0],[615534.2317213,9762980.3886935,0.0],[615522.0433177,9762995.8937574,0.0],[615514.4162005,9763004.1286397,0.0],[615508.8022936,9763007.5697354,0.0],[615498.8540431,9763010.8500591,0.0],[615488.5255509,9763011.538077,0.0],[615481.8763163,9763010.0194559,0.0],[615471.5001872,9763005.2666951,0.0],[615372.7517725,9762927.4692662,0.0],[615354.4955172,9762912.6239907,0.0],[615316.0164238,9762881.3342913,0.0],[615288.8187841,9762859.2182304,0.0],[615255.6125887,9762833.4878439,0.0],[615225.7737756,9762821.6816358,0.0],[615204.9061142,9762819.9249427,0.0],[615186.1316365,9762822.0730853,0.0],[615174.5071797,9762825.2878131,0.0],[615159.6183867,9762831.1527386,0.0],[615138.7607437,9762845.6706577,0.0],[615129.9948,9762855.6953808,0.0],[615115.0184706,9762879.539894,0.0],[615121.5398092,9762883.6358348,0.0],[615136.1925122,9762860.3065823,0.0],[615143.9358286,9762851.4513346,0.0],[615163.2786945,9762837.987773,0.0],[615176.9515067,9762832.6018411,0.0],[615187.6045952,9762829.6557439,0.0],[615205.0219531,9762827.6628805,0.0],[615223.9963122,9762829.2601906,0.0],[615251.7611958,9762840.245815,0.0],[615284.030416,9762865.2501702,0.0],[615311.1578846,9762887.3091708,0.0],[615349.636978,9762918.5988702,0.0],[615367.9393474,9762933.4816439,0.0],[615467.4569584,9763011.8850723,0.0],[615479.3894571,9763017.3507244,0.0],[615487.9112238,9763019.2970138,0.0],[615500.3392133,9763018.4691409,0.0],[615512.0637873,9763014.6030945,0.0],[615519.3451933,9763010.1398899,0.0],[615527.9049911,9763000.8980066,0.0],[615540.3152626,9762985.1107009,0.0],[615605.3541013,9762900.2468003,0.0],[615611.1843171,9762890.3081022,0.0],[615617.188622,9762876.2654235,0.0],[615620.8023599,9762861.748124,0.0],[615621.7083899,9762850.108471,0.0],[615618.4958977,9762783.861933,0.0],[615619.9419924,9762771.0872797,0.0],[615623.2867384,9762758.9722049,0.0],[615629.3873476,9762744.9700639,0.0],[615634.9829591,9762735.6214208,0.0],[615641.9318168,9762727.7285636,0.0],[615647.5109489,9762722.6882914,0.0],[615753.2325496,9762638.7336366,0.0],[615765.7221264,9762626.5840372,0.0],[615771.4689534,9762619.93294,0.0],[615778.5143359,9762609.1622276,0.0],[615785.9611877,9762593.7581632,0.0],[615790.5909506,9762577.2176609,0.0],[615792.3456676,9762563.2449729,0.0],[615792.9214218,9762553.5241629,0.0],[615789.0857081,9762529.7496158,0.0],[615750.7185794,9762396.3681729,0.0],[615749.1333712,9762390.126512,0.0],[615741.8397562,9762391.8771064,0.0]]]]}},
{"type":"Feature","properties":{"Layer":"VIA ESPOL_ORIGINAL"},"geometry":{"type":"MultiPolygon","coordinates":[[[[617112.6776158,9763183.2103472,0.0],[617108.8286899,9763164.1293165,0.0],[617105.2253326,9763147.1536615,0.0],[617101.4041832,9763129.0599418,0.0],[617102.3961487,9763116.2116182,0.0],[617114.99294,9763075.5496103,0.0],[617125.328463,9763046.0237393,0.0],[617134.500441,9763016.9789662,0.0],[617144.6571558,9762987.567394,0.0],[617151.0941133,9762966.3852497,0.0],[617153.7026229,9762945.5245822,0.0],[617153.0393222,9762926.9602305,0.0],[617150.7022436,9762911.1225593,0.0],[617146.2687935,9762895.0488255,0.0],[617136.6777432,9762873.9856357,0.0],[617127.1320302,9762860.382911,0.0],[617118.1424568,9762849.7411649,0.0],[617090.0547199,9762825.0709443,0.0],[617026.7948857,9762772.2311966,0.0],[616998.4667433,9762748.6965168,0.0],[616952.0456192,9762722.5513949,0.0],[616878.49272,9762683.424628,0.0],[616861.8154119,9762674.339285,0.0],[616850.9319485,9762667.3981988,0.0],[616842.6951908,9762658.6597441,0.0],[616831.6947245,9762645.3441932,0.0],[616813.9283567,9762622.3470739,0.0],[616806.9764417,9762613.2151954,0.0],[616798.7042985,9762602.1876299,0.0],[616793.1744443,9762592.9732675,0.0],[616787.6789032,9762579.7424219,0.0],[616780.8490051,9762552.2453706,0.0],[616775.1023528,9762522.4380273,0.0],[616763.9690021,9762464.6903871,0.0],[616761.4790595,9762448.7652822,0.0],[616761.4790595,9762436.0038701,0.0],[616764.2790778,9762420.4761298,0.0],[616766.6009104,9762412.7160459,0.0],[616771.2931208,9762400.6364636,0.0],[616784.4383129,9762377.3143123,0.0],[616791.1671718,9762360.4186468,0.0],[616795.0590673,9762345.7158234,0.0],[616797.2469678,9762336.2688296,0.0],[616798.3391713,9762324.7017006,0.0],[616798.7430132,9762316.0774234,0.0],[616797.7664148,9762302.021116,0.0],[616795.9557946,9762288.3964845,0.0],[616792.1009262,9762272.763322,0.0],[616784.5020822,9762255.3103582,0.0],[616778.730562,9762244.4401472,0.0],[616770.0063346,9762231.8024214,0.0],[616756.1647377,9762215.660995,0.0],[616745.1888478,9762206.388108,0.0],[616737.7957917,9762201.6148873,0.0],[616726.2809886,9762193.9947066,0.0],[616718.6131155,9762189.5556619,0.0],[616686.6006826,9762174.4106449,0.0],[616610.8842163,9762138.5893385,0.0],[616523.7368187,9762096.6908754,0.0],[616498.0722732,9762084.0089105,0.0],[616422.6399175,9762053.984014,0.0],[616370.7947101,9762033.3476839,0.0],[616267.0497722,9761991.7298547,0.0],[616222.1939237,9761974.1323554,0.0],[616200.3096939,9761965.4298929,0.0],[616183.535686,9761958.7992981,0.0],[616166.5133771,9761952.241966,0.0],[616150.2376344,9761948.3116476,0.0],[616142.7127623,9761947.1549664,0.0],[616130.8842221,9761946.0308505,0.0],[616122.2566135,9761946.5117303,0.0],[616113.8616168,9761947.1278865,0.0],[616105.7748475,9761948.7852886,0.0],[616097.277732,9761951.0439912,0.0],[616086.5763043,9761954.9982358,0.0],[616073.5134591,9761962.6432928,0.0],[616064.469659,9761968.6167939,0.0],[616054.3582941,9761977.2516381,0.0],[616026.7813819,9762003.0706601,0.0],[615990.0284576,9762037.9035597,0.0],[615943.1995276,9762082.2860803,0.0],[615911.4904839,9762112.3385987,0.0],[615852.3018237,9762169.4521494,0.0],[615772.8163523,9762243.0689162,0.0],[615754.3869455,9762257.1734624,0.0],[615733.7705808,9762268.7607492,0.0],[615716.1746535,9762273.5654641,0.0],[615700.5733944,9762276.8780412,0.0],[615681.5866644,9762277.8631056,0.0],[615669.913421,9762276.9365819,0.0],[615654.5479619,9762274.5117907,0.0],[615629.0383887,9762267.6129766,0.0],[615487.5920345,9762226.2886972,0.0],[615471.7772148,9762223.6651351,0.0],[615456.1938482,9762223.9581107,0.0],[615444.0833121,9762224.7093835,0.0],[615421.6905095,9762230.8440988,0.0],[615408.7732679,9762236.8087466,0.0],[615396.5603985,9762245.7312326,0.0],[615378.8439866,9762261.4528281,0.0],[615330.7354306,9762304.1287666,0.0],[615286.9513799,9762342.9064324,0.0],[615269.1181643,9762358.3000209,0.0],[615262.8255083,9762363.1442957,0.0],[615246.9501381,9762374.4803366,0.0],[615146.2850634,9762444.8006005,0.0],[615077.7365448,9762492.5563982,0.0],[615062.642031,9762502.1200134,0.0],[615042.6297619,9762513.2558932,0.0],[615025.7864913,9762520.9995992,0.0],[614999.415533,9762529.5211503,0.0],[614975.9182288,9762535.2026623,0.0],[614964.1437897,9762537.4889296,0.0],[614949.8404511,9762538.7845912,0.0],[614925.7082172,9762539.7473927,0.0],[614905.4544638,9762538.9506293,0.0],[614881.9418787,9762536.286917,0.0],[614858.5478346,9762532.1780941,0.0],[614837.7561734,9762529.9912289,0.0],[614829.6379753,9762529.6007224,0.0],[614818.1240768,9762529.6007224,0.0],[614806.1027286,9762530.5877349,0.0],[614793.198087,9762533.7414727,0.0],[614783.3977983,9762537.3543944,0.0],[614769.506478,9762543.8895612,0.0],[614761.5042319,9762549.2930466,0.0],[614752.7101631,9762556.5379209,0.0],[614739.6126885,9762571.864144,0.0],[614733.1378456,9762580.7166197,0.0],[614729.540655,9762587.5658515,0.0],[614719.4560625,9762609.195251,0.0],[614712.7338784,9762627.0051099,0.0],[614707.6966884,9762642.3799623,0.0],[614703.8520373,9762658.1234842,0.0],[614700.8341499,9762677.9487133,0.0],[614699.4740881,9762696.6134052,0.0],[614698.1782624,9762722.8976579,0.0],[614700.1665522,9762742.6087058,0.0],[614704.2801192,9762766.4674334,0.0],[614711.8364498,9762801.4070152,0.0],[614715.1892433,9762819.7231126,0.0],[614720.2526671,9762842.6959717,0.0],[614722.5147054,9762854.2636631,0.0],[614726.1896165,9762872.6499452,0.0],[614731.3507267,9762897.5465817,0.0],[614736.4173811,9762921.9875734,0.0],[614743.1903543,9762945.5530604,0.0],[614751.1684835,9762964.7073671,0.0],[614761.3945503,9762982.7515557,0.0],[614774.7431612,9763004.2386214,0.0],[614799.5779258,9763029.1237571,0.0],[614808.9706977,9763036.5873769,0.0],[614817.7966999,9763042.904797,0.0],[614829.0375059,9763049.844609,0.0],[614832.3968305,9763051.7150548,0.0],[614835.8879926,9763053.6526791,0.0],[614846.9793277,9763058.788905,0.0],[614850.2020248,9763060.239047,0.0],[614853.962691,9763061.6940905,0.0],[614865.1441124,9763065.659584,0.0],[614869.1255686,9763066.6395409,0.0],[614872.7626849,9763067.5347454,0.0],[614883.9909407,9763070.2958136,0.0],[614902.4494027,9763075.1018329,0.0],[614922.5592575,9763076.6052948,0.0],[614937.3972266,9763075.2678036,0.0],[614956.3480369,9763070.9785783,0.0],[614968.8357462,9763066.1163809,0.0],[614986.6573812,9763054.8144008,0.0],[614990.1373123,9763052.2526613,0.0],[614999.1831696,9763043.1294567,0.0],[615037.7534845,9762999.2532668,0.0],[615080.8582572,9762947.743147,0.0],[615085.5729674,9762941.1627785,0.0],[615080.5467266,9762936.9220898,0.0],[615075.7063188,9762943.8424222,0.0],[615032.8540042,9762995.050855,0.0],[614994.4634503,9763038.7225553,0.0],[614985.9070743,9763047.3520933,0.0],[614983.0114528,9763049.4836952,0.0],[614965.9090777,9763060.3295409,0.0],[614954.4542705,9763064.789569,0.0],[614936.390674,9763068.877987,0.0],[614922.5098012,9763070.1292058,0.0],[614903.5117449,9763068.7088646,0.0],[614885.5747848,9763064.0386285,0.0],[614874.305265,9763061.2674134,0.0],[614870.6681487,9763060.372209,0.0],[614866.9986815,9763059.4690421,0.0],[614856.2063471,9763055.6415383,0.0],[614852.6925977,9763054.2820297,0.0],[614849.6597881,9763052.9173328,0.0],[614838.8140822,9763047.894854,0.0],[614835.5328391,9763046.0737365,0.0],[614832.3044167,9763044.276176,0.0],[614821.3745288,9763037.5283175,0.0],[614812.8591977,9763031.4332677,0.0],[614803.8841156,9763024.3015497,0.0],[614779.8348843,9763000.2035407,0.0],[614766.9457358,9762979.4560647,0.0],[614756.9764486,9762961.8649713,0.0],[614749.2911585,9762943.4137279,0.0],[614742.6879342,9762920.4388555,0.0],[614737.6707359,9762896.2364343,0.0],[614732.5142986,9762871.3623394,0.0],[614728.8465319,9762853.0118021,0.0],[614726.5723121,9762841.3818164,0.0],[614721.51727,9762818.4469854,0.0],[614718.1667737,9762800.1434372,0.0],[614710.6174803,9762765.2363946,0.0],[614706.5655948,9762741.7354204,0.0],[614704.6486594,9762722.731749,0.0],[614705.9169059,9762697.0069058,0.0],[614707.2530811,9762678.6700194,0.0],[614710.1899232,9762659.3771962,0.0],[614713.907764,9762644.1529519,0.0],[614718.8229385,9762629.1505236,0.0],[614725.4086905,9762611.70213,0.0],[614735.3259062,9762590.4317198,0.0],[614738.6297409,9762584.1410523,0.0],[614744.6781023,9762575.8716668,0.0],[614757.2500251,9762561.1604267,0.0],[614765.3709645,9762554.4701008,0.0],[614772.7052257,9762549.5176696,0.0],[614785.8925412,9762543.3137017,0.0],[614795.0865812,9762539.9242764,0.0],[614807.1393844,9762536.9787175,0.0],[614818.3886,9762536.055101,0.0],[614829.4828288,9762536.055101,0.0],[614837.2631465,9762536.4293545,0.0],[614857.6509284,9762538.5737397,0.0],[614881.0194752,9762542.6780844,0.0],[614904.9636645,9762545.3906926,0.0],[614925.7100161,9762546.2068344,0.0],[614950.2605124,9762545.2273455,0.0],[614965.052408,9762543.8874282,0.0],[614977.2925388,9762541.5107365,0.0],[615001.1687928,9762535.7375967,0.0],[615028.1350834,9762527.023669,0.0],[615045.5513252,9762519.0165391,0.0],[615065.9410994,9762507.6705956,0.0],[615081.3102041,9762497.9330045,0.0],[615149.9779245,9762450.0941623,0.0],[615250.673727,9762379.7524333,0.0],[615266.6707475,9762368.3295262,0.0],[615273.198722,9762363.3040962,0.0],[615291.1999562,9762347.7654744,0.0],[615335.0185939,9762308.9571736,0.0],[615383.1280334,9762266.2804512,0.0],[615400.6153109,9762250.7621903,0.0],[615412.0622031,9762242.3993124,0.0],[615423.9112349,9762236.9279198,0.0],[615445.1470081,9762231.1101833,0.0],[615456.4544451,9762230.4087305,0.0],[615471.3057839,9762230.1295174,0.0],[615486.1537195,9762232.5926805,0.0],[615627.2907082,9762273.8265773,0.0],[615653.1985126,9762280.833089,0.0],[615669.1538918,9762283.3509743,0.0],[615681.4981482,9762284.3307574,0.0],[615701.416088,9762283.2973802,0.0],[615717.6962716,9762279.8406488,0.0],[615736.2388583,9762274.7774406,0.0],[615757.9472131,9762262.5764082,0.0],[615776.97976,9762248.0102619,0.0],[615856.7360681,9762174.1426552,0.0],[615915.9514324,9762117.0033366,0.0],[615947.639455,9762086.970741,0.0],[615994.468385,9762042.5882205,0.0],[616031.2070327,9762007.7688517,0.0],[616058.6619264,9761982.0640701,0.0],[616068.3587318,9761973.783249,0.0],[616076.9246632,9761968.125384,0.0],[616089.3462138,9761960.8556459,0.0],[616099.2296618,9761957.20365,0.0],[616107.2530873,9761955.0708637,0.0],[616114.7494765,9761953.5344613,0.0],[616122.672468,9761952.9529482,0.0],[616130.7577866,9761952.5022942,0.0],[616141.9164736,9761953.5627511,0.0],[616148.987564,9761954.6496795,0.0],[616164.587541,9761958.4168119,0.0],[616181.1892104,9761964.8121053,0.0],[616197.9308459,9761971.4299036,0.0],[616219.8228059,9761980.1354401,0.0],[616264.6695959,9761997.7293856,0.0],[616368.3997021,9762039.341265,0.0],[616420.252971,9762059.9808039,0.0],[616495.4449126,9762089.9100066,0.0],[616520.9087234,9762102.4927798,0.0],[616608.1057289,9762144.4150933,0.0],[616683.8404451,9762180.2450336,0.0],[616715.6109741,9762195.2756063,0.0],[616722.8800812,9762199.4837995,0.0],[616734.2642311,9762207.0175176,0.0],[616741.3399113,9762211.585829,0.0],[616751.6029366,9762220.2564585,0.0],[616764.886703,9762235.7473689,0.0],[616773.2058018,9762247.7982342,0.0],[616778.6841204,9762258.1162227,0.0],[616785.9650436,9762274.8389888,0.0],[616789.6043249,9762289.5978519,0.0],[616791.3415992,9762302.670567,0.0],[616792.2781453,9762316.1503959,0.0],[616791.8990066,9762324.2471227,0.0],[616790.8617134,9762335.2327159,0.0],[616788.7938288,9762344.1615009,0.0],[616785.0270989,9762358.3914729,0.0],[616778.6025188,9762374.5231171,0.0],[616765.4437889,9762397.869287,0.0],[616760.4912194,9762410.6191356,0.0],[616757.9915373,9762418.973632,0.0],[616755.0246809,9762435.4265869,0.0],[616755.0246809,9762449.2668172,0.0],[616757.609728,9762465.8001886,0.0],[616768.7646828,9762523.6598868,0.0],[616774.5437238,9762553.6352277,0.0],[616781.5319466,9762581.7696914,0.0],[616787.3958954,9762595.8875005,0.0],[616793.341354,9762605.794382,0.0],[616801.8270085,9762617.1065788,0.0],[616808.8066616,9762626.2748935,0.0],[616826.6515493,9762649.3736504,0.0],[616837.853656,9762662.9332775,0.0],[616846.7852158,9762672.4088543,0.0],[616858.5323485,9762679.9007582,0.0],[616875.4331703,9762689.1078654,0.0],[616948.9458589,9762728.2132421,0.0],[616994.7909908,9762754.033956,0.0],[617022.6637714,9762777.1903265,0.0],[617085.8555466,9762829.9732259,0.0],[617113.5219928,9762854.2734155,0.0],[617122.0148359,9762864.3271384,0.0],[617131.0512605,9762877.2041227,0.0],[617140.1827528,9762897.2580635,0.0],[617144.374852,9762912.4567655,0.0],[617146.6018397,9762927.5483838,0.0],[617147.2338704,9762945.2375563,0.0],[617144.7580975,9762965.0367071,0.0],[617138.5168094,9762985.5749607,0.0],[617128.3715365,9763014.9533998,0.0],[617119.2036508,9763043.9852137,0.0],[617108.8623039,9763073.5277223,0.0],[617096.0166405,9763114.9930805,0.0],[617094.8976271,9763129.4869779,0.0],[617098.9109326,9763148.4905859,0.0],[617102.5082024,9763165.4375623,0.0],[617106.400205,9763184.7321453,0.0],[617112.6776158,9763183.2103472,0.0]]]]}},
{"type":"Feature","properties":{"Layer":"VIA ESPOL_ORIGINAL"},"geometry":{"type":"MultiPolygon","coordinates":[[[[615080.5467266,9762936.9220898,0.0],[615085.5729674,9762941.1627785,0.0],[615098.2484349,9762923.5230697,0.0],[615111.368149,9762901.4652296,0.0],[615121.5398092,9762883.6358348,0.0],[615115.0184706,9762879.539894,0.0],[615097.4216614,9762899.7449685,0.0],[615083.7001166,9762915.6979617,0.0],[615071.4744106,9762929.2676876,0.0],[615077.0769422,9762933.9945985,0.0],[615097.2216166,9762910.2753392,0.0],[615080.5467266,9762936.9220898,0.0]]]]}}
]
}
