{
"type": "FeatureCollection",
"name": "vias_mitad",
"crs": { "type": "name", "properties": { "name": "urn:ogc:def:crs:EPSG::32717" } },
"xy_coordinate_resolution": 1e-07,
"features": [
{"type":"Feature","properties":{"Layer":"VIA ESPOL_ORIGINAL"},"geometry":{"type":"MultiLineString","coordinates":[[[617098.698298,9763186.5992762,0.0],[617093.6031278,9763165.5817209,0.0],[617090.2227289,9763148.1425424,0.0],[617086.370402,9763128.2687295,0.0],[617087.4258915,9763114.597619,0.0],[617100.1471188,9763073.533936,0.0],[617110.4855538,9763043.9997462,0.0],[617119.6554856,9763014.9614527,0.0],[617129.8064795,9762985.566447,0.0],[617136.1456023,9762964.7062481,0.0],[617138.6661511,9762946.9099804,0.0],[617138.6661511,9762928.7832183,0.0],[617137.0011998,9762916.9570375,0.0],[617132.6884251,9762901.3208196,0.0],[617123.3271539,9762880.7622543,0.0],[617115.8242419,9762870.070539,0.0],[617107.0830337,9762859.7228045,0.0],[617082.0057947,9762837.9380264,0.0],[617018.77999,9762785.1267029,0.0],[616990.6795284,9762761.7811777,0.0],[616944.5464005,9762735.7982598,0.0],[616871.0136065,9762696.682188,0.0],[616848.5211602,9762683.6769292,0.0],[616838.3754371,9762675.6183478,0.0],[616829.7912784,9762666.511332,0.0],[616818.6899919,9762653.0737431,0.0],[616797.3690123,9762625.4754677,0.0],[616785.5396812,9762609.7058272,0.0],[616778.2380536,9762596.5612559,0.0],[616772.8201645,9762582.497512,0.0],[616766.5104682,9762554.4074653,0.0],[616760.7476215,9762524.5161233,0.0],[616749.2542483,9762464.9010805,0.0],[616746.7167535,9762448.6718424,0.0],[616746.7167535,9762435.3710212,0.0],[616749.6001908,9762416.7099346,0.0],[616752.0109482,9762408.6526444,0.0],[616756.8333381,9762396.2379289,0.0],[616769.9547472,9762372.9037684,0.0],[616777.0440518,9762356.3901135,0.0],[616779.7381785,9762347.6625315,0.0],[616781.901388,9762338.4746421,0.0],[616783.2495154,9762327.5110677,0.0],[616783.8342941,9762318.837779,0.0],[616783.1590966,9762305.0697109,0.0],[616781.3851495,9762291.7210376,0.0],[616778.2215053,9762278.7974981,0.0],[616771.4472743,9762261.7096331,0.0],[616762.6784193,9762246.5068931,0.0],[616751.3255871,9762232.2187269,0.0],[616741.4669129,9762222.729725,0.0],[616734.7803758,9762217.0482004,0.0],[616723.3308993,9762209.4712511,0.0],[616715.8624092,9762205.1476321,0.0],[616683.9709283,9762190.0598372,0.0],[616608.245337,9762154.2342139,0.0],[616521.0731354,9762112.3238256,0.0],[616495.5089573,9762099.6914565,0.0],[616420.1968087,9762069.7144069,0.0],[616368.3475705,9762049.0764725,0.0],[616264.6100484,9762007.4616181,0.0],[616220.0352277,9761989.6688377,0.0],[616197.9467967,9761981.2417493,0.0],[616182.1298647,9761974.5878114,0.0],[616165.3178755,9761967.0598951,0.0],[616149.3800157,9761963.2111697,0.0],[616142.0820344,9761962.0893649,0.0],[616130.5884208,9761960.9970785,0.0],[616123.3790798,9761961.4694181,0.0],[616115.7142843,9761962.4760351,0.0],[616106.377577,9761964.2473126,0.0],[616096.0851392,9761967.5609842,0.0],[616083.3429413,9761973.9205759,0.0],[616074.5380755,9761979.7362589,0.0],[616064.6339904,9761988.1940915,0.0],[616037.1180874,9762013.9559933,0.0],[616000.3723014,9762048.7821276,0.0],[615953.5433714,9762093.1646481,0.0],[615921.8448383,9762123.2072051,0.0],[615857.0730534,9762184.5952205,0.0],[615776.2454289,9762260.6483249,0.0],[615756.7171572,9762273.5439028,0.0],[615734.4802036,9762283.8194642,0.0],[615716.4109466,9762288.7534258,0.0],[615701.2439362,9762292.13808,0.0],[615677.8997816,9762293.1473008,0.0],[615665.8910317,9762292.1941474,0.0],[615650.2306125,9762289.7228092,0.0],[615624.5219237,9762282.7701463,0.0],[615483.2302523,9762241.4910582,0.0],[615467.8988746,9762238.9476956,0.0],[615452.681522,9762239.2337899,0.0],[615441.6720086,9762241.0509265,0.0],[615426.6249372,9762245.6941331,0.0],[615414.2418004,9762251.4121533,0.0],[615402.4119197,9762260.0548353,0.0],[615384.8100749,9762275.6747635,0.0],[615337.8352884,9762318.3510939,0.0],[615293.9685006,9762358.203825,0.0],[615275.5267307,9762373.1827039,0.0],[615269.2893195,9762378.2488894,0.0],[615255.8577301,9762387.1857539,0.0],[615155.1772915,9762457.5167503,0.0],[615086.569172,9762505.3140702,0.0],[615071.3373627,9762514.9646734,0.0],[615051.1363411,9762526.2055851,0.0],[615034.0065848,9762534.081003,0.0],[615007.3379604,9762543.5404505,0.0],[614983.6511814,9762549.1756791,0.0],[614971.6438964,9762551.6287001,0.0],[614951.6782775,9762554.2445718,0.0],[614927.3369125,9762555.2157171,0.0],[614906.8368599,9762554.4092644,0.0],[614883.1084727,9762551.7211042,0.0],[614859.7271773,9762547.6145204,0.0],[614839.1374557,9762545.4488952,0.0],[614831.1881978,9762545.0665152,0.0],[614819.8841342,9762545.0665152,0.0],[614808.2488523,9762546.0218297,0.0],[614795.7701299,9762549.071478,0.0],[614786.2729656,9762552.5726515,0.0],[614772.7336477,9762560.0366919,0.0],[614766.5946208,9762564.8795709,0.0],[614758.452832,9762572.4517015,0.0],[614751.18782,9762581.5257321,0.0],[614743.0460121,9762594.6674395,0.0],[614733.045108,9762616.1173444,0.0],[614726.3911399,9762633.7464707,0.0],[614721.4149577,9762648.9351111,0.0],[614717.6337118,9762664.4189941,0.0],[614714.656347,9762683.9780202,0.0],[614713.3082285,9762702.4788094,0.0],[614713.3082285,9762722.4229555,0.0],[614715.3354039,9762741.7803152,0.0],[614719.3199789,9762765.4601661,0.0],[614726.9435151,9762800.0216307,0.0],[614731.0620948,9762818.6933004,0.0],[614736.1252331,9762841.6471462,0.0],[614739.9833057,9762863.3904277,0.0],[614746.5430858,9762895.0340964,0.0],[614751.5850122,9762919.3558028,0.0],[614758.273111,9762942.6259825,0.0],[614766.1048206,9762961.4287576,0.0],[614776.2024976,9762979.2463986,0.0],[614790.4312121,9762998.641577,0.0],[614809.1692946,9763017.2935722,0.0],[614812.2464024,9763020.0065149,0.0],[614815.2906078,9763022.2919679,0.0],[614818.3532215,9763024.591241,0.0],[614821.551011,9763026.8922632,0.0],[614827.0238882,9763030.797476,0.0],[614838.0308762,9763037.5929342,0.0],[614841.3247497,9763039.4269374,0.0],[614844.7109523,9763041.3063082,0.0],[614855.6794728,9763046.3856606,0.0],[614859.0183726,9763047.856314,0.0],[614862.6555804,9763049.26359,0.0],[614866.325456,9763050.6835056,0.0],[614873.6424583,9763053.1600887,0.0],[614877.4679199,9763054.1016506,0.0],[614881.1050363,9763054.996855,0.0],[614892.3539241,9763057.7629967,0.0],[614903.5554356,9763059.4974218,0.0],[614911.1770702,9763060.3803938,0.0],[614918.7071344,9763061.0038529,0.0],[614922.4903343,9763061.0038529,0.0],[614926.5220639,9763060.8107002,0.0],[614931.9832148,9763060.2434902,0.0],[614938.9254321,9763059.5224525,0.0],[614946.835919,9763057.6340218,0.0],[614954.6487887,9763055.0796245,0.0],[614961.5999439,9763052.2669226,0.0],[614968.2712569,9763048.6637964,0.0],[614978.7267273,9763041.4598321,0.0],[614987.8705097,9763032.690288,0.0],[615025.5795171,9762989.3478575,0.0],[615074.2756764,9762931.631143,0.0]]]}},
{"type":"Feature","properties":{"Layer":"VIA ESPOL_ORIGINAL"},"geometry":{"type":"MultiLineString","coordinates":[[[617109.5389104,9763183.9712463,0.0],[617105.6684462,9763164.7834394,0.0],[617102.0681326,9763147.8221237,0.0],[617098.1509051,9763129.2734599,0.0],[617099.2063946,9763115.6023494,0.0],[617111.927622,9763074.5386663,0.0],[617122.2660569,9763045.0044765,0.0],[617131.4359887,9763015.966183,0.0],[617141.5869826,9762986.5711773,0.0],[617147.9261054,9762965.7109784,0.0],[617150.4682467,9762945.3810693,0.0],[617149.820581,9762927.2543072,0.0],[617147.5385478,9762911.7896624,0.0],[617143.2257732,9762896.1534445,0.0],[617133.8645019,9762875.5948792,0.0],[617124.573433,9762862.3550247,0.0],[617115.8322248,9762852.0072902,0.0],[617087.9551333,9762827.5220851,0.0],[617024.7293286,9762774.7107615,0.0],[616996.6288671,9762751.3652364,0.0],[616950.4957391,9762725.3823185,0.0],[616876.9629451,9762686.2662467,0.0],[616860.1738802,9762677.1200216,0.0],[616848.8585821,9762669.9035265,0.0],[616840.2744234,9762660.7965108,0.0],[616829.1731369,9762647.3589218,0.0],[616811.3675091,9762624.3109837,0.0],[616804.4017251,9762615.1608871,0.0],[616796.0228263,9762603.9910059,0.0],[616790.2851699,9762594.430384,0.0],[616784.6054249,9762580.7560567,0.0],[616777.6963645,9762552.9402991,0.0],[616771.9335178,9762523.0489571,0.0],[616760.7893651,9762465.2452878,0.0],[616758.2518702,9762449.0160497,0.0],[616758.2518702,9762435.7152285,0.0],[616761.1353075,9762419.7248809,0.0],[616763.5460649,9762411.6675907,0.0],[616768.3684548,9762399.2528753,0.0],[616781.5204159,9762375.9187147,0.0],[616788.0971353,9762359.4050598,0.0],[616791.9264481,9762344.9386622,0.0],[616794.0543406,9762335.7507728,0.0],[616795.1190889,9762324.4744116,0.0],[616795.5105792,9762316.1139097,0.0],[616794.554007,9762302.3458415,0.0],[616792.7800598,9762288.9971682,0.0],[616789.0329849,9762273.8011554,0.0],[616781.5931013,9762256.7132905,0.0],[616775.9681819,9762246.1191907,0.0],[616767.4465188,9762233.7748951,0.0],[616753.8838372,9762217.9587268,0.0],[616743.2643795,9762208.9869685,0.0],[616736.0300114,9762204.3162024,0.0],[616724.5805349,9762196.7392531,0.0],[616717.1120448,9762192.4156341,0.0],[616685.2205638,9762177.3278393,0.0],[616609.4949726,9762141.5022159,0.0],[616522.322771,9762099.5918276,0.0],[616496.7585929,9762086.9594586,0.0],[616421.4464443,9762056.9824089,0.0],[616369.5972061,9762036.3444745,0.0],[616265.859684,9761994.7296202,0.0],[616221.0083648,9761977.1338978,0.0],[616199.1202699,9761968.4298983,0.0],[616182.3624482,9761961.8057017,0.0],[616165.550459,9761955.329389,0.0],[616149.6125992,9761951.4806636,0.0],[616142.3146179,9761950.3588588,0.0],[616130.8210043,9761949.2665723,0.0],[616122.4645407,9761949.7323393,0.0],[616114.3055467,9761950.3311739,0.0],[616106.5139674,9761951.9280762,0.0],[616098.2536969,9761954.1238206,0.0],[616087.9612591,9761957.9269409,0.0],[616075.2190611,9761965.3843384,0.0],[616066.4141954,9761971.2000215,0.0],[616056.5101103,9761979.6578541,0.0],[616028.9942073,9762005.4197559,0.0],[615992.2484213,9762040.2458901,0.0],[615945.4194913,9762084.6284106,0.0],[615913.7209581,9762114.6709677,0.0],[615854.5189459,9762171.7974023,0.0],[615774.8980562,9762245.5395891,0.0],[615756.1670793,9762259.8749353,0.0],[615735.0047195,9762271.7690949,0.0],[615716.9354626,9762276.7030564,0.0],[615700.9947412,9762280.0877107,0.0],[615681.5424063,9762281.0969315,0.0],[615669.5336564,9762280.1437781,0.0],[615653.8732373,9762277.6724399,0.0],[615628.1645484,9762270.7197769,0.0],[615486.872877,9762229.4406888,0.0],[615471.5414993,9762226.8973263,0.0],[615456.3241467,9762227.1834206,0.0],[615444.6151601,9762227.9097834,0.0],[615422.8008722,9762233.8860093,0.0],[615410.4177355,9762239.6040295,0.0],[615398.5878547,9762248.2467115,0.0],[615380.98601,9762263.8666396,0.0],[615332.8770122,9762306.5429701,0.0],[615289.075668,9762345.3359534,0.0],[615271.1584431,9762360.8020586,0.0],[615264.7481279,9762365.736911,0.0],[615248.8119326,9762377.116385,0.0],[615148.131494,9762447.4473814,0.0],[615079.5233745,9762495.2447013,0.0],[615064.2915652,9762504.8953045,0.0],[615044.0905436,9762516.1362162,0.0],[615026.9607873,9762524.0116341,0.0],[615000.2921629,9762532.6293735,0.0],[614976.6053838,9762538.3566994,0.0],[614964.5980989,9762540.6881789,0.0],[614950.0504817,9762542.0059683,0.0],[614925.7091167,9762542.9771136,0.0],[614905.2090641,9762542.1706609,0.0],[614881.4806769,9762539.4825007,0.0],[614858.0993815,9762535.3759169,0.0],[614837.5096599,9762533.2102917,0.0],[614829.5604021,9762532.8279117,0.0],[614818.2563384,9762532.8279117,0.0],[614806.6210565,9762533.7832262,0.0],[614794.1423341,9762536.8328745,0.0],[614784.6451698,9762540.334048,0.0],[614771.1058519,9762546.7036154,0.0],[614763.4375982,9762551.8815737,0.0],[614754.9800941,9762558.8491738,0.0],[614742.1453954,9762573.8679054,0.0],[614735.8837932,9762582.428836,0.0],[614732.4332806,9762588.9987856,0.0],[614722.4323765,9762610.4486905,0.0],[614715.7784084,9762628.0778167,0.0],[614710.8022262,9762643.2664571,0.0],[614707.0209802,9762658.7503402,0.0],[614704.0436155,9762678.3093663,0.0],[614702.695497,9762696.8101555,0.0],[614701.4134609,9762722.8147034,0.0],[614703.3660735,9762742.1720631,0.0],[614707.4487998,9762765.851914,0.0],[614715.0016118,9762800.7752262,0.0],[614718.3532566,9762819.085049,0.0],[614723.4124896,9762842.0388941,0.0],[614725.6806186,9762853.6377326,0.0],[614729.3519575,9762872.0061423,0.0],[614734.5107313,9762896.891508,0.0],[614739.5526577,9762921.2132144,0.0],[614746.2407564,9762944.4833941,0.0],[614754.0724661,9762963.2861692,0.0],[614764.170143,9762981.1038102,0.0],[614777.2890227,9763002.2210811,0.0],[614801.7310207,9763026.7126534,0.0],[614810.9149477,9763034.0103223,0.0],[614819.5856144,9763040.2165572,0.0],[614830.6709613,9763047.0603925,0.0],[614833.9648348,9763048.8943956,0.0],[614837.3510374,9763050.7737665,0.0],[614848.3195579,9763055.8531189,0.0],[614851.4473113,9763057.2605384,0.0],[614855.084519,9763058.6678144,0.0],[614866.071397,9763062.564313,0.0],[614869.8968586,9763063.505875,0.0],[614873.533975,9763064.4010794,0.0],[614884.7828628,9763067.167221,0.0],[614902.9805738,9763071.9053488,0.0],[614922.5345294,9763073.3672503,0.0],[614936.8939503,9763072.0728953,0.0],[614955.4011537,9763067.8840737,0.0],[614967.3724119,9763063.2229609,0.0],[614984.834417,9763052.149048,0.0],[614988.0221933,9763049.8023773,0.0],[614996.82331,9763040.926006,0.0],[615035.3037444,9762997.1520609,0.0],[615078.282288,9762945.7927846,0.0],[615082.9544166,9762938.9534815,0.0]]]}},
{"type":"Feature","properties":{"Layer":"VIA ESPOL_ORIGINAL"},"geometry":{"type":"MultiLineString","coordinates":[[[614682.629148,9762818.8953539,0.0],[614665.6336388,9762829.8909455,0.0],[614649.1098457,9762840.2438223,0.0],[614627.3850823,9762854.0907857,0.0],[614609.5487628,9762865.2151105,0.0],[614599.90537,9762871.2051705,0.0],[614594.9627702,9762873.2668204,0.0],[614586.6678215,9762876.4881492,0.0],[614569.1681442,9762883.2573518,0.0],[614563.6404189,9762885.4152118,0.0],[614559.6673719,9762887.4435985,0.0],[614555.0465311,9762890.2056544,0.0],[614552.1020297,9762892.2047197,0.0],[614546.9197835,9762896.8225413,0.0],[614542.5961865,9762901.2800883,0.0],[614538.9686186,9762905.8547547,0.0],[614527.735635,9762921.404496,0.0],[614513.3448792,9762942.4835671,0.0],[614499.9018617,9762961.9682202,0.0],[614490.2800586,9762975.2861147,0.0],[614484.9299714,9762982.1975598,0.0],[614477.7430403,9762990.9145021,0.0],[614474.2633142,9762994.9570414,0.0],[614467.556291,9763001.8849405,0.0],[614460.6838274,9763008.0139581,0.0],[614453.8932963,9763013.5008273,0.0],[614447.0147264,9763018.6385204,0.0],[614420.9949771,9763036.1219335,0.0],[614396.836902,9763052.4055404,0.0],[614392.1691161,9763055.3319562,0.0],[614385.5141391,9763059.1136914,0.0],[614380.5424631,9763061.1780596,0.0],[614374.6716292,9763063.3139229,0.0],[614366.6128912,9763066.0476617,0.0],[614358.8442854,9763068.2544611,0.0],[614350.8294318,9763070.1672084,0.0],[614344.7683122,9763071.5712902,0.0],[614336.4739637,9763073.4023559,0.0],[614325.791208,9763075.4483823,0.0],[614316.6020976,9763077.1274419,0.0],[614308.0529945,9763078.4253988,0.0],[614299.4400827,9763079.4278538,0.0],[614285.1272836,9763080.6767429,0.0],[614263.4187838,9763082.2410315,0.0],[614164.8887715,9763089.639251,0.0],[614148.5191664,9763090.83137,0.0],[614142.9271974,9763091.1237458,0.0],[614137.5128664,9763091.0941525,0.0],[614130.5735034,9763090.6481849,0.0],[614122.7861886,9763089.5432674,0.0],[614100.3061784,9763085.3832084,0.0]]]}},
{"type":"Feature","properties":{"Layer":"VIA ESPOL_ORIGINAL"},"geometry":{"type":"MultiLineString","coordinates":[[[614682.629148,9762818.8953539,0.0],[614697.1791573,9762809.6503603,0.0]]]}},
{"type":"Feature","properties":{"Layer":"VIA ESPOL_ORIGINAL"},"geometry":{"type":"MultiLineString","coordinates":[[[614712.2367927,9762803.5940627,0.0],[614697.1791573,9762809.6503603,0.0]]]}},
{"type":"Feature","properties":{"Layer":"VIA ESPOL_ORIGINAL"},"geometry":{"type":"MultiLineString","coordinates":[[[615107.7503783,9762895.9316018,0.0],[615100.1676514,9762912.8092931,0.0]]]}},
{"type":"Feature","properties":{"Layer":"VIA ESPOL_ORIGINAL"},"geometry":{"type":"MultiLineString","coordinates":[[[615082.9439707,9762938.9687728,0.0],[615100.1676514,9762912.8092931,0.0]]]}},
{"type":"Feature","properties":{"Layer":"VIA ESPOL_ORIGINAL"},"geometry":{"type":"MultiLineString","coordinates":[[[615074.2756764,9762931.631143,0.0],[615094.5906946,9762908.0124213,0.0]]]}},
{"type":"Feature","properties":{"Layer":"VIA ESPOL_ORIGINAL"},"geometry":{"type":"MultiLineString","coordinates":[[[615094.5906946,9762908.0124213,0.0],[615107.7503783,9762895.9316018,0.0]]]}},
{"type":"Feature","properties":{"Layer":"VIA ESPOL_ORIGINAL"},"geometry":{"type":"MultiLineString","coordinates":[[[615118.2791399,9762881.5878644,0.0],[615107.7503783,9762895.9316018,0.0]]]}},
{"type":"Feature","properties":{"Layer":"VIA ESPOL_ORIGINAL"},"geometry":{"type":"MultiLineString","coordinates":[[[615118.2791399,9762881.5878644,0.0],[615133.0936561,9762858.0009816,0.0],[615141.3482861,9762848.5609961,0.0],[615161.4485406,9762834.5702558,0.0],[615175.7293432,9762828.9448271,0.0],[615186.8681158,9762825.8644146,0.0],[615204.9640336,9762823.7939116,0.0],[615224.8850439,9762825.4709132,0.0],[615253.6868922,9762836.8668295,0.0],[615286.4246,9762862.2342003,0.0],[615313.5871542,9762884.321731,0.0],[615352.0662476,9762915.6114305,0.0],[615370.34556,9762930.4754551,0.0],[615469.4785728,9763008.5758837,0.0],[615480.6328867,9763013.6850901,0.0],[615488.2183873,9763015.4175454,0.0],[615499.5966282,9763014.6596,0.0],[615510.4330405,9763011.0864149,0.0],[615516.8806969,9763007.1342648,0.0],[615524.9741544,9762998.395882,0.0],[615537.2734919,9762982.7496972,0.0],[615602.1532495,9762898.0933687,0.0],[615607.7397518,9762888.5701261,0.0],[615613.5267776,9762875.0356129,0.0],[615616.9884004,9762861.129398,0.0],[615617.8506575,9762850.0520895,0.0],[615614.6348811,9762783.7378253,0.0],[615616.1499477,9762770.3538809,0.0],[615619.6477486,9762757.6844228,0.0],[615625.956288,9762743.2050398,0.0],[615631.8600702,9762733.3415327,0.0],[615639.1872507,9762725.0189577,0.0],[615645.0205619,9762719.7490562,0.0],[615750.6864309,9762635.8386586,0.0],[615762.9176638,9762623.9403708,0.0],[615768.3873495,9762617.6100234,0.0],[615775.1559158,9762607.2624972,0.0],[615782.3455233,9762592.3905511,0.0],[615786.806052,9762576.4546626,0.0],[615788.5094192,9762562.890869,0.0],[615789.0526417,9762553.7193121,0.0],[615785.3200886,9762530.5841754,0.0],[615747.1682156,9762396.0054125,0.0]]]}},
{"type":"Feature","properties":{"Layer":"VIA ESPOL_ORIGINAL"},"geometry":{"type":"MultiLineString","coordinates":[[[615742.1321233,9762377.7040265,0.0],[615745.772464,9762390.9331881,0.0]]]}},
{"type":"Feature","properties":{"Layer":"VIA ESPOL_ORIGINAL"},"geometry":{"type":"MultiLineString","coordinates":[[[615745.772464,9762390.9331881,0.0],[615747.1682156,9762396.0054125,0.0]]]}},
{"type":"Feature","properties":{"Layer":"VIA ESPOL_ORIGINAL"},"geometry":{"type":"MultiLineString","coordinates":[[[615742.1321233,9762377.7040265,0.0],[615736.2607665,9762364.8812818,0.0]]]}},
{"type":"Feature","properties":{"Layer":"VIA ESPOL_ORIGINAL"},"geometry":{"type":"MultiLineString","coordinates":[[[615742.1321233,9762377.7040265,0.0],[615740.8318881,9762363.860938,0.0]]]}},
{"type":"Feature","properties":{"Layer":"VIA ESPOL_ORIGINAL"},"geometry":{"type":"MultiLineString","coordinates":[[[615764.7128473,9762272.6560343,0.0],[615760.2280396,9762281.6662757,0.0],[615749.1143293,9762303.5456552,0.0],[615745.3429636,9762316.2894001,0.0],[615742.422458,9762329.6650917,0.0],[615740.8318881,9762346.9580025,0.0],[615740.8318881,9762363.860938,0.0]]]}},
{"type":"Feature","properties":{"Layer":"VIA ESPOL_ORIGINAL"},"geometry":{"type":"MultiLineString","coordinates":[[[615665.4597344,9762295.8365487,0.0],[615676.7593267,9762302.2096552,0.0],[615697.9231592,9762315.3380442,0.0],[615709.5333456,9762326.8486594,0.0],[615716.0210147,9762334.3733921,0.0],[615729.6380349,9762353.0109188,0.0],[615736.2607665,9762364.8812818,0.0]]]}},
{"type":"Feature","properties":{"Layer":"VIA ESPOL_ORIGINAL"},"geometry":{"type":"MultiLineString","coordinates":[[[615648.6649603,9762272.9207906,0.0],[615649.4290013,9762268.0207779,0.0],[615650.2108028,9762263.6944821,0.0],[615651.5794153,9762254.8624752,0.0],[615653.0197696,9762244.8664782,0.0],[615654.2062683,9762236.4551693,0.0],[615655.4553112,9762226.6827786,0.0],[615656.2573475,9762217.624514,0.0],[615656.4026707,9762210.2260621,0.0],[615655.0322186,9762203.0406107,0.0],[615651.4175364,9762192.0229185,0.0],[615649.548571,9762186.2639516,0.0],[615647.401836,9762179.4594263,0.0],[615646.0755328,9762172.6849509,0.0],[615645.8106401,9762164.3319741,0.0],[615646.9419528,9762158.0692301,0.0],[615650.3929166,9762150.6018403,0.0],[615654.325838,9762144.5547482,0.0],[615658.4224778,9762138.2319045,0.0],[615663.0948914,9762131.3062959,0.0],[615668.4313764,9762123.805321,0.0],[615672.8517741,9762116.4086368,0.0],[615674.777765,9762109.4750739,0.0],[615675.7251245,9762103.618003,0.0],[615675.5503689,9762098.5130623,0.0],[615674.5827745,9762092.5676095,0.0],[615673.4459432,9762087.6765531,0.0],[615671.7443752,9762081.9555904,0.0],[615669.5902822,9762076.4591178,0.0],[615667.2375196,9762072.2212039,0.0],[615663.9061255,9762067.9523564,0.0],[615657.8338273,9762063.771007,0.0],[615651.702664,9762060.7509962,0.0],[615645.2734965,9762058.2727667,0.0],[615637.9153648,9762056.9567597,0.0],[615630.5443563,9762056.5935099,0.0],[615623.59828,9762057.0354196,0.0],[615615.4638654,9762058.9868928,0.0]]]}},
{"type":"Feature","properties":{"Layer":"VIA ESPOL_EJE"},"geometry":{"type":"MultiLineString","coordinates":[[[616063.7291154,9761969.249199,0.0],[616058.0940825,9761957.1190023,0.0],[616050.6639988,9761943.1898954,0.0],[616040.9544183,9761927.3039053,0.0],[616029.1186255,9761913.6985419,0.0],[616006.0472242,9761900.4165454,0.0],[615978.0891547,9761888.1172297,0.0],[615943.085821,9761874.1743399,0.0],[615893.5626653,9761854.2728243,0.0],[615847.149955,9761836.475223,0.0],[615816.3937997,9761823.831379,0.0],[615796.3251014,9761816.9054536,0.0],[615775.5657006,9761809.7412224,0.0]]]}},
{"type":"Feature","properties":{"Layer":"VIA ESPOL_EJE"},"geometry":{"type":"MultiLineString","coordinates":[[[616477.0118906,9762548.431789,0.0],[616488.601215,9762546.7196616,0.0],[616510.6996326,9762546.0931991,0.0],[616522.5693503,9762545.814488,0.0],[616533.3616297,9762540.2221876,0.0],[616540.6047232,9762532.6695524,0.0],[616549.902255,9762519.1768768,0.0],[616554.4575576,9762513.2580777,0.0],[616561.7910705,9762510.5743165,0.0],[616579.2046301,9762510.2687663,0.0],[616600.2401253,9762509.9589808,0.0],[616616.4018209,9762509.6736294,0.0],[616628.6730874,9762508.6327573,0.0],[616635.8899983,9762502.981611,0.0],[616641.1059109,9762491.5427218,0.0],[616647.2753772,9762476.6816023,0.0],[616653.4308011,9762461.2089753,0.0],[616662.3031541,9762445.2639034,0.0],[616668.1383417,9762436.4005514,0.0],[616676.1429924,9762426.7034699,0.0],[616687.4786084,9762416.8984525,0.0],[616705.3944663,9762408.3567967,0.0],[616715.2865302,9762402.5853729,0.0],[616718.8823385,9762400.5609048,0.0],[616720.7170744,9762399.0987451,0.0],[616724.5255693,9762396.0850774,0.0],[616726.4307393,9762394.9263765,0.0],[616734.277715,9762391.1668367,0.0],[616742.1770983,9762386.9775022,0.0],[616749.5491462,9762381.3221929,0.0],[616754.4505002,9762376.7834097,0.0],[616762.3126354,9762369.1235742,0.0],[616765.6737916,9762365.7187572,0.0],[616771.7898533,9762359.9288262,0.0]]]}},
{"type":"Feature","properties":{"Layer":"VIA ESPOL_EJE"},"geometry":{"type":"MultiLineString","coordinates":[[[616743.5082971,9762441.8777713,0.0],[616742.0926113,9762438.8510679,0.0],[616739.0682932,9762434.7429432,0.0],[616735.3181244,9762429.4924921,0.0],[616731.4203207,9762424.248259,0.0],[616726.5403554,9762417.6860523,0.0],[616721.1893512,9762410.5059337,0.0],[616715.2865302,9762402.5853729,0.0]]]}},
{"type":"Feature","properties":{"Layer":"VIA ESPOL_ORIGINAL"},"geometry":{"type":"MultiLineString","coordinates":[[[615201.2176164,9762429.8257744,0.0],[615215.2103645,9762450.1941643,0.0],[615216.832322,9762452.6604923,0.0],[615219.9066326,9762457.6239284,0.0],[615221.765906,9762460.168018,0.0],[615233.482534,9762477.7918353,0.0],[615240.0861602,9762487.8482638,0.0],[615246.8620897,9762497.6550019,0.0]]]}},
{"type":"Feature","properties":{"Layer":"VIA ESPOL_ORIGINAL"},"geometry":{"type":"MultiLineString","coordinates":[[[615246.8620897,9762497.6550019,0.0],[615253.4023611,9762516.8976532,0.0],[615256.0062317,9762528.7750393,0.0],[615256.7073682,9762536.1068481,0.0],[615257.0396673,9762545.1968034,0.0],[615256.0990286,9762553.3870979,0.0],[615253.8032485,9762562.1429848,0.0],[615251.4826123,9762568.7384581,0.0]]]}},
{"type":"Feature","properties":{"Layer":"VIA ESPOL_ORIGINAL"},"geometry":{"type":"MultiLineString","coordinates":[[[615246.8620897,9762497.6550019,0.0],[615257.3004673,9762513.5309863,0.0],[615261.091141,9762518.7174688,0.0],[615263.0065132,9762521.1082053,0.0],[615265.1022028,9762523.7564965,0.0],[615266.8372575,9762526.4224822,0.0],[615269.0090812,9762529.0353841,0.0],[615270.7000582,9762531.6089648,0.0],[615272.2467814,9762534.6996208,0.0],[615273.2405309,9762537.6054666,0.0],[615274.3104146,9762540.8789668,0.0],[615275.1559031,9762546.6395407,0.0],[615275.1559031,9762554.6571586,0.0],[615274.562859,9762565.067479,0.0],[615272.655501,9762573.5215636,0.0],[615270.6239242,9762582.2017457,0.0],[615267.750866,9762591.0647721,0.0],[615263.7438112,9762599.7174293,0.0],[615262.2331516,9762602.3834151,0.0],[615260.3257936,9762604.9510975,0.0],[615258.3222662,9762607.6819634,0.0],[615255.9821463,9762609.927211,0.0],[615252.1473949,9762613.5585352,0.0],[615246.0246153,9762618.2810262,0.0],[615239.561236,9762621.3264627,0.0],[615231.723437,9762623.0015511,0.0],[615220.5377437,9762624.3129172,0.0],[615215.8875567,9762625.2910352,0.0],[615188.888022,9762630.872697,0.0],[615180.7386339,9762632.5394632,0.0],[615169.820674,9762634.8348845,0.0],[615160.3177218,9762637.1729561,0.0],[615151.652466,9762640.4002537,0.0],[615142.7387728,9762644.834716,0.0],[615129.5426519,9762651.8763661,0.0],[615116.3683456,9762659.0513405,0.0],[615107.460663,9762664.7735762,0.0],[615103.213185,9762668.7676396,0.0],[615101.7445994,9762670.8093993,0.0],[615099.3436226,9762675.6089845,0.0],[615098.1360535,9762678.3753366,0.0],[615096.4028624,9762682.8208262,0.0]]]}},
{"type":"Feature","properties":{"Layer":"VIA ESPOL_ORIGINAL"},"geometry":{"type":"MultiLineString","coordinates":[[[615254.4754937,9762503.2818833,0.0],[615260.650365,9762508.6649725,0.0],[615263.8520017,9762511.2818065,0.0],[615266.877328,9762513.7649481,0.0],[615270.2152046,9762516.314936,0.0],[615273.2565592,9762518.1984274,0.0],[615275.9412858,9762519.7752124,0.0],[615278.9065063,9762521.4168777,0.0],[615282.1281783,9762523.0782036,0.0],[615284.9491448,9762524.4052983,0.0],[615288.106704,9762525.940796,0.0],[615291.2201855,9762527.4959543,0.0],[615294.5660762,9762529.2870406,0.0],[615297.5793813,9762531.0427377,0.0],[615300.777011,9762533.0048718,0.0],[615303.9546054,9762534.9650397,0.0],[615306.9198259,9762537.0333414,0.0],[615309.8489829,9762539.2373015,0.0],[615312.6018295,9762541.7086467,0.0],[615315.1182598,9762544.3097523,0.0],[615317.6346902,9762547.2942407,0.0],[615319.9587819,9762550.3278809,0.0],[615326.6545704,9762560.1818045,0.0],[615331.1144223,9762566.8428368,0.0],[615351.2578864,9762596.6660946,0.0],[615368.4601723,9762621.5623906,0.0],[615394.9788604,9762660.7382253,0.0],[615396.633774,9762663.5772249,0.0],[615397.7156788,9762666.433919,0.0],[615398.605245,9762669.4223396,0.0],[615399.5268676,9762672.8649215,0.0],[615399.2824372,9762677.3672131,0.0],[615398.4088993,9762682.7404719,0.0],[615396.8020703,9762687.675298,0.0],[615395.9285324,9762690.3609444,0.0],[615395.1952414,9762693.0839461,0.0],[615394.5340774,9762695.9091832,0.0],[615394.1734424,9762698.5378137,0.0],[615393.9330192,9762701.162512,0.0],[615394.1769608,9762706.0552013,0.0]]]}},
{"type":"Feature","properties":{"Layer":"VIA ESPOL_ORIGINAL"},"geometry":{"type":"MultiLineString","coordinates":[[[615246.8620897,9762497.6550019,0.0],[615248.9657934,9762499.8294711,0.0],[615254.4754937,9762503.2818833,0.0]]]}}
]
}
