{
"type": "FeatureCollection",
"name": "vias_secundarias",
"crs": { "type": "name", "properties": { "name": "urn:ogc:def:crs:EPSG::32717" } },
"xy_coordinate_resolution": 1e-07,
"features": [
{"type":"Feature","properties":{"Layer":"VIA ESPOL_ORIGINAL"},"geometry":{"type":"MultiPolygon","coordinates":[[[[615614.6473712,9762055.5834626,0.0],[615616.2803596,9762062.390323,0.0],[615624.1214941,9762060.5092087,0.0],[615630.5694093,9762060.0989921,0.0],[615637.5195153,9762060.4414994,0.0],[615644.3273757,9762061.65909,0.0],[615650.2971352,9762063.960233,0.0],[615656.0586974,9762066.7981904,0.0],[615661.4779477,9762070.5298548,0.0],[615664.310136,9762074.1590201,0.0],[615666.4168385,9762077.9537181,0.0],[615668.4317556,9762083.0950637,0.0],[615670.0608829,9762088.5724687,0.0],[615671.147078,9762093.2456694,0.0],[615672.0600385,9762098.8554213,0.0],[615672.2154869,9762103.3963593,0.0],[615671.3536021,9762108.7249813,0.0],[615669.6056097,9762115.0177496,0.0],[615665.4985827,9762121.8900685,0.0],[615660.2177808,9762129.3127752,0.0],[615655.5028328,9762136.3014295,0.0],[615651.390139,9762142.6490512,0.0],[615647.3214922,9762148.904829,0.0],[615643.5772004,9762157.0069384,0.0],[615642.3006839,9762164.0735043,0.0],[615642.5862765,9762173.07922,0.0],[615644.0048322,9762180.3249014,0.0],[615646.2150612,9762187.3306844,0.0],[615648.0901913,9762193.1086467,0.0],[615651.636397,9762203.9176199,0.0],[615652.8961678,9762210.5227557,0.0],[615652.7603836,9762217.4355793,0.0],[615651.9749417,9762226.3064237,0.0],[615650.7373981,9762235.988846,0.0],[615649.5548064,9762244.3724569,0.0],[615648.1178471,9762254.3448929,0.0],[615646.7587944,9762263.1152081,0.0],[615646.097904,9762266.7724119,0.0],[615637.6049291,9762269.9297135,0.0],[615637.6049291,9762269.9297135,0.0],[615654.5479619,9762274.5117907,0.0],[615656.8835641,9762274.8803672,0.0],[615654.0187866,9762268.9221353,0.0],[615653.6628113,9762264.2737561,0.0],[615655.0409835,9762255.3800575,0.0],[615656.4847328,9762245.3604995,0.0],[615657.6751386,9762236.9214927,0.0],[615658.9356806,9762227.0591335,0.0],[615659.7543115,9762217.8134487,0.0],[615659.9091735,9762209.9293685,0.0],[615658.4280403,9762202.1636015,0.0],[615654.7448816,9762190.9371903,0.0],[615652.8820807,9762185.1972187,0.0],[615650.7988399,9762178.5939512,0.0],[615649.5647891,9762172.2906817,0.0],[615649.3205962,9762164.5904438,0.0],[615650.3067052,9762159.1315217,0.0],[615653.464341,9762152.2988515,0.0],[615657.2615369,9762146.4604452,0.0],[615661.3421228,9762140.1623794,0.0],[615665.9720021,9762133.2998167,0.0],[615671.3641702,9762125.7205735,0.0],[615676.0979384,9762117.7995239,0.0],[615678.201928,9762110.2251665,0.0],[615679.2347621,9762103.8396466,0.0],[615679.0406992,9762098.1707034,0.0],[615678.0184711,9762091.8895495,0.0],[615676.8310035,9762086.7806375,0.0],[615675.0569949,9762080.8161171,0.0],[615672.7637259,9762074.9645174,0.0],[615670.1649032,9762070.2833877,0.0],[615666.3343032,9762065.374858,0.0],[615659.6089571,9762060.7438236,0.0],[615653.1081929,9762057.5417595,0.0],[615646.2196172,9762054.8864435,0.0],[615638.3112142,9762053.47202,0.0],[615630.5193033,9762053.0880278,0.0],[615623.0750659,9762053.5616305,0.0],[615614.6473712,9762055.5834626,0.0]]]]}},
{"type":"Feature","properties":{"Layer":"VIA ESPOL_POR PARTES"},"geometry":{"type":"MultiPolygon","coordinates":[[[[615797.4856135,9761813.542731,0.0],[615776.7401906,9761806.3833236,0.0],[615774.3912105,9761813.0991211,0.0],[615781.4639247,9761815.53997,0.0],[615803.2728528,9761815.53997,0.0],[615797.4856135,9761813.542731,0.0]]]]}},
{"type":"Feature","properties":{"Layer":"VIA ESPOL_POR PARTES"},"geometry":{"type":"MultiPolygon","coordinates":[[[[615879.0399247,9761844.8939561,0.0],[615848.4632751,9761833.1689132,0.0],[615817.6513964,9761820.5021613,0.0],[615803.2728528,9761815.53997,0.0],[615781.4639247,9761815.53997,0.0],[615795.1645894,9761820.2681763,0.0],[615815.136203,9761827.1605967,0.0],[615845.8366349,9761839.7815329,0.0],[615879.0399247,9761852.5137976,0.0],[615879.0399247,9761844.8939561,0.0]]]]}},
{"type":"Feature","properties":{"Layer":"VIA ESPOL_POR PARTES"},"geometry":{"type":"MultiPolygon","coordinates":[[[[615944.4072587,9761870.8715344,0.0],[615894.8628192,9761850.9614657,0.0],[615879.0399247,9761844.8939561,0.0],[615879.0399247,9761852.5137976,0.0],[615892.2625113,9761857.5841829,0.0],[615941.7643834,9761877.4771453,0.0],[615976.7142909,9761891.3987539,0.0],[616004.7047005,9761903.4968084,0.0],[616027.0499046,9761916.047939,0.0],[616038.0747113,9761929.4136406,0.0],[616047.5743436,9761944.9561314,0.0],[616054.9091925,9761958.7067024,0.0],[616060.9207664,9761971.6474564,0.0],[616064.469659,9761968.6167939,0.0],[616075.0516201,9761961.7430809,0.0],[616068.4501458,9761962.0823287,0.0],[616067.133748,9761961.5201118,0.0],[616065.0972904,9761959.934653,0.0],[616061.8000211,9761955.1421753,0.0],[616053.753654,9761941.4236594,0.0],[616043.8341254,9761925.1941699,0.0],[616031.410758,9761910.9133837,0.0],[616007.6555495,9761897.2377256,0.0],[615979.4640184,9761884.8357055,0.0],[615944.4072587,9761870.8715344,0.0]]]]}},
{"type":"Feature","properties":{"Layer":"VIA ESPOL_ORIGINAL"},"geometry":{"type":"MultiPolygon","coordinates":[[[[614423.3188203,9763039.574968,0.0],[614449.4222433,9763022.0353322,0.0],[614456.4475206,9763016.7880615,0.0],[614463.3785075,9763011.1877015,0.0],[614470.4404997,9763004.8896581,0.0],[614477.3383779,9762997.7646186,0.0],[614480.9263474,9762993.5963287,0.0],[614488.1820918,9762984.7959234,0.0],[614493.6135112,9762977.7794104,0.0],[614503.3021146,9762964.3690551,0.0],[614516.7766003,9762944.8387913,0.0],[614531.1419374,9762923.7969526,0.0],[614542.2878795,9762908.3677022,0.0],[614545.7284221,9762904.0288902,0.0],[614549.8019267,9762899.829184,0.0],[614554.6665306,9762895.4944086,0.0],[614557.285069,9762893.7166443,0.0],[614561.6836348,9762891.0874508,0.0],[614565.3477296,9762889.2167956,0.0],[614570.6757144,9762887.1369084,0.0],[614588.1719837,9762880.369024,0.0],[614596.5175366,9762877.1280431,0.0],[614601.8169191,9762874.9175727,0.0],[614611.7481577,9762868.7487152,0.0],[614629.6050003,9762857.6115904,0.0],[614651.3333651,9762843.7623315,0.0],[614667.8691315,9762833.4019529,0.0],[614684.8757022,9762822.3992049,0.0],[614700.7535663,9762812.3104998,0.0],[614703.9190131,9762810.6728203,0.0],[614706.1099029,9762810.4025923,0.0],[614708.6916715,9762810.8978694,0.0],[614714.0960972,9762813.7513253,0.0],[614712.2367927,9762803.5940627,0.0],[614710.2294061,9762793.9762344,0.0],[614706.241367,9762799.3575938,0.0],[614680.5632772,9762815.6733069,0.0],[614663.5779399,9762826.6623175,0.0],[614647.065157,9762837.008296,0.0],[614625.3437055,9762850.8531484,0.0],[614607.5262584,9762861.9657028,0.0],[614598.1475609,9762867.7913454,0.0],[614593.5330488,9762869.7161438,0.0],[614585.2846344,9762872.9194011,0.0],[614567.7818231,9762879.689816,0.0],[614562.0704219,9762881.9193776,0.0],[614557.8132709,9762884.0928099,0.0],[614552.988032,9762886.9770425,0.0],[614549.7437838,9762889.1796103,0.0],[614544.2694423,9762894.0577136,0.0],[614539.7158668,9762898.752364,0.0],[614535.9163157,9762903.5439157,0.0],[614524.603291,9762919.2044574,0.0],[614510.1891609,9762940.3177663,0.0],[614496.7750807,9762959.760477,0.0],[614487.2147052,9762972.9933471,0.0],[614481.9394089,9762979.8081745,0.0],[614474.8157568,9762988.4483665,0.0],[614471.4355683,9762992.3752689,0.0],[614464.9040503,9762999.1218831,0.0],[614458.2058721,9763005.0954691,0.0],[614451.5445004,9763010.4779752,0.0],[614444.8008386,9763015.5149037,0.0],[614418.8580334,9763032.9466158,0.0],[614394.7501789,9763049.1963718,0.0],[614390.2061887,9763052.0451753,0.0],[614383.8283938,9763055.6693999,0.0],[614379.1536269,9763057.6104838,0.0],[614373.4024328,9763059.702821,0.0],[614365.4744681,9763062.3921981,0.0],[614357.8766843,9763064.5504727,0.0],[614349.9533078,9763066.441389,0.0],[614343.9238685,9763067.8381319,0.0],[614335.7012901,9763069.6533536,0.0],[614325.0872293,9763071.6862231,0.0],[614315.9707167,9763073.3520174,0.0],[614307.5443425,9763074.6313412,0.0],[614299.0524069,9763075.6197158,0.0],[614284.823371,9763076.861296,0.0],[614263.1379506,9763078.4239215,0.0],[614164.6064834,9763085.8222502,0.0],[614148.2802214,9763087.0112128,0.0],[614142.8376607,9763087.2957767,0.0],[614137.646175,9763087.2674015,0.0],[614130.9656528,9763086.8380686,0.0],[614123.4035303,9763085.7651029,0.0],[614101.0026405,9763081.6196857,0.0],[614099.5488028,9763089.4758931,0.0],[614122.1148536,9763093.6518744,0.0],[614130.1470562,9763094.7915383,0.0],[614137.3678985,9763095.2555956,0.0],[614143.024565,9763095.2865134,0.0],[614148.7790098,9763094.9856425,0.0],[614165.1957488,9763093.790091,0.0],[614263.724179,9763086.3919903,0.0],[614285.4577769,9763084.8258932,0.0],[614299.861665,9763083.5690559,0.0],[614308.6061338,9763082.5512891,0.0],[614317.2886999,9763081.2330693,0.0],[614326.5567575,9763079.5395842,0.0],[614337.3142162,9763077.4792503,0.0],[614345.6866119,9763075.6309549,0.0],[614351.7821827,9763074.2188923,0.0],[614359.8965141,9763072.2824046,0.0],[614367.8508821,9763070.0228364,0.0],[614376.0518309,9763067.2408558,0.0],[614382.0527684,9763065.0576597,0.0],[614387.3473217,9763062.8592245,0.0],[614394.3037233,9763058.9062027,0.0],[614399.1061323,9763055.8953865,0.0],[614423.3188203,9763039.574968,0.0]]]]}},
{"type":"Feature","properties":{"Layer":"VIA ESPOL_ORIGINAL"},"geometry":{"type":"MultiPolygon","coordinates":[[[[615262.8759972,9762606.8337503,0.0],[615264.8944877,9762604.1164616,0.0],[615266.5656423,9762601.167237,0.0],[615270.7073985,9762592.2237114,0.0],[615273.6801482,9762583.0531492,0.0],[615275.7448182,9762574.2315717,0.0],[615277.712653,9762565.5094331,0.0],[615278.3257346,9762554.7473733,0.0],[615278.3257346,9762546.4081596,0.0],[615277.4073887,9762540.1511863,0.0],[615276.2468125,9762536.600196,0.0],[615275.1769944,9762533.4719163,0.0],[615273.4514265,9762530.0238933,0.0],[615271.5605227,9762527.1460346,0.0],[615269.3931422,9762524.538478,0.0],[615267.6789253,9762521.9045105,0.0],[615265.4862904,9762519.1337111,0.0],[615263.6088668,9762516.7903414,0.0],[615261.8076517,9762514.3258796,0.0],[615264.6108711,9762516.6267192,0.0],[615268.1414586,9762519.3239295,0.0],[615271.3711894,9762521.3240811,0.0],[615274.1327958,9762522.946019,0.0],[615277.1857329,9762524.6362477,0.0],[615280.5143276,9762526.3527106,0.0],[615283.3740829,9762527.6980531,0.0],[615286.4930399,9762529.2147789,0.0],[615289.5430522,9762530.7382349,0.0],[615292.7854409,9762532.4739156,0.0],[615295.7058914,9762534.175511,0.0],[615298.864368,9762536.11362,0.0],[615301.9507876,9762538.0175447,0.0],[615304.7777975,9762539.9894417,0.0],[615307.5282189,9762542.0589174,0.0],[615310.0678853,9762544.3388819,0.0],[615312.4082236,9762546.75797,0.0],[615314.7891792,9762549.5817853,0.0],[615316.9981753,9762552.4651909,0.0],[615323.6285714,9762562.2228794,0.0],[615328.0855861,9762568.8796741,0.0],[615348.2440045,9762598.7250724,0.0],[615365.4473487,9762623.6229001,0.0],[615391.8873766,9762662.6825306,0.0],[615393.3277438,9762665.1534764,0.0],[615394.2552556,9762667.6025066,0.0],[615395.0925002,9762670.4151575,0.0],[615395.8507276,9762673.2474013,0.0],[615395.648393,9762676.9743092,0.0],[615394.8512741,9762681.8775029,0.0],[615393.3314189,9762686.5452191,0.0],[615392.428496,9762689.3212073,0.0],[615391.3886145,9762692.1096338,0.0],[615390.6775434,9762695.1531041,0.0],[615390.2078073,9762698.1562106,0.0],[615390.0199748,9762701.1079244,0.0],[615390.1094665,9762706.3819991,0.0],[615389.7132567,9762707.5223623,0.0],[615398.640665,9762704.5880403,0.0],[615397.5830192,9762701.3293335,0.0],[615397.8007329,9762698.9525545,0.0],[615398.1269836,9762696.5745472,0.0],[615398.735425,9762693.9746008,0.0],[615399.4285688,9762691.4006816,0.0],[615400.2727218,9762688.805377,0.0],[615401.9665244,9762683.6034409,0.0],[615402.9164815,9762677.760117,0.0],[615403.2030076,9762672.4824418,0.0],[615402.1179898,9762668.4295218,0.0],[615401.1761021,9762665.2653315,0.0],[615399.9398043,9762662.0009734,0.0],[615398.0703443,9762658.7939201,0.0],[615371.4729959,9762619.5018812,0.0],[615354.2717682,9762594.6071168,0.0],[615334.1432585,9762564.8059995,0.0],[615329.6805693,9762558.1407297,0.0],[615322.9193886,9762548.1905708,0.0],[615320.4802012,9762545.0066962,0.0],[615317.8282961,9762541.8615346,0.0],[615315.1357736,9762539.0784116,0.0],[615312.1697469,9762536.4156857,0.0],[615309.0618542,9762534.077241,0.0],[615305.9584232,9762531.9125347,0.0],[615302.6896539,9762529.8961235,0.0],[615299.4528713,9762527.9099644,0.0],[615296.3467115,9762526.1001657,0.0],[615292.8973187,9762524.2536738,0.0],[615289.720368,9762522.6668131,0.0],[615286.5242068,9762521.1125435,0.0],[615283.742029,9762519.8036966,0.0],[615281.1836268,9762518.7324283,0.0],[615278.7414001,9762517.4009568,0.0],[615275.3180303,9762515.703419,0.0],[615269.4746774,9762511.8664748,0.0],[615250.9711537,9762497.3539037,0.0],[615249.4752341,9762495.8076636,0.0],[615242.7403016,9762486.0602601,0.0],[615236.1523987,9762476.0277759,0.0],[615224.3914097,9762458.3372322,0.0],[615222.5625311,9762455.8347326,0.0],[615219.5298579,9762450.9385196,0.0],[615217.884011,9762448.4358657,0.0],[615212.785792,9762440.6187285,0.0],[615207.8037546,9762433.6151678,0.0],[615204.0097146,9762427.8753354,0.0],[615198.4255182,9762431.7762134,0.0],[615212.5367179,9762451.952463,0.0],[615214.1347861,9762454.3824651,0.0],[615217.2507341,9762459.4131242,0.0],[615219.1404023,9762461.9988039,0.0],[615230.8126693,9762479.5558946,0.0],[615237.4320187,9762489.6362674,0.0],[615243.7125006,9762498.7259488,0.0],[615250.1927182,9762517.7919109,0.0],[615252.1343387,9762529.4773699,0.0],[615253.386477,9762536.3261455,0.0],[615253.7060158,9762545.067048,0.0],[615252.8210774,9762552.7723509,0.0],[615250.6199061,9762561.1674088,0.0],[615248.3445093,9762567.6343076,0.0],[615254.6207153,9762569.8426086,0.0],[615256.9865908,9762563.1185608,0.0],[615259.3769797,9762554.0018448,0.0],[615260.3733187,9762545.3265588,0.0],[615260.0282595,9762535.8875506,0.0],[615259.2987104,9762528.2586313,0.0],[615257.2250404,9762518.7997203,0.0],[615258.5734153,9762520.6445963,0.0],[615260.526736,9762523.0826995,0.0],[615262.5254803,9762525.6084824,0.0],[615264.2813728,9762528.3064863,0.0],[615266.4576396,9762530.9247337,0.0],[615267.94869,9762533.1940362,0.0],[615269.3165684,9762535.9273254,0.0],[615270.2342493,9762538.6107372,0.0],[615271.2134404,9762541.6067474,0.0],[615271.9860716,9762546.8709218,0.0],[615271.9860716,9762554.5669439,0.0],[615271.413065,9762564.6255249,0.0],[615269.5661837,9762572.8115555,0.0],[615267.5677002,9762581.3503422,0.0],[615264.7943335,9762589.9058327,0.0],[615260.9219802,9762598.2676217,0.0],[615259.5718156,9762600.6503686,0.0],[615257.7755899,9762603.0684447,0.0],[615255.9292128,9762605.5851103,0.0],[615253.7950761,9762607.6327256,0.0],[615250.0843868,9762611.146569,0.0],[615244.3616548,9762615.5605038,0.0],[615238.5410317,9762618.3030843,0.0],[615231.2065078,9762619.8706131,0.0],[615220.0259167,9762621.1813811,0.0],[615215.2404554,9762622.1879526,0.0],[615188.2495708,9762627.7678262,0.0],[615180.0949581,9762629.4356609,0.0],[615169.1157275,9762631.743964,0.0],[615159.3827969,9762634.1386186,0.0],[615150.3898705,9762637.4879542,0.0],[615141.2863839,9762642.0168366,0.0],[615128.0384315,9762649.0861448,0.0],[615114.7515723,9762656.3224177,0.0],[615105.5018438,9762662.2643812,0.0],[615100.8186617,9762666.6681537,0.0],[615099.0231765,9762669.1643986,0.0],[615095.9283595,9762673.7378549,0.0],[615094.4417422,9762676.9032214,0.0],[615089.3287404,9762684.4470174,0.0],[615101.7385888,9762681.5942554,0.0],[615101.5662855,9762679.742221,0.0],[615102.2155889,9762676.953047,0.0],[615104.4660223,9762672.4544001,0.0],[615105.6077083,9762670.8671255,0.0],[615109.4194822,9762667.2827711,0.0],[615117.985119,9762661.7802634,0.0],[615131.0468723,9762654.6665875,0.0],[615144.1911616,9762647.6525954,0.0],[615152.9150615,9762643.3125532,0.0],[615161.2526468,9762640.2072936,0.0],[615170.5256205,9762637.9258051,0.0],[615181.3823097,9762635.6432654,0.0],[615189.5264732,9762633.9775679,0.0],[615216.534658,9762628.3941177,0.0],[615221.0495707,9762627.4444533,0.0],[615232.2403661,9762626.132489,0.0],[615240.5814403,9762624.3498411,0.0],[615247.6875758,9762621.0015486,0.0],[615254.210403,9762615.9705015,0.0],[615258.1692164,9762612.2216964,0.0],[615260.7153196,9762609.7788166,0.0],[615262.8759972,9762606.8337503,0.0]]]]}},
{"type":"Feature","properties":{"Layer":"VIA ESPOL_POR PARTES"},"geometry":{"type":"MultiPolygon","coordinates":[[[[616630.2566209,9762512.6698947,0.0],[616635.7856598,9762509.3109745,0.0],[616639.2110749,9762505.5962833,0.0],[616644.9959855,9762493.2364931,0.0],[616651.2054549,9762478.2790135,0.0],[616654.8705442,9762469.0662345,0.0],[616654.3420727,9762469.0662345,0.0],[616654.3420727,9762451.8183636,0.0],[616650.0182185,9762459.5890379,0.0],[616643.783049,9762475.2621179,0.0],[616637.6491301,9762490.0376102,0.0],[616632.8416893,9762500.5806901,0.0],[616627.2342059,9762504.9715866,0.0],[616616.2090274,9762505.223176,0.0],[616600.6225056,9762505.6584161,0.0],[616579.1507988,9762506.0337757,0.0],[616563.7598056,9762506.2686716,0.0],[616556.7686672,9762507.4332137,0.0],[616553.0651647,9762509.1998526,0.0],[616549.2264715,9762512.3429304,0.0],[616546.4914487,9762516.4569495,0.0],[616540.1522498,9762526.3940938,0.0],[616550.0808517,9762526.3940938,0.0],[616553.3321179,9762521.6758222,0.0],[616555.6695066,9762518.4865351,0.0],[616555.9273085,9762518.1112911,0.0],[616555.9654922,9762518.0826729,0.0],[616558.5988664,9762516.1089902,0.0],[616562.272241,9762514.9409755,0.0],[616570.3537072,9762514.7073726,0.0],[616579.2740081,9762514.6460994,0.0],[616600.3126072,9762514.436153,0.0],[616600.3126074,9762514.436153,0.0],[616612.9301257,9762514.2037829,0.0],[616624.1506619,9762513.9368106,0.0],[616630.2566209,9762512.6698947,0.0]]]]}},
{"type":"Feature","properties":{"Layer":"VIA ESPOL_POR PARTES"},"geometry":{"type":"MultiPolygon","coordinates":[[[[616534.2043867,9762544.7246055,0.0],[616543.9035579,9762535.3586473,0.0],[616550.0808517,9762526.3940938,0.0],[616540.1522498,9762526.3940938,0.0],[616537.6733274,9762530.2799808,0.0],[616531.0729956,9762537.1623851,0.0],[616529.9364063,9762538.6096575,0.0],[616527.8498037,9762540.2473486,0.0],[616525.3034539,9762541.6288181,0.0],[616521.609171,9762542.0663121,0.0],[616510.6019751,9762542.3247704,0.0],[616488.2711859,9762542.9578204,0.0],[616476.2694097,9762544.4180673,0.0],[616477.7543715,9762552.4455106,0.0],[616488.8912905,9762550.442238,0.0],[616508.1904619,9762550.0403736,0.0],[616515.9096239,9762550.02695,0.0],[616523.6285427,9762549.8736493,0.0],[616526.6932712,9762549.4618607,0.0],[616531.8908686,9762546.9314689,0.0],[616534.2043867,9762544.7246055,0.0]]]]}},
{"type":"Feature","properties":{"Layer":"VIA ESPOL_POR PARTES"},"geometry":{"type":"MultiPolygon","coordinates":[[[[616722.6533485,9762404.2541594,0.0],[616723.2572661,9762401.4559448,0.0],[616724.7527787,9762398.8623628,0.0],[616727.5215494,9762396.6752489,0.0],[616735.2005464,9762392.9961888,0.0],[616743.28812,9762388.7070501,0.0],[616750.8713347,9762382.8897486,0.0],[616755.861413,9762378.2688044,0.0],[616763.7564469,9762370.5769166,0.0],[616767.4758674,9762366.9733359,0.0],[616767.6207472,9762366.8298569,0.0],[616768.5737047,9762366.8298569,0.0],[616773.5994051,9762355.123112,0.0],[616773.7917929,9762354.4998745,0.0],[616772.109194,9762356.2278488,0.0],[616771.9173723,9762356.5035592,0.0],[616769.7972395,9762358.6021509,0.0],[616765.0895213,9762363.4368244,0.0],[616746.3402502,9762381.3948247,0.0],[616742.1575261,9762384.1373852,0.0],[616737.0240536,9762387.1151436,0.0],[616731.9790996,9762389.4442853,0.0],[616732.2653573,9762389.8083639,0.0],[616725.3399291,9762393.1775042,0.0],[616723.5174939,9762394.1476508,0.0],[616713.3868377,9762399.3293515,0.0],[616703.6304107,9762405.0216393,0.0],[616685.2640032,9762413.7781013,0.0],[616677.1469459,9762419.6191065,0.0],[616668.4157936,9762428.2226562,0.0],[616665.1966871,9762434.0133334,0.0],[616659.0773518,9762443.3082912,0.0],[616654.3420727,9762451.8183636,0.0],[616654.3420727,9762469.0662345,0.0],[616655.1573064,9762469.0662345,0.0],[616656.6056891,9762465.5732031,0.0],[616660.4831264,9762455.5476429,0.0],[616662.4533811,9762452.9112719,0.0],[616670.1722797,9762441.0822072,0.0],[616674.0126529,9762434.9084227,0.0],[616677.9584621,9762430.5567903,0.0],[616685.4130339,9762423.9340269,0.0],[616694.7634514,9762418.0272322,0.0],[616712.6897327,9762409.0277968,0.0],[616715.6351292,9762408.6026356,0.0],[616718.6227842,9762410.2410985,0.0],[616719.6509885,9762411.6550525,0.0],[616724.9164903,9762418.8960048,0.0],[616729.7251497,9762425.5087216,0.0],[616733.5626371,9762430.7721143,0.0],[616738.5839366,9762437.5852085,0.0],[616740.5258708,9762440.3912451,0.0],[616740.995941,9762441.0704823,0.0],[616742.3323166,9762444.5883193,0.0],[616742.8377351,9762447.6223008,0.0],[616743.049926,9762436.2736609,0.0],[616741.8866203,9762434.7141453,0.0],[616741.856065,9762434.7203346,0.0],[616740.5297977,9762432.8952032,0.0],[616737.2214377,9762428.1056318,0.0],[616733.3099758,9762422.8430226,0.0],[616728.4292846,9762416.2798397,0.0],[616723.0775533,9762409.0987456,0.0],[616722.0732449,9762407.9689218,0.0],[616722.0732449,9762406.7235085,0.0],[616722.6533485,9762404.2541594,0.0]]]]}}
]
}
