{
"type": "FeatureCollection",
"name": "zonas_espol",
"crs": { "type": "name", "properties": { "name": "urn:ogc:def:crs:OGC:1.3:CRS84" } },
"xy_coordinate_resolution": 1e-06,
"features": [
{"type":"Feature","properties":{"gid":1,"id":null,"name":"ZONA 1","zona":1.0,"descripción":"ZEDE"},"geometry":{"type":"MultiPolygon","coordinates":[[[[-79.949207,-2.134686,0.0],[-79.952349,-2.135548,0.0],[-79.955032,-2.136118,0.0],[-79.958641,-2.136754,0.0],[-79.960372,-2.137159,0.0],[-79.96023,-2.137602,0.0],[-79.960228,-2.13761,0.0],[-79.959315,-2.14027,0.0],[-79.959642,-2.140463,0.0],[-79.96139,-2.141493,0.0],[-79.961201,-2.142853,0.0],[-79.960129,-2.144887,0.0],[-79.958943,-2.146832,0.0],[-79.958142,-2.147405,0.0],[-79.957093,-2.149531,0.0],[-79.952919,-2.149513,0.0],[-79.95079,-2.149425,0.0],[-79.950552,-2.149039,0.0],[-79.949702,-2.148908,0.0],[-79.947963,-2.150291,0.0],[-79.946441,-2.14965,0.0],[-79.946202,-2.147717,0.0],[-79.946161,-2.145524,0.0],[-79.946138,-2.144214,0.0],[-79.946133,-2.142753,0.0],[-79.946131,-2.141854,0.0],[-79.946437,-2.141763,0.0],[-79.946667,-2.141856,0.0],[-79.94682,-2.142066,0.0],[-79.946844,-2.142172,0.0],[-79.94694,-2.142152,0.0],[-79.94705,-2.142129,0.0],[-79.947046,-2.142088,0.0],[-79.946998,-2.141587,0.0],[-79.946971,-2.141284,0.0],[-79.947154,-2.139921,0.0],[-79.947179,-2.139331,0.0],[-79.94661,-2.138208,0.0],[-79.947656,-2.134801,0.0],[-79.947942,-2.1346,0.0],[-79.949207,-2.134686,0.0]]]]}},
{"type":"Feature","properties":{"gid":2,"id":null,"name":"ZONA 2","zona":2.0,"descripción":"ADMISIONES"},"geometry":{"type":"MultiPolygon","coordinates":[[[[-79.947963,-2.150291,0.0],[-79.949702,-2.148908,0.0],[-79.950552,-2.149039,0.0],[-79.95079,-2.149425,0.0],[-79.952472,-2.149495,0.0],[-79.953501,-2.151365,0.0],[-79.953501,-2.151533,0.0],[-79.953397,-2.151743,0.0],[-79.952976,-2.152022,0.0],[-79.952848,-2.152169,0.0],[-79.952782,-2.15233,0.0],[-79.951637,-2.151789,0.0],[-79.951259,-2.151611,0.0],[-79.949852,-2.151076,0.0],[-79.948978,-2.150719,0.0],[-79.947963,-2.150291,0.0]]]]}},
{"type":"Feature","properties":{"gid":3,"id":null,"name":"ZONA 3","zona":3.0,"descripción":"FACULTAD DE CIENCIAS DE LA VIDA"},"geometry":{"type":"MultiPolygon","coordinates":[[[[-79.952472,-2.149495,0.0],[-79.952919,-2.149513,0.0],[-79.957093,-2.149531,0.0],[-79.957598,-2.148508,0.0],[-79.959128,-2.149566,0.0],[-79.959792,-2.150166,0.0],[-79.960163,-2.150382,0.0],[-79.960179,-2.150398,0.0],[-79.959608,-2.150488,0.0],[-79.959297,-2.150572,0.0],[-79.95902,-2.150728,0.0],[-79.958355,-2.151372,0.0],[-79.95689,-2.15276,0.0],[-79.956432,-2.153187,0.0],[-79.956151,-2.153377,0.0],[-79.955666,-2.153463,0.0],[-79.955498,-2.153403,0.0],[-79.954186,-2.152878,0.0],[-79.954163,-2.152894,0.0],[-79.953112,-2.152485,0.0],[-79.952782,-2.15233,0.0],[-79.952848,-2.152169,0.0],[-79.952976,-2.152022,0.0],[-79.953397,-2.151743,0.0],[-79.953501,-2.151533,0.0],[-79.953501,-2.151365,0.0],[-79.952472,-2.149495,0.0]]]]}},
{"type":"Feature","properties":{"gid":4,"id":null,"name":"ZONA 4","zona":4.0,"descripción":"ÁREAS DEPORTIVAS"},"geometry":{"type":"MultiPolygon","coordinates":[[[[-79.95689,-2.15276,0.0],[-79.958355,-2.151372,0.0],[-79.95902,-2.150728,0.0],[-79.959297,-2.150572,0.0],[-79.959608,-2.150488,0.0],[-79.960189,-2.150397,0.0],[-79.960351,-2.150491,0.0],[-79.961055,-2.150696,0.0],[-79.961496,-2.150722,0.0],[-79.962017,-2.150635,0.0],[-79.963972,-2.149325,0.0],[-79.963973,-2.149327,0.0],[-79.964474,-2.148947,0.0],[-79.969358,-2.155694,0.0],[-79.967174,-2.157574,0.0],[-79.962863,-2.156287,0.0],[-79.958846,-2.154693,0.0],[-79.956497,-2.153757,0.0],[-79.955666,-2.153463,0.0],[-79.956151,-2.153377,0.0],[-79.956432,-2.153187,0.0],[-79.95689,-2.15276,0.0]]]]}},
{"type":"Feature","properties":{"gid":5,"id":null,"name":"ZONA 5","zona":5.0,"descripción":"FACULTAD DE MARÍTIMA Y CIENCIAS DEL MAR"},"geometry":{"type":"MultiPolygon","coordinates":[[[[-79.958142,-2.147405,0.0],[-79.958943,-2.146832,0.0],[-79.960129,-2.144887,0.0],[-79.96066,-2.14388,0.0],[-79.961564,-2.144535,0.0],[-79.961713,-2.144643,0.0],[-79.961865,-2.144701,0.0],[-79.962006,-2.14472,0.0],[-79.962147,-2.144732,0.0],[-79.962299,-2.144698,0.0],[-79.962404,-2.144645,0.0],[-79.962508,-2.144498,0.0],[-79.963146,-2.145012,0.0],[-79.963534,-2.14529,0.0],[-79.963692,-2.145373,0.0],[-79.963686,-2.147374,0.0],[-79.963507,-2.147441,0.0],[-79.963348,-2.147881,0.0],[-79.96302,-2.148131,0.0],[-79.963972,-2.149325,0.0],[-79.962017,-2.150635,0.0],[-79.961496,-2.150722,0.0],[-79.961055,-2.150696,0.0],[-79.960351,-2.150491,0.0],[-79.960189,-2.150397,0.0],[-79.959792,-2.150166,0.0],[-79.959128,-2.149566,0.0],[-79.957598,-2.148508,0.0],[-79.958142,-2.147405,0.0]]]]}},
{"type":"Feature","properties":{"gid":6,"id":null,"name":"ZONA 6","zona":6.0,"descripción":"RECTORADO"},"geometry":{"type":"MultiPolygon","coordinates":[[[[-79.96302,-2.148131,0.0],[-79.963348,-2.147881,0.0],[-79.963507,-2.147441,0.0],[-79.964722,-2.147035,0.0],[-79.965257,-2.148417,0.0],[-79.965127,-2.148497,0.0],[-79.964474,-2.148947,0.0],[-79.963973,-2.149327,0.0],[-79.96302,-2.148131,0.0]]]]}},
{"type":"Feature","properties":{"gid":7,"id":null,"name":"ZONA 7","zona":7.0,"descripción":"BIBLIOTECA CENTRAL"},"geometry":{"type":"MultiPolygon","coordinates":[[[[-79.964722,-2.147035,0.0],[-79.966191,-2.146544,0.0],[-79.966398,-2.146892,0.0],[-79.966739,-2.148038,0.0],[-79.966692,-2.148031,0.0],[-79.966463,-2.148031,0.0],[-79.966177,-2.148059,0.0],[-79.965885,-2.148121,0.0],[-79.965549,-2.148235,0.0],[-79.965351,-2.148358,0.0],[-79.965257,-2.148417,0.0],[-79.964722,-2.147035,0.0]]]]}},
{"type":"Feature","properties":{"gid":8,"id":null,"name":"ZONA 8","zona":8.0,"descripción":"FACULTAD DE CIENCIAS SOCIALES Y HUMANÍSTICAS"},"geometry":{"type":"MultiPolygon","coordinates":[[[[-79.974518,-2.141892,0.0],[-79.981156,-2.144333,0.0],[-79.981731,-2.144858,0.0],[-79.982385,-2.147952,0.0],[-79.982434,-2.151406,0.0],[-79.980967,-2.153143,0.0],[-79.977137,-2.153758,0.0],[-79.97591,-2.153082,0.0],[-79.975341,-2.152406,0.0],[-79.970416,-2.154783,0.0],[-79.969358,-2.155694,0.0],[-79.964474,-2.148947,0.0],[-79.965127,-2.148497,0.0],[-79.965257,-2.148417,0.0],[-79.965351,-2.148358,0.0],[-79.965549,-2.148235,0.0],[-79.965885,-2.148121,0.0],[-79.966177,-2.148059,0.0],[-79.966463,-2.148031,0.0],[-79.966692,-2.148031,0.0],[-79.966969,-2.148076,0.0],[-79.967254,-2.148113,0.0],[-79.967476,-2.148133,0.0],[-79.967685,-2.148083,0.0],[-79.96791,-2.147976,0.0],[-79.968112,-2.147783,0.0],[-79.96826,-2.147512,0.0],[-79.968347,-2.147282,0.0],[-79.968399,-2.147029,0.0],[-79.968449,-2.14669,0.0],[-79.968439,-2.146375,0.0],[-79.968384,-2.145975,0.0],[-79.968326,-2.145649,0.0],[-79.96829,-2.145526,0.0],[-79.968877,-2.145402,0.0],[-79.969271,-2.145387,0.0],[-79.969796,-2.145295,0.0],[-79.970104,-2.1451,0.0],[-79.970368,-2.144634,0.0],[-79.970526,-2.144159,0.0],[-79.970659,-2.143904,0.0],[-79.970905,-2.143606,0.0],[-79.971631,-2.143427,0.0],[-79.972429,-2.143447,0.0],[-79.973069,-2.143494,0.0],[-79.973893,-2.143648,0.0],[-79.974518,-2.141892,0.0]]]]}},
{"type":"Feature","properties":{"gid":9,"id":null,"name":"ZONA 9","zona":9.0,"descripción":"FACULTAD DE CIENCIAS NATURALES Y MATEMÁTICAS"},"geometry":{"type":"MultiPolygon","coordinates":[[[[-79.966191,-2.146544,0.0],[-79.966208,-2.146539,0.0],[-79.966334,-2.14631,0.0],[-79.966468,-2.146265,0.0],[-79.968326,-2.145649,0.0],[-79.968384,-2.145975,0.0],[-79.968439,-2.146375,0.0],[-79.968449,-2.14669,0.0],[-79.968399,-2.147029,0.0],[-79.968347,-2.147282,0.0],[-79.96826,-2.147512,0.0],[-79.968112,-2.147783,0.0],[-79.96791,-2.147976,0.0],[-79.967685,-2.148083,0.0],[-79.967476,-2.148133,0.0],[-79.967254,-2.148113,0.0],[-79.966969,-2.148076,0.0],[-79.966739,-2.148038,0.0],[-79.966398,-2.146892,0.0],[-79.966191,-2.146544,0.0]]]]}},
{"type":"Feature","properties":{"gid":10,"id":null,"name":"ZONA 10","zona":10.0,"descripción":"GBP"},"geometry":{"type":"MultiPolygon","coordinates":[[[[-79.963711,-2.13821,0.0],[-79.967409,-2.139516,0.0],[-79.968154,-2.139687,0.0],[-79.968392,-2.13964,0.0],[-79.974518,-2.141892,0.0],[-79.973893,-2.143648,0.0],[-79.973069,-2.143494,0.0],[-79.972429,-2.143447,0.0],[-79.971631,-2.143427,0.0],[-79.970905,-2.143606,0.0],[-79.970659,-2.143904,0.0],[-79.970526,-2.144159,0.0],[-79.970368,-2.144634,0.0],[-79.970104,-2.1451,0.0],[-79.969796,-2.145295,0.0],[-79.969271,-2.145387,0.0],[-79.968877,-2.145402,0.0],[-79.96829,-2.145526,0.0],[-79.968084,-2.144815,0.0],[-79.967905,-2.144253,0.0],[-79.967908,-2.144252,0.0],[-79.96753,-2.143761,0.0],[-79.967277,-2.143586,0.0],[-79.967039,-2.143474,0.0],[-79.966877,-2.143425,0.0],[-79.966585,-2.143356,0.0],[-79.966207,-2.143396,0.0],[-79.966016,-2.143468,0.0],[-79.965779,-2.143662,0.0],[-79.965382,-2.144088,0.0],[-79.964926,-2.144693,0.0],[-79.9646,-2.145138,0.0],[-79.964395,-2.145326,0.0],[-79.964158,-2.145423,0.0],[-79.963994,-2.145443,0.0],[-79.963894,-2.145436,0.0],[-79.963692,-2.145377,0.0],[-79.963711,-2.13821,0.0]]]]}},
{"type":"Feature","properties":{"gid":11,"id":null,"name":"ZONA 11","zona":11.0,"descripción":"FACULTAD DE ELECTRICIDAD Y COMPUTACIÓN"},"geometry":{"type":"MultiPolygon","coordinates":[[[[-79.965624,-2.1454,0.0],[-79.965524,-2.14532,0.0],[-79.965497,-2.145207,0.0],[-79.966649,-2.144853,0.0],[-79.966649,-2.144853,0.0],[-79.967295,-2.144637,0.0],[-79.967487,-2.144431,0.0],[-79.967572,-2.144307,0.0],[-79.967629,-2.144285,0.0],[-79.967905,-2.144253,0.0],[-79.968084,-2.144815,0.0],[-79.968326,-2.145649,0.0],[-79.966468,-2.146265,0.0],[-79.96628,-2.145742,0.0],[-79.965925,-2.145859,0.0],[-79.965742,-2.145791,0.0],[-79.965624,-2.1454,0.0]]]]}},
{"type":"Feature","properties":{"gid":12,"id":null,"name":"ZONA 12","zona":12.0,"descripción":"FACULTAD DE MECÁNICA Y CIENCIAS DE LA PRODUCCIÓN"},"geometry":{"type":"MultiPolygon","coordinates":[[[[-79.965382,-2.144088,0.0],[-79.965779,-2.143662,0.0],[-79.966016,-2.143468,0.0],[-79.966207,-2.143396,0.0],[-79.966585,-2.143356,0.0],[-79.966877,-2.143425,0.0],[-79.967039,-2.143474,0.0],[-79.967277,-2.143586,0.0],[-79.96753,-2.143761,0.0],[-79.967902,-2.144243,0.0],[-79.967905,-2.144253,0.0],[-79.967629,-2.144285,0.0],[-79.967572,-2.144307,0.0],[-79.967487,-2.144431,0.0],[-79.967295,-2.144637,0.0],[-79.966625,-2.144861,0.0],[-79.965176,-2.145305,0.0],[-79.965079,-2.144953,0.0],[-79.964856,-2.144788,0.0],[-79.964926,-2.144693,0.0],[-79.965382,-2.144088,0.0]]]]}},
{"type":"Feature","properties":{"gid":13,"id":null,"name":"ZONA 13","zona":13.0,"descripción":"FACULTAD DE CIENCIAS DE LA TIERRA"},"geometry":{"type":"MultiPolygon","coordinates":[[[[-79.963692,-2.145377,0.0],[-79.963894,-2.145436,0.0],[-79.963994,-2.145443,0.0],[-79.964158,-2.145423,0.0],[-79.964395,-2.145326,0.0],[-79.9646,-2.145138,0.0],[-79.964856,-2.144788,0.0],[-79.965079,-2.144953,0.0],[-79.965176,-2.145305,0.0],[-79.965497,-2.145207,0.0],[-79.965524,-2.14532,0.0],[-79.965624,-2.1454,0.0],[-79.965742,-2.145791,0.0],[-79.965925,-2.145859,0.0],[-79.96628,-2.145742,0.0],[-79.966468,-2.146265,0.0],[-79.966334,-2.14631,0.0],[-79.966208,-2.146539,0.0],[-79.963686,-2.147381,0.0],[-79.963692,-2.145377,0.0]]]]}},
{"type":"Feature","properties":{"gid":14,"id":null,"name":"ZONA 14","zona":14.0,"descripción":"FACULTAD DE ARTE, DISEÑO Y COMUNICACIÓN AUDIOVISUAL"},"geometry":{"type":"MultiPolygon","coordinates":[[[[-79.96023,-2.137602,0.0],[-79.96023,-2.137602,0.0],[-79.960372,-2.137159,0.0],[-79.961451,-2.137411,0.0],[-79.963711,-2.13821,0.0],[-79.963692,-2.145373,0.0],[-79.963534,-2.14529,0.0],[-79.963146,-2.145012,0.0],[-79.962508,-2.144498,0.0],[-79.962404,-2.144645,0.0],[-79.962299,-2.144698,0.0],[-79.962147,-2.144732,0.0],[-79.962006,-2.14472,0.0],[-79.961865,-2.144701,0.0],[-79.961713,-2.144643,0.0],[-79.961564,-2.144535,0.0],[-79.96066,-2.14388,0.0],[-79.961201,-2.142853,0.0],[-79.96139,-2.141493,0.0],[-79.959642,-2.140463,0.0],[-79.959315,-2.14027,0.0],[-79.96023,-2.137602,0.0]]]]}}
]
}
